{
	"Delhi":[
  {
    "Sr No.": 1,
    "Area": "Baroda House",
    "District": "Delhi",
    "Pincode": 110001
  },
  {
    "Sr No.": 2,
    "Area": "Bengali Market",
    "District": "Delhi",
    "Pincode": 110001
  },
  {
    "Sr No.": 3,
    "Area": "Bhagat Singh Market",
    "District": "Delhi",
    "Pincode": 110001
  },
  {
    "Sr No.": 4,
    "Area": "Connaught Place",
    "District": "Delhi",
    "Pincode": 110001
  },
  {
    "Sr No.": 5,
    "Area": "Constitution House",
    "District": "Delhi",
    "Pincode": 110001
  },
  {
    "Sr No.": 6,
    "Area": "Diz Area",
    "District": "Delhi",
    "Pincode": 110001
  },
  {
    "Sr No.": 7,
    "Area": "Election Commission",
    "District": "Delhi",
    "Pincode": 110001
  },
  {
    "Sr No.": 8,
    "Area": "G.P.O.",
    "District": "Delhi",
    "Pincode": 110001
  },
  {
    "Sr No.": 9,
    "Area": "Gole Market",
    "District": "Delhi",
    "Pincode": 110001
  },
  {
    "Sr No.": 10,
    "Area": "Janpath",
    "District": "Delhi",
    "Pincode": 110001
  },
  {
    "Sr No.": 11,
    "Area": "Krishi Bhawan",
    "District": "Delhi",
    "Pincode": 110001
  },
  {
    "Sr No.": 12,
    "Area": "Lady Harding Medical College",
    "District": "Delhi",
    "Pincode": 110001
  },
  {
    "Sr No.": 13,
    "Area": "Mandi House",
    "District": "Delhi",
    "Pincode": 110001
  },
  {
    "Sr No.": 14,
    "Area": "Delhi G.P.O.",
    "District": "Delhi",
    "Pincode": 110001
  },
  {
    "Sr No.": 15,
    "Area": "North Avenue",
    "District": "Delhi",
    "Pincode": 110001
  },
  {
    "Sr No.": 16,
    "Area": "Parliament House",
    "District": "Delhi",
    "Pincode": 110001
  },
  {
    "Sr No.": 17,
    "Area": "Patiala House",
    "District": "Delhi",
    "Pincode": 110001
  },
  {
    "Sr No.": 18,
    "Area": "Pragati Maidan Camp",
    "District": "Delhi",
    "Pincode": 110001
  },
  {
    "Sr No.": 19,
    "Area": "Pragati Maidan",
    "District": "Delhi",
    "Pincode": 110001
  },
  {
    "Sr No.": 20,
    "Area": "R K Ashram",
    "District": "Delhi",
    "Pincode": 110001
  },
  {
    "Sr No.": 21,
    "Area": "Rail Bhawan",
    "District": "Delhi",
    "Pincode": 110001
  },
  {
    "Sr No.": 22,
    "Area": "Sansad Marg",
    "District": "Delhi",
    "Pincode": 110001
  },
  {
    "Sr No.": 23,
    "Area": "Sansadiya Soudh",
    "District": "Delhi",
    "Pincode": 110001
  },
  {
    "Sr No.": 24,
    "Area": "Secretariat North",
    "District": "Delhi",
    "Pincode": 110001
  },
  {
    "Sr No.": 25,
    "Area": "Shastri Bhawan",
    "District": "Delhi",
    "Pincode": 110001
  },
  {
    "Sr No.": 26,
    "Area": "Supreme Court",
    "District": "Delhi",
    "Pincode": 110001
  },
  {
    "Sr No.": 27,
    "Area": "Gandhi Smarak Nidhi",
    "District": "Delhi",
    "Pincode": 110002
  },
  {
    "Sr No.": 28,
    "Area": "I.P.Estate",
    "District": "Delhi",
    "Pincode": 110002
  },
  {
    "Sr No.": 29,
    "Area": "Indraprastha",
    "District": "Delhi",
    "Pincode": 110002
  },
  {
    "Sr No.": 30,
    "Area": "Delhi High Court Extension Counter",
    "District": "Delhi",
    "Pincode": 110003
  },
  {
    "Sr No.": 31,
    "Area": "Delhi High Court",
    "District": "Delhi",
    "Pincode": 110003
  },
  {
    "Sr No.": 32,
    "Area": "Rashtrapati Bhawan",
    "District": "Delhi",
    "Pincode": 110004
  },
  {
    "Sr No.": 33,
    "Area": "Bank Street",
    "District": "Delhi",
    "Pincode": 110005
  },
  {
    "Sr No.": 34,
    "Area": "Bank Street (Central Delhi)",
    "District": "Delhi",
    "Pincode": 110005
  },
  {
    "Sr No.": 35,
    "Area": "Desh Bandhu Gupta Road",
    "District": "Delhi",
    "Pincode": 110005
  },
  {
    "Sr No.": 36,
    "Area": "Guru Gobind Singh Marg",
    "District": "Delhi",
    "Pincode": 110005
  },
  {
    "Sr No.": 37,
    "Area": "Karol Bagh",
    "District": "Delhi",
    "Pincode": 110005
  },
  {
    "Sr No.": 38,
    "Area": "Master Prithvi Nath Marg",
    "District": "Delhi",
    "Pincode": 110005
  },
  {
    "Sr No.": 39,
    "Area": "Sat Nagar",
    "District": "Delhi",
    "Pincode": 110005
  },
  {
    "Sr No.": 40,
    "Area": "Baljit Nagar",
    "District": "Delhi",
    "Pincode": 110008
  },
  {
    "Sr No.": 41,
    "Area": "Dada Ghosh Bhawan",
    "District": "Delhi",
    "Pincode": 110008
  },
  {
    "Sr No.": 42,
    "Area": "Patel Nagar East",
    "District": "Delhi",
    "Pincode": 110008
  },
  {
    "Sr No.": 43,
    "Area": "Patel Nagar",
    "District": "Delhi",
    "Pincode": 110008
  },
  {
    "Sr No.": 44,
    "Area": "Patel Nagar South",
    "District": "Delhi",
    "Pincode": 110008
  },
  {
    "Sr No.": 45,
    "Area": "Patel Nagar West",
    "District": "Delhi",
    "Pincode": 110008
  },
  {
    "Sr No.": 46,
    "Area": "Ranjit Nagar",
    "District": "Delhi",
    "Pincode": 110008
  },
  {
    "Sr No.": 47,
    "Area": "Nirman Bhawan",
    "District": "Delhi",
    "Pincode": 110011
  },
  {
    "Sr No.": 48,
    "Area": "South Avenue",
    "District": "Delhi",
    "Pincode": 110011
  },
  {
    "Sr No.": 49,
    "Area": "Udyog Bhawan",
    "District": "Delhi",
    "Pincode": 110011
  },
  {
    "Sr No.": 50,
    "Area": "Willingdon Crescent",
    "District": "Delhi",
    "Pincode": 110011
  },
  {
    "Sr No.": 51,
    "Area": "I.A.R.I.",
    "District": "Delhi",
    "Pincode": 110012
  },
  {
    "Sr No.": 52,
    "Area": "Inderpuri",
    "District": "Delhi",
    "Pincode": 110012
  },
  {
    "Sr No.": 53,
    "Area": "National Physical Laboratory",
    "District": "Delhi",
    "Pincode": 110012
  },
  {
    "Sr No.": 54,
    "Area": "A.K.Market",
    "District": "Delhi",
    "Pincode": 110055
  },
  {
    "Sr No.": 55,
    "Area": "Jhandewalan",
    "District": "Delhi",
    "Pincode": 110055
  },
  {
    "Sr No.": 56,
    "Area": "Multani Dhanda",
    "District": "Delhi",
    "Pincode": 110055
  },
  {
    "Sr No.": 57,
    "Area": "Officer Railway Colony",
    "District": "Delhi",
    "Pincode": 110055
  },
  {
    "Sr No.": 58,
    "Area": "Pahar Ganj",
    "District": "Delhi",
    "Pincode": 110055
  },
  {
    "Sr No.": 59,
    "Area": "Swami Ram Tirth Nagar",
    "District": "Delhi",
    "Pincode": 110055
  },
  {
    "Sr No.": 60,
    "Area": "Rajender Nagar",
    "District": "Delhi",
    "Pincode": 110060
  },
  {
    "Sr No.": 61,
    "Area": "Union Public Service Commission",
    "District": "Delhi",
    "Pincode": 110069
  },
  {
    "Sr No.": 62,
    "Area": "Aliganj",
    "District": "Delhi",
    "Pincode": 110003
  },
  {
    "Sr No.": 63,
    "Area": "CGO Complex",
    "District": "Delhi",
    "Pincode": 110003
  },
  {
    "Sr No.": 64,
    "Area": "Delhi High Court",
    "District": "Delhi",
    "Pincode": 110003
  },
  {
    "Sr No.": 65,
    "Area": "Golf Links",
    "District": "Delhi",
    "Pincode": 110003
  },
  {
    "Sr No.": 66,
    "Area": "Jorbagh",
    "District": "Delhi",
    "Pincode": 110003
  },
  {
    "Sr No.": 67,
    "Area": "Kasturba Nagar",
    "District": "Delhi",
    "Pincode": 110003
  },
  {
    "Sr No.": 68,
    "Area": "Kotla Mubarakpur",
    "District": "Delhi",
    "Pincode": 110003
  },
  {
    "Sr No.": 69,
    "Area": "Lodi Colony market",
    "District": "Delhi",
    "Pincode": 110003
  },
  {
    "Sr No.": 70,
    "Area": "Lodhi Road",
    "District": "Delhi",
    "Pincode": 110003
  },
  {
    "Sr No.": 71,
    "Area": "Lodi Road",
    "District": "Delhi",
    "Pincode": 110003
  },
  {
    "Sr No.": 72,
    "Area": "Pandara Road",
    "District": "Delhi",
    "Pincode": 110003
  },
  {
    "Sr No.": 73,
    "Area": "Pragati Vihar",
    "District": "Delhi",
    "Pincode": 110003
  },
  {
    "Sr No.": 74,
    "Area": "Safdarjung Air port",
    "District": "Delhi",
    "Pincode": 110003
  },
  {
    "Sr No.": 75,
    "Area": "South Ext-I",
    "District": "Delhi",
    "Pincode": 110003
  },
  {
    "Sr No.": 76,
    "Area": "Ashram",
    "District": "Delhi",
    "Pincode": 110014
  },
  {
    "Sr No.": 77,
    "Area": "Bhogal",
    "District": "Delhi",
    "Pincode": 110014
  },
  {
    "Sr No.": 78,
    "Area": "Hari Nagar Ashram",
    "District": "Delhi",
    "Pincode": 110014
  },
  {
    "Sr No.": 79,
    "Area": "Jeevan Nagar",
    "District": "Delhi",
    "Pincode": 110014
  },
  {
    "Sr No.": 80,
    "Area": "Jangpura",
    "District": "Delhi",
    "Pincode": 110014
  },
  {
    "Sr No.": 81,
    "Area": "Jungpura",
    "District": "Delhi",
    "Pincode": 110014
  },
  {
    "Sr No.": 82,
    "Area": "Jangpura Ext",
    "District": "Delhi",
    "Pincode": 110014
  },
  {
    "Sr No.": 83,
    "Area": "Maharani Bagh",
    "District": "Delhi",
    "Pincode": 110014
  },
  {
    "Sr No.": 84,
    "Area": "Pratap Market",
    "District": "Delhi",
    "Pincode": 110014
  },
  {
    "Sr No.": 85,
    "Area": "Siddhartha Enclave",
    "District": "Delhi",
    "Pincode": 110014
  },
  {
    "Sr No.": 86,
    "Area": "Chirag Delhi",
    "District": "Delhi",
    "Pincode": 110017
  },
  {
    "Sr No.": 87,
    "Area": "Distt. Court Complex, Saket",
    "District": "Delhi",
    "Pincode": 110017
  },
  {
    "Sr No.": 88,
    "Area": "Geetanjali Enclave",
    "District": "Delhi",
    "Pincode": 110017
  },
  {
    "Sr No.": 89,
    "Area": "Hauz Rani",
    "District": "Delhi",
    "Pincode": 110017
  },
  {
    "Sr No.": 90,
    "Area": "Khirki",
    "District": "Delhi",
    "Pincode": 110017
  },
  {
    "Sr No.": 91,
    "Area": "Malviya Nagar",
    "District": "Delhi",
    "Pincode": 110017
  },
  {
    "Sr No.": 92,
    "Area": "MMTC/STC Colony",
    "District": "Delhi",
    "Pincode": 110017
  },
  {
    "Sr No.": 93,
    "Area": "Malviya Nagar",
    "District": "Delhi",
    "Pincode": 110017
  },
  {
    "Sr No.": 94,
    "Area": "Panchsheel Park",
    "District": "Delhi",
    "Pincode": 110017
  },
  {
    "Sr No.": 95,
    "Area": "Panchsheel Enclave",
    "District": "Delhi",
    "Pincode": 110017
  },
  {
    "Sr No.": 96,
    "Area": "Pushp Vihar",
    "District": "Delhi",
    "Pincode": 110017
  },
  {
    "Sr No.": 97,
    "Area": "Saidulajab",
    "District": "Delhi",
    "Pincode": 110017
  },
  {
    "Sr No.": 98,
    "Area": "Saket",
    "District": "Delhi",
    "Pincode": 110017
  },
  {
    "Sr No.": 99,
    "Area": "Sarvodya Enclave",
    "District": "Delhi",
    "Pincode": 110017
  },
  {
    "Sr No.": 100,
    "Area": "South Malviya Nagar",
    "District": "Delhi",
    "Pincode": 110017
  },
  {
    "Sr No.": 101,
    "Area": "Savitri Nagar",
    "District": "Delhi",
    "Pincode": 110017
  },
  {
    "Sr No.": 102,
    "Area": "Sheikh Sarai",
    "District": "Delhi",
    "Pincode": 110017
  },
  {
    "Sr No.": 103,
    "Area": "Swami Nagar",
    "District": "Delhi",
    "Pincode": 110017
  },
  {
    "Sr No.": 104,
    "Area": "Alaknanda",
    "District": "Delhi",
    "Pincode": 110019
  },
  {
    "Sr No.": 105,
    "Area": "Chittranjan Park",
    "District": "Delhi",
    "Pincode": 110019
  },
  {
    "Sr No.": 106,
    "Area": "Govindpuri",
    "District": "Delhi",
    "Pincode": 110019
  },
  {
    "Sr No.": 107,
    "Area": "Kalkaji",
    "District": "Delhi",
    "Pincode": 110019
  },
  {
    "Sr No.": 108,
    "Area": "Kalkaji Extension",
    "District": "Delhi",
    "Pincode": 110019
  },
  {
    "Sr No.": 109,
    "Area": "Mandakini Enclave",
    "District": "Delhi",
    "Pincode": 110019
  },
  {
    "Sr No.": 110,
    "Area": "Nehru Place",
    "District": "Delhi",
    "Pincode": 110019
  },
  {
    "Sr No.": 111,
    "Area": "Tehkhand",
    "District": "Delhi",
    "Pincode": 110019
  },
  {
    "Sr No.": 112,
    "Area": "Tughlakabad",
    "District": "Delhi",
    "Pincode": 110019
  },
  {
    "Sr No.": 113,
    "Area": "Tughlakabad Extension",
    "District": "Delhi",
    "Pincode": 110019
  },
  {
    "Sr No.": 114,
    "Area": "Okhla Industrial Area",
    "District": "Delhi",
    "Pincode": 110020
  },
  {
    "Sr No.": 115,
    "Area": "Okhla Industrial Area Phase-I",
    "District": "Delhi",
    "Pincode": 110020
  },
  {
    "Sr No.": 116,
    "Area": "Okhla Industrial Estate",
    "District": "Delhi",
    "Pincode": 110020
  },
  {
    "Sr No.": 117,
    "Area": "Okhla Phase-I",
    "District": "Delhi",
    "Pincode": 110020
  },
  {
    "Sr No.": 118,
    "Area": "Okhla Phase-II",
    "District": "Delhi",
    "Pincode": 110020
  },
  {
    "Sr No.": 119,
    "Area": "Okhla Phase-III",
    "District": "Delhi",
    "Pincode": 110020
  },
  {
    "Sr No.": 120,
    "Area": "Amar Colony",
    "District": "Delhi",
    "Pincode": 110024
  },
  {
    "Sr No.": 121,
    "Area": "Defence Colony",
    "District": "Delhi",
    "Pincode": 110024
  },
  {
    "Sr No.": 122,
    "Area": "Krishna Market",
    "District": "Delhi",
    "Pincode": 110024
  },
  {
    "Sr No.": 123,
    "Area": "Lajpat Nagar",
    "District": "Delhi",
    "Pincode": 110024
  },
  {
    "Sr No.": 124,
    "Area": "Abul Fazal Enclave-I",
    "District": "Delhi",
    "Pincode": 110025
  },
  {
    "Sr No.": 125,
    "Area": "New Friends colony",
    "District": "Delhi",
    "Pincode": 110025
  },
  {
    "Sr No.": 126,
    "Area": "Sukhdev Vihar",
    "District": "Delhi",
    "Pincode": 110025
  },
  {
    "Sr No.": 127,
    "Area": "Greater Kailash",
    "District": "Delhi",
    "Pincode": 110048
  },
  {
    "Sr No.": 128,
    "Area": "Greater Kailash Part-I",
    "District": "Delhi",
    "Pincode": 110048
  },
  {
    "Sr No.": 129,
    "Area": "Greater Kailash Part-II",
    "District": "Delhi",
    "Pincode": 110048
  },
  {
    "Sr No.": 130,
    "Area": "Greater Kailash Part-III",
    "District": "Delhi",
    "Pincode": 110048
  },
  {
    "Sr No.": 131,
    "Area": "Kailash Colony",
    "District": "Delhi",
    "Pincode": 110048
  },
  {
    "Sr No.": 132,
    "Area": "Masjid Moth",
    "District": "Delhi",
    "Pincode": 110048
  },
  {
    "Sr No.": 133,
    "Area": "Andrews Ganj",
    "District": "Delhi",
    "Pincode": 110049
  },
  {
    "Sr No.": 134,
    "Area": "Gautam Nagar",
    "District": "Delhi",
    "Pincode": 110049
  },
  {
    "Sr No.": 135,
    "Area": "Gulmohar Park",
    "District": "Delhi",
    "Pincode": 110049
  },
  {
    "Sr No.": 136,
    "Area": "Khel Gaon",
    "District": "Delhi",
    "Pincode": 110049
  },
  {
    "Sr No.": 137,
    "Area": "Moolchand",
    "District": "Delhi",
    "Pincode": 110049
  },
  {
    "Sr No.": 138,
    "Area": "Neeti Bagh",
    "District": "Delhi",
    "Pincode": 110049
  },
  {
    "Sr No.": 139,
    "Area": "Delhi South Ext-II",
    "District": "Delhi",
    "Pincode": 110049
  },
  {
    "Sr No.": 140,
    "Area": "Sadiq Nagar",
    "District": "Delhi",
    "Pincode": 110049
  },
  {
    "Sr No.": 141,
    "Area": "Sahpurjat",
    "District": "Delhi",
    "Pincode": 110049
  },
  {
    "Sr No.": 142,
    "Area": "South Ex - 1",
    "District": "Delhi",
    "Pincode": 110049
  },
  {
    "Sr No.": 143,
    "Area": "South Ex - 2",
    "District": "Delhi",
    "Pincode": 110049
  },
  {
    "Sr No.": 144,
    "Area": "East Of Kailash",
    "District": "Delhi",
    "Pincode": 110065
  },
  {
    "Sr No.": 145,
    "Area": "East O Kailash Phase-I",
    "District": "Delhi",
    "Pincode": 110065
  },
  {
    "Sr No.": 146,
    "Area": "Garhi",
    "District": "Delhi",
    "Pincode": 110065
  },
  {
    "Sr No.": 147,
    "Area": "Nehru Nagar",
    "District": "Delhi",
    "Pincode": 110065
  },
  {
    "Sr No.": 148,
    "Area": "Sant Nagar",
    "District": "Delhi",
    "Pincode": 110065
  },
  {
    "Sr No.": 149,
    "Area": "Sriniwaspuri",
    "District": "Delhi",
    "Pincode": 110065
  },
  {
    "Sr No.": 150,
    "Area": "Taimoor Nagar",
    "District": "Delhi",
    "Pincode": 110065
  },
  {
    "Sr No.": 151,
    "Area": "Sarita Vihar",
    "District": "Delhi",
    "Pincode": 110076
  },
  {
    "Sr No.": 152,
    "Area": "Aps Colony",
    "District": "Delhi",
    "Pincode": 110010
  },
  {
    "Sr No.": 153,
    "Area": "Cariappa Vihar",
    "District": "Delhi",
    "Pincode": 110010
  },
  {
    "Sr No.": 154,
    "Area": "Delhi Cantt",
    "District": "Delhi",
    "Pincode": 110010
  },
  {
    "Sr No.": 155,
    "Area": "Dhaula Kuan",
    "District": "Delhi",
    "Pincode": 110010
  },
  {
    "Sr No.": 156,
    "Area": "Kirby Place",
    "District": "Delhi",
    "Pincode": 110010
  },
  {
    "Sr No.": 157,
    "Area": "Manekshaw",
    "District": "Delhi",
    "Pincode": 110010
  },
  {
    "Sr No.": 158,
    "Area": "Pinto Park",
    "District": "Delhi",
    "Pincode": 110010
  },
  {
    "Sr No.": 159,
    "Area": "R R Hospital",
    "District": "Delhi",
    "Pincode": 110010
  },
  {
    "Sr No.": 160,
    "Area": "Sadar Bazar Delhi Cantt",
    "District": "Delhi",
    "Pincode": 110010
  },
  {
    "Sr No.": 161,
    "Area": "Shadnagar",
    "District": "Delhi",
    "Pincode": 110010
  },
  {
    "Sr No.": 162,
    "Area": "Station HQ",
    "District": "Delhi",
    "Pincode": 110010
  },
  {
    "Sr No.": 163,
    "Area": "Subroto Park",
    "District": "Delhi",
    "Pincode": 110010
  },
  {
    "Sr No.": 164,
    "Area": "Vikram Vihar",
    "District": "Delhi",
    "Pincode": 110010
  },
  {
    "Sr No.": 165,
    "Area": "Adchini",
    "District": "Delhi",
    "Pincode": 110016
  },
  {
    "Sr No.": 166,
    "Area": "Green Park",
    "District": "Delhi",
    "Pincode": 110016
  },
  {
    "Sr No.": 167,
    "Area": "Green Park Market",
    "District": "Delhi",
    "Pincode": 110016
  },
  {
    "Sr No.": 168,
    "Area": "Hauz Khas",
    "District": "Delhi",
    "Pincode": 110016
  },
  {
    "Sr No.": 169,
    "Area": "Hauz Khas Market",
    "District": "Delhi",
    "Pincode": 110016
  },
  {
    "Sr No.": 170,
    "Area": "IIT Campus",
    "District": "Delhi",
    "Pincode": 110016
  },
  {
    "Sr No.": 171,
    "Area": "IT Hauz Khas",
    "District": "Delhi",
    "Pincode": 110016
  },
  {
    "Sr No.": 172,
    "Area": "Jia Sarai",
    "District": "Delhi",
    "Pincode": 110016
  },
  {
    "Sr No.": 173,
    "Area": "Kalu Sarai",
    "District": "Delhi",
    "Pincode": 110016
  },
  {
    "Sr No.": 174,
    "Area": "Katwaria Sarai",
    "District": "Delhi",
    "Pincode": 110016
  },
  {
    "Sr No.": 175,
    "Area": "NCERT Campus",
    "District": "Delhi",
    "Pincode": 110016
  },
  {
    "Sr No.": 176,
    "Area": "NIE Campus",
    "District": "Delhi",
    "Pincode": 110016
  },
  {
    "Sr No.": 177,
    "Area": "Qutub Enclave",
    "District": "Delhi",
    "Pincode": 110016
  },
  {
    "Sr No.": 178,
    "Area": "Sarvapriya Vihar",
    "District": "Delhi",
    "Pincode": 110016
  },
  {
    "Sr No.": 179,
    "Area": "Technology Bhawan",
    "District": "Delhi",
    "Pincode": 110016
  },
  {
    "Sr No.": 180,
    "Area": "Vijay Mandal Enclave",
    "District": "Delhi",
    "Pincode": 110016
  },
  {
    "Sr No.": 181,
    "Area": "Anand Niketan",
    "District": "Delhi",
    "Pincode": 110021
  },
  {
    "Sr No.": 182,
    "Area": "Chanakya Puri",
    "District": "Delhi",
    "Pincode": 110021
  },
  {
    "Sr No.": 183,
    "Area": "Malcha Marg",
    "District": "Delhi",
    "Pincode": 110021
  },
  {
    "Sr No.": 184,
    "Area": "Moti Bagh",
    "District": "Delhi",
    "Pincode": 110021
  },
  {
    "Sr No.": 185,
    "Area": "Nanak Pura",
    "District": "Delhi",
    "Pincode": 110021
  },
  {
    "Sr No.": 186,
    "Area": "Shankar Vihar",
    "District": "Delhi",
    "Pincode": 110021
  },
  {
    "Sr No.": 187,
    "Area": "South Campus",
    "District": "Delhi",
    "Pincode": 110021
  },
  {
    "Sr No.": 188,
    "Area": "South Delhi Campus",
    "District": "Delhi",
    "Pincode": 110021
  },
  {
    "Sr No.": 189,
    "Area": "R K Puram Sect-1",
    "District": "Delhi",
    "Pincode": 110022
  },
  {
    "Sr No.": 190,
    "Area": "R K Puram Sect-10",
    "District": "Delhi",
    "Pincode": 110022
  },
  {
    "Sr No.": 191,
    "Area": "R K Puram Sect-12",
    "District": "Delhi",
    "Pincode": 110022
  },
  {
    "Sr No.": 192,
    "Area": "R K Puram Sect-3",
    "District": "Delhi",
    "Pincode": 110022
  },
  {
    "Sr No.": 193,
    "Area": "R K Puram Sect-4",
    "District": "Delhi",
    "Pincode": 110022
  },
  {
    "Sr No.": 194,
    "Area": "R K Puram Sect-5",
    "District": "Delhi",
    "Pincode": 110022
  },
  {
    "Sr No.": 195,
    "Area": "R K Puram Sect-8",
    "District": "Delhi",
    "Pincode": 110022
  },
  {
    "Sr No.": 196,
    "Area": "R K Puram Sect-7",
    "District": "Delhi",
    "Pincode": 110022
  },
  {
    "Sr No.": 197,
    "Area": "R K Puram Sector - 6 Postal SB",
    "District": "Delhi",
    "Pincode": 110022
  },
  {
    "Sr No.": 198,
    "Area": "R K Puram",
    "District": "Delhi",
    "Pincode": 110022
  },
  {
    "Sr No.": 199,
    "Area": "INA",
    "District": "Delhi",
    "Pincode": 110023
  },
  {
    "Sr No.": 200,
    "Area": "INA Market",
    "District": "Delhi",
    "Pincode": 110023
  },
  {
    "Sr No.": 201,
    "Area": "Kidwai Nagar East",
    "District": "Delhi",
    "Pincode": 110023
  },
  {
    "Sr No.": 202,
    "Area": "Kidwai Nagar West",
    "District": "Delhi",
    "Pincode": 110023
  },
  {
    "Sr No.": 203,
    "Area": "Laxmi Bai Nagar",
    "District": "Delhi",
    "Pincode": 110023
  },
  {
    "Sr No.": 204,
    "Area": "Netaji Nagar",
    "District": "Delhi",
    "Pincode": 110023
  },
  {
    "Sr No.": 205,
    "Area": "Sarojini Nagar",
    "District": "Delhi",
    "Pincode": 110023
  },
  {
    "Sr No.": 206,
    "Area": "Naraina Industrial Estate",
    "District": "Delhi",
    "Pincode": 110028
  },
  {
    "Sr No.": 207,
    "Area": "Naraina Vihar",
    "District": "Delhi",
    "Pincode": 110028
  },
  {
    "Sr No.": 208,
    "Area": "Naraina Village",
    "District": "Delhi",
    "Pincode": 110028
  },
  {
    "Sr No.": 209,
    "Area": "Ansari Nagar",
    "District": "Delhi",
    "Pincode": 110029
  },
  {
    "Sr No.": 210,
    "Area": "Arjun Nagar",
    "District": "Delhi",
    "Pincode": 110029
  },
  {
    "Sr No.": 211,
    "Area": "Nauroji Nagar",
    "District": "Delhi",
    "Pincode": 110029
  },
  {
    "Sr No.": 212,
    "Area": "Safdarjung Enclave",
    "District": "Delhi",
    "Pincode": 110029
  },
  {
    "Sr No.": 213,
    "Area": "Lado Sarai",
    "District": "Delhi",
    "Pincode": 110030
  },
  {
    "Sr No.": 214,
    "Area": "Mehrauli",
    "District": "Delhi",
    "Pincode": 110030
  },
  {
    "Sr No.": 215,
    "Area": "Paryavaran Complex",
    "District": "Delhi",
    "Pincode": 110030
  },
  {
    "Sr No.": 216,
    "Area": "Qutub Minar",
    "District": "Delhi",
    "Pincode": 110030
  },
  {
    "Sr No.": 217,
    "Area": "Dabri",
    "District": "Delhi",
    "Pincode": 110045
  },
  {
    "Sr No.": 218,
    "Area": "Dabri Mor",
    "District": "Delhi",
    "Pincode": 110045
  },
  {
    "Sr No.": 219,
    "Area": "Dashrath Puri",
    "District": "Delhi",
    "Pincode": 110045
  },
  {
    "Sr No.": 220,
    "Area": "Indira Park",
    "District": "Delhi",
    "Pincode": 110045
  },
  {
    "Sr No.": 221,
    "Area": "Mahavir Enclave - I",
    "District": "Delhi",
    "Pincode": 110045
  },
  {
    "Sr No.": 222,
    "Area": "Mahavir Enclave - II",
    "District": "Delhi",
    "Pincode": 110045
  },
  {
    "Sr No.": 223,
    "Area": "Mahavir Enclave - III",
    "District": "Delhi",
    "Pincode": 110045
  },
  {
    "Sr No.": 224,
    "Area": "Manglapuri",
    "District": "Delhi",
    "Pincode": 110045
  },
  {
    "Sr No.": 225,
    "Area": "Nasirpur",
    "District": "Delhi",
    "Pincode": 110045
  },
  {
    "Sr No.": 226,
    "Area": "Palam Village",
    "District": "Delhi",
    "Pincode": 110045
  },
  {
    "Sr No.": 227,
    "Area": "Sadh Nagar",
    "District": "Delhi",
    "Pincode": 110045
  },
  {
    "Sr No.": 228,
    "Area": "Nangal Raya",
    "District": "Delhi",
    "Pincode": 110046
  },
  {
    "Sr No.": 229,
    "Area": "Sagarpur",
    "District": "Delhi",
    "Pincode": 110046
  },
  {
    "Sr No.": 230,
    "Area": "Suraj",
    "District": "Delhi",
    "Pincode": 110046
  },
  {
    "Sr No.": 231,
    "Area": "Vasant Enclave",
    "District": "Delhi",
    "Pincode": 110057
  },
  {
    "Sr No.": 232,
    "Area": "Vasant Vihar",
    "District": "Delhi",
    "Pincode": 110057
  },
  {
    "Sr No.": 233,
    "Area": "Vasant Vihar-1",
    "District": "Delhi",
    "Pincode": 110057
  },
  {
    "Sr No.": 234,
    "Area": "Vasant Vihar-2",
    "District": "Delhi",
    "Pincode": 110057
  },
  {
    "Sr No.": 235,
    "Area": "Hari Nagar",
    "District": "Delhi",
    "Pincode": 110064
  },
  {
    "Sr No.": 236,
    "Area": "Hari Nagar (West Delhi)",
    "District": "Delhi",
    "Pincode": 110064
  },
  {
    "Sr No.": 237,
    "Area": "Hari Nagar BE Block",
    "District": "Delhi",
    "Pincode": 110064
  },
  {
    "Sr No.": 238,
    "Area": "Hari Nagar Dadb Block",
    "District": "Delhi",
    "Pincode": 110064
  },
  {
    "Sr No.": 239,
    "Area": "Maya Puri",
    "District": "Delhi",
    "Pincode": 110064
  },
  {
    "Sr No.": 240,
    "Area": "Mayapuri Shopping Centre",
    "District": "Delhi",
    "Pincode": 110064
  },
  {
    "Sr No.": 241,
    "Area": "R K Puram (Main)",
    "District": "Delhi",
    "Pincode": 110066
  },
  {
    "Sr No.": 242,
    "Area": "R K Puram West",
    "District": "Delhi",
    "Pincode": 110066
  },
  {
    "Sr No.": 243,
    "Area": "RK Puram",
    "District": "Delhi",
    "Pincode": 110066
  },
  {
    "Sr No.": 244,
    "Area": "J.N.U.",
    "District": "Delhi",
    "Pincode": 110067
  },
  {
    "Sr No.": 245,
    "Area": "JNU New Campus",
    "District": "Delhi",
    "Pincode": 110067
  },
  {
    "Sr No.": 246,
    "Area": "Munirka",
    "District": "Delhi",
    "Pincode": 110067
  },
  {
    "Sr No.": 247,
    "Area": "Freedom Fighter Colony",
    "District": "Delhi",
    "Pincode": 110068
  },
  {
    "Sr No.": 248,
    "Area": "Freedom Fighter Enclave",
    "District": "Delhi",
    "Pincode": 110068
  },
  {
    "Sr No.": 249,
    "Area": "Ignou",
    "District": "Delhi",
    "Pincode": 110068
  },
  {
    "Sr No.": 250,
    "Area": "Maidan Garhi",
    "District": "Delhi",
    "Pincode": 110068
  },
  {
    "Sr No.": 251,
    "Area": "Neb Sarai",
    "District": "Delhi",
    "Pincode": 110068
  },
  {
    "Sr No.": 252,
    "Area": "Rajpur Khurd",
    "District": "Delhi",
    "Pincode": 110068
  },
  {
    "Sr No.": 253,
    "Area": "Sainik Farm",
    "District": "Delhi",
    "Pincode": 110068
  },
  {
    "Sr No.": 254,
    "Area": "Kishangarh",
    "District": "Delhi",
    "Pincode": 110070
  },
  {
    "Sr No.": 255,
    "Area": "Masood Pur",
    "District": "Delhi",
    "Pincode": 110070
  },
  {
    "Sr No.": 256,
    "Area": "Vasant Kunj Pkt-A",
    "District": "Delhi",
    "Pincode": 110070
  },
  {
    "Sr No.": 257,
    "Area": "Vasant Kunj",
    "District": "Delhi",
    "Pincode": 110070
  },
  {
    "Sr No.": 258,
    "Area": "C.S.K.M. School",
    "District": "Delhi",
    "Pincode": 110074
  },
  {
    "Sr No.": 259,
    "Area": "Chandan Hola",
    "District": "Delhi",
    "Pincode": 110074
  },
  {
    "Sr No.": 260,
    "Area": "Chattarpur",
    "District": "Delhi",
    "Pincode": 110074
  },
  {
    "Sr No.": 261,
    "Area": "Chattarpur Enclave",
    "District": "Delhi",
    "Pincode": 110074
  },
  {
    "Sr No.": 262,
    "Area": "Amberhai",
    "District": "Delhi",
    "Pincode": 110075
  },
  {
    "Sr No.": 263,
    "Area": "District Court Complex",
    "District": "Delhi",
    "Pincode": 110075
  },
  {
    "Sr No.": 264,
    "Area": "District Court Complex Dwarka",
    "District": "Delhi",
    "Pincode": 110075
  },
  {
    "Sr No.": 265,
    "Area": "Dwarka Mor",
    "District": "Delhi",
    "Pincode": 110075
  },
  {
    "Sr No.": 266,
    "Area": "Dwarka Sec-6",
    "District": "Delhi",
    "Pincode": 110075
  },
  {
    "Sr No.": 267,
    "Area": "Ramphal Chowk",
    "District": "Delhi",
    "Pincode": 110075
  },
  {
    "Sr No.": 268,
    "Area": "Sector 1 - 10",
    "District": "Delhi",
    "Pincode": 110075
  },
  {
    "Sr No.": 269,
    "Area": "Sector 11 - 20",
    "District": "Delhi",
    "Pincode": 110075
  },
  {
    "Sr No.": 270,
    "Area": "Sector 21 - 27",
    "District": "Delhi",
    "Pincode": 110075
  },
  {
    "Sr No.": 271,
    "Area": "Sector - 28",
    "District": "Delhi",
    "Pincode": 110075
  },
  {
    "Sr No.": 272,
    "Area": "Bagdola",
    "District": "Delhi",
    "Pincode": 110077
  },
  {
    "Sr No.": 273,
    "Area": "Palam Extn",
    "District": "Delhi",
    "Pincode": 110077
  },
  {
    "Sr No.": 274,
    "Area": "Palam Extn (Harijan Basti)",
    "District": "Delhi",
    "Pincode": 110077
  },
  {
    "Sr No.": 275,
    "Area": "Raj Nagar - I",
    "District": "Delhi",
    "Pincode": 110077
  },
  {
    "Sr No.": 276,
    "Area": "Raj Nagar - II",
    "District": "Delhi",
    "Pincode": 110077
  },
  {
    "Sr No.": 277,
    "Area": "Sector 11 - 20",
    "District": "Delhi",
    "Pincode": 110077
  },
  {
    "Sr No.": 278,
    "Area": "Sector 21 - 27",
    "District": "Delhi",
    "Pincode": 110077
  },
  {
    "Sr No.": 279,
    "Area": "Sector - 28",
    "District": "Delhi",
    "Pincode": 110077
  },
  {
    "Sr No.": 280,
    "Area": "Distt. Court Complex",
    "District": "Delhi",
    "Pincode": 110078
  },
  {
    "Sr No.": 281,
    "Area": "Distt. Court Complex, Dwarka",
    "District": "Delhi",
    "Pincode": 110078
  },
  {
    "Sr No.": 282,
    "Area": "GGSIP University",
    "District": "Delhi",
    "Pincode": 110078
  },
  {
    "Sr No.": 283,
    "Area": "Kakrola",
    "District": "Delhi",
    "Pincode": 110078
  },
  {
    "Sr No.": 284,
    "Area": "N.S.I.T. Dwarka",
    "District": "Delhi",
    "Pincode": 110078
  },
  {
    "Sr No.": 285,
    "Area": "Sector 1 - 10",
    "District": "Delhi",
    "Pincode": 110078
  },
  {
    "Sr No.": 286,
    "Area": "Sector 11 - 20",
    "District": "Delhi",
    "Pincode": 110078
  },
  {
    "Sr No.": 287,
    "Area": "Gandhi Nagar Bazar",
    "District": "Delhi",
    "Pincode": 110031
  },
  {
    "Sr No.": 288,
    "Area": "Gandhi Nagar",
    "District": "Delhi",
    "Pincode": 110031
  },
  {
    "Sr No.": 289,
    "Area": "Geeta Colony",
    "District": "Delhi",
    "Pincode": 110031
  },
  {
    "Sr No.": 290,
    "Area": "Shastri Nagar",
    "District": "Delhi",
    "Pincode": 110031
  },
  {
    "Sr No.": 291,
    "Area": "Balbir Nagar",
    "District": "Delhi",
    "Pincode": 110032
  },
  {
    "Sr No.": 292,
    "Area": "Distt. Court (KKD)",
    "District": "Delhi",
    "Pincode": 110032
  },
  {
    "Sr No.": 293,
    "Area": "Goverdhan Bihari Colony",
    "District": "Delhi",
    "Pincode": 110032
  },
  {
    "Sr No.": 294,
    "Area": "Man Sarovar Park",
    "District": "Delhi",
    "Pincode": 110032
  },
  {
    "Sr No.": 295,
    "Area": "Rohtash Nagar",
    "District": "Delhi",
    "Pincode": 110032
  },
  {
    "Sr No.": 296,
    "Area": "Shahdara",
    "District": "Delhi",
    "Pincode": 110032
  },
  {
    "Sr No.": 297,
    "Area": "Shivaji Park",
    "District": "Delhi",
    "Pincode": 110032
  },
  {
    "Sr No.": 298,
    "Area": "Subhash Park",
    "District": "Delhi",
    "Pincode": 110032
  },
  {
    "Sr No.": 299,
    "Area": "Telewara",
    "District": "Delhi",
    "Pincode": 110032
  },
  {
    "Sr No.": 300,
    "Area": "Vishwas Nagar",
    "District": "Delhi",
    "Pincode": 110032
  },
  {
    "Sr No.": 301,
    "Area": "Govind Pura",
    "District": "Delhi",
    "Pincode": 110051
  },
  {
    "Sr No.": 302,
    "Area": "Gagan Vihar",
    "District": "Delhi",
    "Pincode": 110051
  },
  {
    "Sr No.": 303,
    "Area": "Karkardooma",
    "District": "Delhi",
    "Pincode": 110051
  },
  {
    "Sr No.": 304,
    "Area": "Krishna Nagar",
    "District": "Delhi",
    "Pincode": 110051
  },
  {
    "Sr No.": 305,
    "Area": "Ram Nagar",
    "District": "Delhi",
    "Pincode": 110051
  },
  {
    "Sr No.": 306,
    "Area": "Rajeev Nagar",
    "District": "Delhi",
    "Pincode": 110090
  },
  {
    "Sr No.": 307,
    "Area": "Sonia Vihar",
    "District": "Delhi",
    "Pincode": 110090
  },
  {
    "Sr No.": 308,
    "Area": "Chilla",
    "District": "Delhi",
    "Pincode": 110091
  },
  {
    "Sr No.": 309,
    "Area": "Commonwealth Games Village",
    "District": "Delhi",
    "Pincode": 110091
  },
  {
    "Sr No.": 310,
    "Area": "Himmatpuri",
    "District": "Delhi",
    "Pincode": 110091
  },
  {
    "Sr No.": 311,
    "Area": "Kalyanpuri",
    "District": "Delhi",
    "Pincode": 110091
  },
  {
    "Sr No.": 312,
    "Area": "Kalyanvas",
    "District": "Delhi",
    "Pincode": 110091
  },
  {
    "Sr No.": 313,
    "Area": "Mayur Vihar Ph-1",
    "District": "Delhi",
    "Pincode": 110091
  },
  {
    "Sr No.": 314,
    "Area": "Mayur Vihar Ph-2",
    "District": "Delhi",
    "Pincode": 110091
  },
  {
    "Sr No.": 315,
    "Area": "Patparganj",
    "District": "Delhi",
    "Pincode": 110091
  },
  {
    "Sr No.": 316,
    "Area": "Trilok Puri",
    "District": "Delhi",
    "Pincode": 110091
  },
  {
    "Sr No.": 317,
    "Area": "Anand Vihar",
    "District": "Delhi",
    "Pincode": 110092
  },
  {
    "Sr No.": 318,
    "Area": "Ganesh Nagar",
    "District": "Delhi",
    "Pincode": 110092
  },
  {
    "Sr No.": 319,
    "Area": "IP Extension",
    "District": "Delhi",
    "Pincode": 110092
  },
  {
    "Sr No.": 320,
    "Area": "Karkardooma",
    "District": "Delhi",
    "Pincode": 110092
  },
  {
    "Sr No.": 321,
    "Area": "Laxmi Nagar",
    "District": "Delhi",
    "Pincode": 110092
  },
  {
    "Sr No.": 322,
    "Area": "Madhuban",
    "District": "Delhi",
    "Pincode": 110092
  },
  {
    "Sr No.": 323,
    "Area": "Mandawali Fazalpur",
    "District": "Delhi",
    "Pincode": 110092
  },
  {
    "Sr No.": 324,
    "Area": "Nirman Vihar",
    "District": "Delhi",
    "Pincode": 110092
  },
  {
    "Sr No.": 325,
    "Area": "Pandav Nagar",
    "District": "Delhi",
    "Pincode": 110092
  },
  {
    "Sr No.": 326,
    "Area": "Preet Vihar",
    "District": "Delhi",
    "Pincode": 110092
  },
  {
    "Sr No.": 327,
    "Area": "Shakarpur",
    "District": "Delhi",
    "Pincode": 110092
  },
  {
    "Sr No.": 328,
    "Area": "Srestha Vihar",
    "District": "Delhi",
    "Pincode": 110092
  },
  {
    "Sr No.": 329,
    "Area": "Surajmal Vihar",
    "District": "Delhi",
    "Pincode": 110092
  },
  {
    "Sr No.": 330,
    "Area": "Yozna Vihar",
    "District": "Delhi",
    "Pincode": 110092
  },
  {
    "Sr No.": 331,
    "Area": "Sonia Vihar",
    "District": "Delhi",
    "Pincode": 110094
  },
  {
    "Sr No.": 332,
    "Area": "Dilshad Garden",
    "District": "Delhi",
    "Pincode": 110095
  },
  {
    "Sr No.": 333,
    "Area": "G.T.B. Hospital",
    "District": "Delhi",
    "Pincode": 110095
  },
  {
    "Sr No.": 334,
    "Area": "Jhilmil",
    "District": "Delhi",
    "Pincode": 110095
  },
  {
    "Sr No.": 335,
    "Area": "V.K. Nagar",
    "District": "Delhi",
    "Pincode": 110095
  },
  {
    "Sr No.": 336,
    "Area": "Vivek Vihar",
    "District": "Delhi",
    "Pincode": 110095
  },
  {
    "Sr No.": 337,
    "Area": "Ghazipur",
    "District": "Delhi",
    "Pincode": 110096
  },
  {
    "Sr No.": 338,
    "Area": "New Ashok Nagar",
    "District": "Delhi",
    "Pincode": 110096
  },
  {
    "Sr No.": 339,
    "Area": "Mayur Vihar Ph-III",
    "District": "Delhi",
    "Pincode": 110096
  },
  {
    "Sr No.": 340,
    "Area": "Vasundhra Enclave",
    "District": "Delhi",
    "Pincode": 110096
  },
  {
    "Sr No.": 341,
    "Area": "Bali Nagar",
    "District": "Delhi",
    "Pincode": 110015
  },
  {
    "Sr No.": 342,
    "Area": "Basai Darapur",
    "District": "Delhi",
    "Pincode": 110015
  },
  {
    "Sr No.": 343,
    "Area": "Delhi Industrial Area",
    "District": "Delhi",
    "Pincode": 110015
  },
  {
    "Sr No.": 344,
    "Area": "DLF Moti Nagar",
    "District": "Delhi",
    "Pincode": 110015
  },
  {
    "Sr No.": 345,
    "Area": "ESI",
    "District": "Delhi",
    "Pincode": 110015
  },
  {
    "Sr No.": 346,
    "Area": "Hastal Village",
    "District": "Delhi",
    "Pincode": 110015
  },
  {
    "Sr No.": 347,
    "Area": "Jwalaheri",
    "District": "Delhi",
    "Pincode": 110015
  },
  {
    "Sr No.": 348,
    "Area": "Karam Pura",
    "District": "Delhi",
    "Pincode": 110015
  },
  {
    "Sr No.": 349,
    "Area": "L. M. Nagar Indl. Area",
    "District": "Delhi",
    "Pincode": 110015
  },
  {
    "Sr No.": 350,
    "Area": "Mansarover Garden",
    "District": "Delhi",
    "Pincode": 110015
  },
  {
    "Sr No.": 351,
    "Area": "N.I. Area",
    "District": "Delhi",
    "Pincode": 110015
  },
  {
    "Sr No.": 352,
    "Area": "Nangloi - II",
    "District": "Delhi",
    "Pincode": 110015
  },
  {
    "Sr No.": 353,
    "Area": "Peeragarhi",
    "District": "Delhi",
    "Pincode": 110015
  },
  {
    "Sr No.": 354,
    "Area": "Ramesh Nagar",
    "District": "Delhi",
    "Pincode": 110015
  },
  {
    "Sr No.": 355,
    "Area": "Sudershan Park",
    "District": "Delhi",
    "Pincode": 110015
  },
  {
    "Sr No.": 356,
    "Area": "Ashok Nagar",
    "District": "Delhi",
    "Pincode": 110018
  },
  {
    "Sr No.": 357,
    "Area": "Ashok Nagar (West Delhi)",
    "District": "Delhi",
    "Pincode": 110018
  },
  {
    "Sr No.": 358,
    "Area": "Chand Nagar",
    "District": "Delhi",
    "Pincode": 110018
  },
  {
    "Sr No.": 359,
    "Area": "Fateh Nagar",
    "District": "Delhi",
    "Pincode": 110018
  },
  {
    "Sr No.": 360,
    "Area": "M.B.S. Nagar",
    "District": "Delhi",
    "Pincode": 110018
  },
  {
    "Sr No.": 361,
    "Area": "Mahabir Nagar",
    "District": "Delhi",
    "Pincode": 110018
  },
  {
    "Sr No.": 362,
    "Area": "Mahavir Nagar",
    "District": "Delhi",
    "Pincode": 110018
  },
  {
    "Sr No.": 363,
    "Area": "Sant Garh",
    "District": "Delhi",
    "Pincode": 110018
  },
  {
    "Sr No.": 364,
    "Area": "Tilak Nagar",
    "District": "Delhi",
    "Pincode": 110018
  },
  {
    "Sr No.": 365,
    "Area": "Tilak Nagar (West Delhi)",
    "District": "Delhi",
    "Pincode": 110018
  },
  {
    "Sr No.": 366,
    "Area": "Tilak Nagar East",
    "District": "Delhi",
    "Pincode": 110018
  },
  {
    "Sr No.": 367,
    "Area": "Vikas Puri",
    "District": "Delhi",
    "Pincode": 110018
  },
  {
    "Sr No.": 368,
    "Area": "Vikaspuri",
    "District": "Delhi",
    "Pincode": 110018
  },
  {
    "Sr No.": 369,
    "Area": "Vishnu Garden",
    "District": "Delhi",
    "Pincode": 110018
  },
  {
    "Sr No.": 370,
    "Area": "Ashoka Park Extn.",
    "District": "Delhi",
    "Pincode": 110026
  },
  {
    "Sr No.": 371,
    "Area": "Punjabi Bagh",
    "District": "Delhi",
    "Pincode": 110026
  },
  {
    "Sr No.": 372,
    "Area": "Punjabi Bagh Sec - III",
    "District": "Delhi",
    "Pincode": 110026
  },
  {
    "Sr No.": 373,
    "Area": "Shivaji Park",
    "District": "Delhi",
    "Pincode": 110026
  },
  {
    "Sr No.": 374,
    "Area": "Shivaji Park (West Delhi)",
    "District": "Delhi",
    "Pincode": 110026
  },
  {
    "Sr No.": 375,
    "Area": "Rajouri Garden J-6",
    "District": "Delhi",
    "Pincode": 110027
  },
  {
    "Sr No.": 376,
    "Area": "Janta Market",
    "District": "Delhi",
    "Pincode": 110027
  },
  {
    "Sr No.": 377,
    "Area": "Meenakshi Garden",
    "District": "Delhi",
    "Pincode": 110027
  },
  {
    "Sr No.": 378,
    "Area": "Raja Garden",
    "District": "Delhi",
    "Pincode": 110027
  },
  {
    "Sr No.": 379,
    "Area": "Rajouri Garden",
    "District": "Delhi",
    "Pincode": 110027
  },
  {
    "Sr No.": 380,
    "Area": "Rajouri Market",
    "District": "Delhi",
    "Pincode": 110027
  },
  {
    "Sr No.": 381,
    "Area": "Subhash Nagar",
    "District": "Delhi",
    "Pincode": 110027
  },
  {
    "Sr No.": 382,
    "Area": "Subhash Nagar (West Delhi)",
    "District": "Delhi",
    "Pincode": 110027
  },
  {
    "Sr No.": 383,
    "Area": "Subhash Nagar West",
    "District": "Delhi",
    "Pincode": 110027
  },
  {
    "Sr No.": 384,
    "Area": "Tagore Garden",
    "District": "Delhi",
    "Pincode": 110027
  },
  {
    "Sr No.": 385,
    "Area": "Chanakya Place",
    "District": "Delhi",
    "Pincode": 110058
  },
  {
    "Sr No.": 386,
    "Area": "Janak Puri A-3",
    "District": "Delhi",
    "Pincode": 110058
  },
  {
    "Sr No.": 387,
    "Area": "Janak Puri B-1",
    "District": "Delhi",
    "Pincode": 110058
  },
  {
    "Sr No.": 388,
    "Area": "Janak Puri C-4",
    "District": "Delhi",
    "Pincode": 110058
  },
  {
    "Sr No.": 389,
    "Area": "D.E.S.U. Colony",
    "District": "Delhi",
    "Pincode": 110058
  },
  {
    "Sr No.": 390,
    "Area": "Jail Road",
    "District": "Delhi",
    "Pincode": 110058
  },
  {
    "Sr No.": 391,
    "Area": "Janakpuri",
    "District": "Delhi",
    "Pincode": 110058
  },
  {
    "Sr No.": 392,
    "Area": "Shiv Nagar",
    "District": "Delhi",
    "Pincode": 110058
  },
  {
    "Sr No.": 393,
    "Area": "Virender Nagar",
    "District": "Delhi",
    "Pincode": 110058
  },
  {
    "Sr No.": 394,
    "Area": "Bhagwati Garden",
    "District": "Delhi",
    "Pincode": 110059
  },
  {
    "Sr No.": 395,
    "Area": "D. K. Mohan Garden",
    "District": "Delhi",
    "Pincode": 110059
  },
  {
    "Sr No.": 396,
    "Area": "Dal Mill Road",
    "District": "Delhi",
    "Pincode": 110059
  },
  {
    "Sr No.": 397,
    "Area": "DK Road",
    "District": "Delhi",
    "Pincode": 110059
  },
  {
    "Sr No.": 398,
    "Area": "Dwarka Mor",
    "District": "Delhi",
    "Pincode": 110059
  },
  {
    "Sr No.": 399,
    "Area": "Gulab Bagh",
    "District": "Delhi",
    "Pincode": 110059
  },
  {
    "Sr No.": 400,
    "Area": "Hastal Vilage",
    "District": "Delhi",
    "Pincode": 110059
  },
  {
    "Sr No.": 401,
    "Area": "Jain Park",
    "District": "Delhi",
    "Pincode": 110059
  },
  {
    "Sr No.": 402,
    "Area": "Jain Road",
    "District": "Delhi",
    "Pincode": 110059
  },
  {
    "Sr No.": 403,
    "Area": "Jeevan Park",
    "District": "Delhi",
    "Pincode": 110059
  },
  {
    "Sr No.": 404,
    "Area": "Kiran Garden",
    "District": "Delhi",
    "Pincode": 110059
  },
  {
    "Sr No.": 405,
    "Area": "Mansa Ram Park",
    "District": "Delhi",
    "Pincode": 110059
  },
  {
    "Sr No.": 406,
    "Area": "Matiala",
    "District": "Delhi",
    "Pincode": 110059
  },
  {
    "Sr No.": 407,
    "Area": "Nawada",
    "District": "Delhi",
    "Pincode": 110059
  },
  {
    "Sr No.": 408,
    "Area": "Om Vihar",
    "District": "Delhi",
    "Pincode": 110059
  },
  {
    "Sr No.": 409,
    "Area": "Peepal Road",
    "District": "Delhi",
    "Pincode": 110059
  },
  {
    "Sr No.": 410,
    "Area": "Rajapuri",
    "District": "Delhi",
    "Pincode": 110059
  },
  {
    "Sr No.": 411,
    "Area": "Rama Park",
    "District": "Delhi",
    "Pincode": 110059
  },
  {
    "Sr No.": 412,
    "Area": "Sainik Nagar",
    "District": "Delhi",
    "Pincode": 110059
  },
  {
    "Sr No.": 413,
    "Area": "Sewak Park",
    "District": "Delhi",
    "Pincode": 110059
  },
  {
    "Sr No.": 414,
    "Area": "Uttam Nagar",
    "District": "Delhi",
    "Pincode": 110059
  },
  {
    "Sr No.": 415,
    "Area": "Vani Vihar",
    "District": "Delhi",
    "Pincode": 110059
  },
  {
    "Sr No.": 416,
    "Area": "Vipin Garden",
    "District": "Delhi",
    "Pincode": 110059
  },
  {
    "Sr No.": 417,
    "Area": "Vishvas Park",
    "District": "Delhi",
    "Pincode": 110059
  },
  {
    "Sr No.": 418,
    "Area": "Jawala Heri",
    "District": "Delhi",
    "Pincode": 110063
  },
  {
    "Sr No.": 419,
    "Area": "Paschim Vihar",
    "District": "Delhi",
    "Pincode": 110063
  },
  {
    "Sr No.": 420,
    "Area": "Paschim Vihar B Block",
    "District": "Delhi",
    "Pincode": 110063
  },
  {
    "Sr No.": 421,
    "Area": "Peera Garhi",
    "District": "Delhi",
    "Pincode": 110063
  },
  {
    "Sr No.": 422,
    "Area": "Peeragarhi",
    "District": "Delhi",
    "Pincode": 110063
  },
  {
    "Sr No.": 423,
    "Area": "Hari Nagar",
    "District": "Delhi",
    "Pincode": 110064
  },
  {
    "Sr No.": 424,
    "Area": "Hari Nagar (West Delhi)",
    "District": "Delhi",
    "Pincode": 110064
  },
  {
    "Sr No.": 425,
    "Area": "Hari Nagar BE Block",
    "District": "Delhi",
    "Pincode": 110064
  },
  {
    "Sr No.": 426,
    "Area": "Hari Nagar Dadb Block",
    "District": "Delhi",
    "Pincode": 110064
  },
  {
    "Sr No.": 427,
    "Area": "Maya Puri",
    "District": "Delhi",
    "Pincode": 110064
  },
  {
    "Sr No.": 428,
    "Area": "Mayapuri Shopping Center",
    "District": "Delhi",
    "Pincode": 110064
  },
  {
    "Sr No.": 429,
    "Area": "Jwala Puri",
    "District": "Delhi",
    "Pincode": 110087
  },
  {
    "Sr No.": 430,
    "Area": "Peera Garhi",
    "District": "Delhi",
    "Pincode": 110087
  },
  {
    "Sr No.": 431,
    "Area": "Sunder Vihar",
    "District": "Delhi",
    "Pincode": 110087
  }
]
 	
}