{
	
	"Ghaziabad":[
		 {
		   "S.No.": 1,
		   "Area": "Ashok Nagar",
		   "District": "Ghaziabad",
		   "Pincode": 201001
		 },
		 {
		   "S.No.": 2,
		   "Area": "Nehru Nagar",
		   "District": "Ghaziabad",
		   "Pincode": 201001
		 },
		 {
		   "S.No.": 3,
		   "Area": "Ramte Ram Road",
		   "District": "Ghaziabad",
		   "Pincode": 201001
		 },
		 {
		   "S.No.": 4,
		   "Area": "Ghaziabad",
		   "District": "Ghaziabad",
		   "Pincode": 201001
		 },
		 {
		   "S.No.": 5,
		   "Area": "Nehru Nagar",
		   "District": "Ghaziabad",
		   "Pincode": 201001
		 },
		 {
		   "S.No.": 6,
		   "Area": "Ramte Ram Road",
		   "District": "Ghaziabad",
		   "Pincode": 201001
		 },
		 {
		   "S.No.": 7,
		   "Area": "Ingram Institute",
		   "District": "Ghaziabad",
		   "Pincode": 201002
		 },
		 {
		   "S.No.": 8,
		   "Area": "Kamla Nehru Nagar",
		   "District": "Ghaziabad",
		   "Pincode": 201002
		 },
		 {
		   "S.No.": 9,
		   "Area": "Kavi Nagar",
		   "District": "Ghaziabad",
		   "Pincode": 201002
		 },
		 {
		   "S.No.": 10,
		   "Area": "New Raj Nagar",
		   "District": "Ghaziabad",
		   "Pincode": 201002
		 },
		 {
		   "S.No.": 11,
		   "Area": "Old Raj Nagar",
		   "District": "Ghaziabad",
		   "Pincode": 201002
		 },
		 {
		   "S.No.": 12,
		   "Area": "Police Line Harsaon",
		   "District": "Ghaziabad",
		   "Pincode": 201002
		 },
		 {
		   "S.No.": 13,
		   "Area": "Raispur",
		   "District": "Ghaziabad",
		   "Pincode": 201002
		 },
		 {
		   "S.No.": 14,
		   "Area": "Rajapur",
		   "District": "Ghaziabad",
		   "Pincode": 201002
		 },
		 {
		   "S.No.": 15,
		   "Area": "RAKNPA",
		   "District": "Ghaziabad",
		   "Pincode": 201002
		 },
		 {
		   "S.No.": 16,
		   "Area": "Sadarpur",
		   "District": "Ghaziabad",
		   "Pincode": 201002
		 },
		 {
		   "S.No.": 17,
		   "Area": "Shahpur Bamheta",
		   "District": "Ghaziabad",
		   "Pincode": 201002
		 },
		 {
		   "S.No.": 18,
		   "Area": "Shastri Nagar",
		   "District": "Ghaziabad",
		   "Pincode": 201002
		 },
		 {
		   "S.No.": 19,
		   "Area": "Vivekanand Nagar",
		   "District": "Ghaziabad",
		   "Pincode": 201002
		 },
		 {
		   "S.No.": 20,
		   "Area": "Ator Nagla",
		   "District": "Ghaziabad",
		   "Pincode": 201003
		 },
		 {
		   "S.No.": 21,
		   "Area": "Aurangabad Ristal",
		   "District": "Ghaziabad",
		   "Pincode": 201003
		 },
		 {
		   "S.No.": 22,
		   "Area": "Bhup Kheri",
		   "District": "Ghaziabad",
		   "Pincode": 201003
		 },
		 {
		   "S.No.": 23,
		   "Area": "Farrukh Nagar",
		   "District": "Ghaziabad",
		   "Pincode": 201003
		 },
		 {
		   "S.No.": 24,
		   "Area": "Meerut Road",
		   "District": "Ghaziabad",
		   "Pincode": 201003
		 },
		 {
		   "S.No.": 25,
		   "Area": "Morta",
		   "District": "Ghaziabad",
		   "Pincode": 201003
		 },
		 {
		   "S.No.": 26,
		   "Area": "Nistoli",
		   "District": "Ghaziabad",
		   "Pincode": 201003
		 },
		 {
		   "S.No.": 27,
		   "Area": "Hindon Air Field",
		   "District": "Ghaziabad",
		   "Pincode": 201004
		 },
		 {
		   "S.No.": 28,
		   "Area": "Bhopura",
		   "District": "Ghaziabad",
		   "Pincode": 201005
		 },
		 {
		   "S.No.": 29,
		   "Area": "Pasonda",
		   "District": "Ghaziabad",
		   "Pincode": 201005
		 },
		 {
		   "S.No.": 30,
		   "Area": "Sahibabad",
		   "District": "Ghaziabad",
		   "Pincode": 201005
		 },
		 {
		   "S.No.": 31,
		   "Area": "Chikamberpur",
		   "District": "Ghaziabad",
		   "Pincode": 201006
		 },
		 {
		   "S.No.": 32,
		   "Area": "Mohan Nagar",
		   "District": "Ghaziabad",
		   "Pincode": 201007
		 },
		 {
		   "S.No.": 33,
		   "Area": "Arya Nagar",
		   "District": "Ghaziabad",
		   "Pincode": 201009
		 },
		 {
		   "S.No.": 34,
		   "Area": "B.B.Nagar",
		   "District": "Ghaziabad",
		   "Pincode": 201009
		 },
		 {
		   "S.No.": 35,
		   "Area": "Bhangel",
		   "District": "Ghaziabad",
		   "Pincode": 201009
		 },
		 {
		   "S.No.": 36,
		   "Area": "Chhaprola",
		   "District": "Ghaziabad",
		   "Pincode": 201009
		 },
		 {
		   "S.No.": 37,
		   "Area": "Crossing Republic",
		   "District": "Ghaziabad",
		   "Pincode": 201009
		 },
		 {
		   "S.No.": 38,
		   "Area": "Dasna Gate",
		   "District": "Ghaziabad",
		   "Pincode": 201009
		 },
		 {
		   "S.No.": 39,
		   "Area": "Dundahera",
		   "District": "Ghaziabad",
		   "Pincode": 201009
		 },
		 {
		   "S.No.": 40,
		   "Area": "Eco Village 2",
		   "District": "Ghaziabad",
		   "Pincode": 201009
		 },
		 {
		   "S.No.": 41,
		   "Area": "Eco Village 3",
		   "District": "Ghaziabad",
		   "Pincode": 201009
		 },
		 {
		   "S.No.": 42,
		   "Area": "Gaur City",
		   "District": "Ghaziabad",
		   "Pincode": 201009
		 },
		 {
		   "S.No.": 43,
		   "Area": "Gaur City 1",
		   "District": "Ghaziabad",
		   "Pincode": 201009
		 },
		 {
		   "S.No.": 44,
		   "Area": "Gaur City 2",
		   "District": "Ghaziabad",
		   "Pincode": 201009
		 },
		 {
		   "S.No.": 45,
		   "Area": "Ghaziabad City",
		   "District": "Ghaziabad",
		   "Pincode": 201009
		 },
		 {
		   "S.No.": 46,
		   "Area": "Nasratpura ED",
		   "District": "Ghaziabad",
		   "Pincode": 201009
		 },
		 {
		   "S.No.": 47,
		   "Area": "Roza Yakubpur",
		   "District": "Ghaziabad",
		   "Pincode": 201009
		 },
		 {
		   "S.No.": 48,
		   "Area": "Sector 16",
		   "District": "Ghaziabad",
		   "Pincode": 201009
		 },
		 {
		   "S.No.": 49,
		   "Area": "Sector 16B",
		   "District": "Ghaziabad",
		   "Pincode": 201009
		 },
		 {
		   "S.No.": 50,
		   "Area": "Sector 16B",
		   "District": "Ghaziabad",
		   "Pincode": 201009
		 },
		 {
		   "S.No.": 51,
		   "Area": "Sector 4, Greater Noida",
		   "District": "Ghaziabad",
		   "Pincode": 201009
		 },
		 {
		   "S.No.": 52,
		   "Area": "Techzone 4",
		   "District": "Ghaziabad",
		   "Pincode": 201009
		 },
		 {
		   "S.No.": 53,
		   "Area": "Vijai Nagar",
		   "District": "Ghaziabad",
		   "Pincode": 201009
		 },
		 {
		   "S.No.": 54,
		   "Area": "Chhaprola",
		   "District": "Ghaziabad",
		   "Pincode": 201009
		 },
		 {
		   "S.No.": 55,
		   "Area": "Chhipyana",
		   "District": "Ghaziabad",
		   "Pincode": 201009
		 },
		 {
		   "S.No.": 56,
		   "Area": "Dasna Gate Ed",
		   "District": "Ghaziabad",
		   "Pincode": 201009
		 },
		 {
		   "S.No.": 57,
		   "Area": "Dundahera",
		   "District": "Ghaziabad",
		   "Pincode": 201009
		 },
		 {
		   "S.No.": 58,
		   "Area": "Ghaziabad City",
		   "District": "Ghaziabad",
		   "Pincode": 201009
		 },
		 {
		   "S.No.": 59,
		   "Area": "Kaila",
		   "District": "Ghaziabad",
		   "Pincode": 201009
		 },
		 {
		   "S.No.": 60,
		   "Area": "Model Town",
		   "District": "Ghaziabad",
		   "Pincode": 201009
		 },
		 {
		   "S.No.": 61,
		   "Area": "Nasratpura ED",
		   "District": "Ghaziabad",
		   "Pincode": 201009
		 },
		 {
		   "S.No.": 62,
		   "Area": "Roza Yakubpur",
		   "District": "Ghaziabad",
		   "Pincode": 201009
		 },
		 {
		   "S.No.": 63,
		   "Area": "Vijay Nagar",
		   "District": "Ghaziabad",
		   "Pincode": 201009
		 },
		 {
		   "S.No.": 64,
		   "Area": "Bharat Nagar",
		   "District": "Ghaziabad",
		   "Pincode": 201010
		 },
		 {
		   "S.No.": 65,
		   "Area": "Abhay Khand",
		   "District": "Ghaziabad",
		   "Pincode": 201010
		 },
		 {
		   "S.No.": 66,
		   "Area": "Hasanpur",
		   "District": "Ghaziabad",
		   "Pincode": 201010
		 },
		 {
		   "S.No.": 67,
		   "Area": "Indirapuram",
		   "District": "Ghaziabad",
		   "Pincode": 201010
		 },
		 {
		   "S.No.": 68,
		   "Area": "Sahibabad",
		   "District": "Ghaziabad",
		   "Pincode": 201010
		 },
		 {
		   "S.No.": 69,
		   "Area": "Vaishali",
		   "District": "Ghaziabad",
		   "Pincode": 201010
		 },
		 {
		   "S.No.": 70,
		   "Area": "Kaushambi",
		   "District": "Ghaziabad",
		   "Pincode": 201010
		 },
		 {
		   "S.No.": 71,
		   "Area": "Hasanpur Bhowapur",
		   "District": "Ghaziabad",
		   "Pincode": 201010
		 },
		 {
		   "S.No.": 72,
		   "Area": "I.E.Sahibabad",
		   "District": "Ghaziabad",
		   "Pincode": 201010
		 },
		 {
		   "S.No.": 73,
		   "Area": "Chander Nagar",
		   "District": "Ghaziabad",
		   "Pincode": 201011
		 },
		 {
		   "S.No.": 74,
		   "Area": "Kaushambi",
		   "District": "Ghaziabad",
		   "Pincode": 201012
		 },
		 {
		   "S.No.": 75,
		   "Area": "Vasundhra",
		   "District": "Ghaziabad",
		   "Pincode": 201012
		 },
		 {
		   "S.No.": 76,
		   "Area": "Govindpuram",
		   "District": "Ghaziabad",
		   "Pincode": 201013
		 },
		 {
		   "S.No.": 77,
		   "Area": "Makanpur",
		   "District": "Ghaziabad",
		   "Pincode": 201014
		 },
		 {
		   "S.No.": 78,
		   "Area": "Shipra Sun City",
		   "District": "Ghaziabad",
		   "Pincode": 201014
		 },
		 {
		   "S.No.": 79,
		   "Area": "Ahinsa Khand 1",
		   "District": "Ghaziabad",
		   "Pincode": 201014
		 },
		 {
		   "S.No.": 80,
		   "Area": "Ahinsa Khand 2",
		   "District": "Ghaziabad",
		   "Pincode": 201014
		 },
		 {
		   "S.No.": 81,
		   "Area": "Gyan Khand",
		   "District": "Ghaziabad",
		   "Pincode": 201014
		 },
		 {
		   "S.No.": 82,
		   "Area": "Indirapuram",
		   "District": "Ghaziabad",
		   "Pincode": 201014
		 },
		 {
		   "S.No.": 83,
		   "Area": "Kala Patthar",
		   "District": "Ghaziabad",
		   "Pincode": 201014
		 },
		 {
		   "S.No.": 84,
		   "Area": "Niti Khand",
		   "District": "Ghaziabad",
		   "Pincode": 201014
		 },
		 {
		   "S.No.": 85,
		   "Area": "Nyay Khand",
		   "District": "Ghaziabad",
		   "Pincode": 201014
		 },
		 {
		   "S.No.": 86,
		   "Area": "Shakti Khand",
		   "District": "Ghaziabad",
		   "Pincode": 201014
		 },
		 {
		   "S.No.": 87,
		   "Area": "Vaibhav Khand",
		   "District": "Ghaziabad",
		   "Pincode": 201014
		 },
		 {
		   "S.No.": 88,
		   "Area": "Adhyatmic Nagar",
		   "District": "Ghaziabad",
		   "Pincode": 201015
		 },
		 {
		   "S.No.": 89,
		   "Area": "Dasna",
		   "District": "Ghaziabad",
		   "Pincode": 201015
		 },
		 {
		   "S.No.": 90,
		   "Area": "Dasna R.S.",
		   "District": "Ghaziabad",
		   "Pincode": 201015
		 },
		 {
		   "S.No.": 91,
		   "Area": "Galand",
		   "District": "Ghaziabad",
		   "Pincode": 201015
		 },
		 {
		   "S.No.": 92,
		   "Area": "Hassanpur",
		   "District": "Ghaziabad",
		   "Pincode": 201015
		 },
		 {
		   "S.No.": 93,
		   "Area": "Hindan Nagar",
		   "District": "Ghaziabad",
		   "Pincode": 201015
		 },
		 {
		   "S.No.": 94,
		   "Area": "Jindal Nagar",
		   "District": "Ghaziabad",
		   "Pincode": 201015
		 },
		 {
		   "S.No.": 95,
		   "Area": "Kushlia",
		   "District": "Ghaziabad",
		   "Pincode": 201015
		 },
		 {
		   "S.No.": 96,
		   "Area": "Nahal",
		   "District": "Ghaziabad",
		   "Pincode": 201015
		 },
		 {
		   "S.No.": 97,
		   "Area": "Udai Rampur Nagla",
		   "District": "Ghaziabad",
		   "Pincode": 201015
		 },
		 {
		   "S.No.": 98,
		   "Area": "Crossing Republik",
		   "District": "Ghaziabad",
		   "Pincode": 201016
		 },
		 {
		   "S.No.": 99,
		   "Area": "Raj Nagar Extension",
		   "District": "Ghaziabad",
		   "Pincode": 201017
		 },
		 {
		   "S.No.": 100,
		   "Area": "Vaishali",
		   "District": "Ghaziabad",
		   "Pincode": 201019
		 },
		 {
		   "S.No.": 101,
		   "Area": "Badshahnpur Siroli",
		   "District": "Ghaziabad",
		   "Pincode": 201102
		 },
		 {
		   "S.No.": 102,
		   "Area": "Behta Hazipur",
		   "District": "Ghaziabad",
		   "Pincode": 201102
		 },
		 {
		   "S.No.": 103,
		   "Area": "Chirori",
		   "District": "Ghaziabad",
		   "Pincode": 201102
		 },
		 {
		   "S.No.": 104,
		   "Area": "Jaoli",
		   "District": "Ghaziabad",
		   "Pincode": 201102
		 },
		 {
		   "S.No.": 105,
		   "Area": "Loni",
		   "District": "Ghaziabad",
		   "Pincode": 201102
		 },
		 {
		   "S.No.": 106,
		   "Area": "Mandola",
		   "District": "Ghaziabad",
		   "Pincode": 201102
		 },
		 {
		   "S.No.": 107,
		   "Area": "Teela Sahbazpur",
		   "District": "Ghaziabad",
		   "Pincode": 201102
		 },
		 {
		   "S.No.": 108,
		   "Area": "Tronica City",
		   "District": "Ghaziabad",
		   "Pincode": 201103
		 },
		 {
		   "S.No.": 109,
		   "Area": "Churiyala",
		   "District": "Ghaziabad",
		   "Pincode": 201201
		 },
		 {
		   "S.No.": 110,
		   "Area": "Govindpuri",
		   "District": "Ghaziabad",
		   "Pincode": 201201
		 },
		 {
		   "S.No.": 111,
		   "Area": "Harmukhpuri",
		   "District": "Ghaziabad",
		   "Pincode": 201201
		 },
		 {
		   "S.No.": 112,
		   "Area": "Rori",
		   "District": "Ghaziabad",
		   "Pincode": 201201
		 },
		 {
		   "S.No.": 113,
		   "Area": "Saidpur",
		   "District": "Ghaziabad",
		   "Pincode": 201201
		 },
		 {
		   "S.No.": 114,
		   "Area": "Sara",
		   "District": "Ghaziabad",
		   "Pincode": 201201
		 },
		 {
		   "S.No.": 115,
		   "Area": "Talhata",
		   "District": "Ghaziabad",
		   "Pincode": 201201
		 },
		 {
		   "S.No.": 116,
		   "Area": "Begmabad",
		   "District": "Ghaziabad",
		   "Pincode": 201204
		 },
		 {
		   "S.No.": 117,
		   "Area": "Gyaspur",
		   "District": "Ghaziabad",
		   "Pincode": 201204
		 },
		 {
		   "S.No.": 118,
		   "Area": "Khanjarpur",
		   "District": "Ghaziabad",
		   "Pincode": 201204
		 },
		 {
		   "S.No.": 119,
		   "Area": "Khindora",
		   "District": "Ghaziabad",
		   "Pincode": 201204
		 },
		 {
		   "S.No.": 120,
		   "Area": "Modi Nagar",
		   "District": "Ghaziabad",
		   "Pincode": 201204
		 },
		 {
		   "S.No.": 121,
		   "Area": "Nagla Akhu",
		   "District": "Ghaziabad",
		   "Pincode": 201204
		 },
		 {
		   "S.No.": 122,
		   "Area": "Niwari",
		   "District": "Ghaziabad",
		   "Pincode": 201204
		 },
		 {
		   "S.No.": 123,
		   "Area": "Painga",
		   "District": "Ghaziabad",
		   "Pincode": 201204
		 },
		 {
		   "S.No.": 124,
		   "Area": "Patla",
		   "District": "Ghaziabad",
		   "Pincode": 201204
		 },
		 {
		   "S.No.": 125,
		   "Area": "Saunda",
		   "District": "Ghaziabad",
		   "Pincode": 201204
		 },
		 {
		   "S.No.": 126,
		   "Area": "Shahjahanpur",
		   "District": "Ghaziabad",
		   "Pincode": 201204
		 },
		 {
		   "S.No.": 127,
		   "Area": "Sikri Kalan",
		   "District": "Ghaziabad",
		   "Pincode": 201204
		 },
		 {
		   "S.No.": 128,
		   "Area": "Sikri Khurd",
		   "District": "Ghaziabad",
		   "Pincode": 201204
		 },
		 {
		   "S.No.": 129,
		   "Area": "Tibra",
		   "District": "Ghaziabad",
		   "Pincode": 201204
		 },
		 {
		   "S.No.": 130,
		   "Area": "Abupur",
		   "District": "Ghaziabad",
		   "Pincode": 201206
		 },
		 {
		   "S.No.": 131,
		   "Area": "Basantpur Sainthli",
		   "District": "Ghaziabad",
		   "Pincode": 201206
		 },
		 {
		   "S.No.": 132,
		   "Area": "Bhadoli",
		   "District": "Ghaziabad",
		   "Pincode": 201206
		 },
		 {
		   "S.No.": 133,
		   "Area": "Bhikanpur",
		   "District": "Ghaziabad",
		   "Pincode": 201206
		 },
		 {
		   "S.No.": 134,
		   "Area": "Didoli",
		   "District": "Ghaziabad",
		   "Pincode": 201206
		 },
		 {
		   "S.No.": 135,
		   "Area": "Dosa Banjarpur",
		   "District": "Ghaziabad",
		   "Pincode": 201206
		 },
		 {
		   "S.No.": 136,
		   "Area": "Duhai",
		   "District": "Ghaziabad",
		   "Pincode": 201206
		 },
		 {
		   "S.No.": 137,
		   "Area": "Jalalabad",
		   "District": "Ghaziabad",
		   "Pincode": 201206
		 },
		 {
		   "S.No.": 138,
		   "Area": "Jalalpur Dhindar",
		   "District": "Ghaziabad",
		   "Pincode": 201206
		 },
		 {
		   "S.No.": 139,
		   "Area": "Kakra",
		   "District": "Ghaziabad",
		   "Pincode": 201206
		 },
		 {
		   "S.No.": 140,
		   "Area": "Kanauja",
		   "District": "Ghaziabad",
		   "Pincode": 201206
		 },
		 {
		   "S.No.": 141,
		   "Area": "Khimawati",
		   "District": "Ghaziabad",
		   "Pincode": 201206
		 },
		 {
		   "S.No.": 142,
		   "Area": "Kumhera",
		   "District": "Ghaziabad",
		   "Pincode": 201206
		 },
		 {
		   "S.No.": 143,
		   "Area": "Murad Nagar Bazar",
		   "District": "Ghaziabad",
		   "Pincode": 201206
		 },
		 {
		   "S.No.": 144,
		   "Area": "Murad Nagar",
		   "District": "Ghaziabad",
		   "Pincode": 201206
		 },
		 {
		   "S.No.": 145,
		   "Area": "Murad Nagar Town",
		   "District": "Ghaziabad",
		   "Pincode": 201206
		 },
		 {
		   "S.No.": 146,
		   "Area": "Nekpur",
		   "District": "Ghaziabad",
		   "Pincode": 201206
		 },
		 {
		   "S.No.": 147,
		   "Area": "Noorpur",
		   "District": "Ghaziabad",
		   "Pincode": 201206
		 },
		 {
		   "S.No.": 148,
		   "Area": "Raoli Kalan",
		   "District": "Ghaziabad",
		   "Pincode": 201206
		 },
		 {
		   "S.No.": 149,
		   "Area": "Shahpur",
		   "District": "Ghaziabad",
		   "Pincode": 201206
		 },
		 {
		   "S.No.": 150,
		   "Area": "Sultanpur",
		   "District": "Ghaziabad",
		   "Pincode": 201206
		 },
		 {
		   "S.No.": 151,
		   "Area": "Surana",
		   "District": "Ghaziabad",
		   "Pincode": 201206
		 },
		 {
		   "S.No.": 152,
		   "Area": "Noida Sector 27",
		   "District": "Ghaziabad",
		   "Pincode": 201301
		 },
		 {
		   "S.No.": 153,
		   "Area": "Noida Sector 41",
		   "District": "Ghaziabad",
		   "Pincode": 201303
		 },
		 {
		   "S.No.": 154,
		   "Area": "Achheja B.O",
		   "District": "Ghaziabad",
		   "Pincode": 245101
		 },
		 {
		   "S.No.": 155,
		   "Area": "Asaura B.O",
		   "District": "Ghaziabad",
		   "Pincode": 245101
		 },
		 {
		   "S.No.": 156,
		   "Area": "Bajhera Kalan B.O",
		   "District": "Ghaziabad",
		   "Pincode": 245101
		 },
		 {
		   "S.No.": 157,
		   "Area": "Bhatiyana B.O",
		   "District": "Ghaziabad",
		   "Pincode": 245101
		 },
		 {
		   "S.No.": 158,
		   "Area": "Chamri B.O",
		   "District": "Ghaziabad",
		   "Pincode": 245101
		 },
		 {
		   "S.No.": 159,
		   "Area": "Chhajupur B.O",
		   "District": "Ghaziabad",
		   "Pincode": 245101
		 },
		 {
		   "S.No.": 160,
		   "Area": "Dadri B.O",
		   "District": "Ghaziabad",
		   "Pincode": 245101
		 },
		 {
		   "S.No.": 161,
		   "Area": "Dahana B.O",
		   "District": "Ghaziabad",
		   "Pincode": 245101
		 },
		 {
		   "S.No.": 162,
		   "Area": "Dhanaura B.O",
		   "District": "Ghaziabad",
		   "Pincode": 245101
		 },
		 {
		   "S.No.": 163,
		   "Area": "Ghungrala B.O",
		   "District": "Ghaziabad",
		   "Pincode": 245101
		 },
		 {
		   "S.No.": 164,
		   "Area": "Girdharpur Tmrel B.O",
		   "District": "Ghaziabad",
		   "Pincode": 245101
		 },
		 {
		   "S.No.": 165,
		   "Area": "Gohra Alamgirpur B.O",
		   "District": "Ghaziabad",
		   "Pincode": 245101
		 },
		 {
		   "S.No.": 166,
		   "Area": "Gyan Lok",
		   "District": "Ghaziabad",
		   "Pincode": 245101
		 },
		 {
		   "S.No.": 167,
		   "Area": "Hapur",
		   "District": "Ghaziabad",
		   "Pincode": 245101
		 },
		 {
		   "S.No.": 168,
		   "Area": "Hapur Mandi",
		   "District": "Ghaziabad",
		   "Pincode": 245101
		 },
		 {
		   "S.No.": 169,
		   "Area": "Harsinghpur B.O",
		   "District": "Ghaziabad",
		   "Pincode": 245101
		 },
		 {
		   "S.No.": 170,
		   "Area": "Iklahdi B.O",
		   "District": "Ghaziabad",
		   "Pincode": 245101
		 },
		 {
		   "S.No.": 171,
		   "Area": "Kathikhera B.O",
		   "District": "Ghaziabad",
		   "Pincode": 245101
		 },
		 {
		   "S.No.": 172,
		   "Area": "Kharkhari B.O",
		   "District": "Ghaziabad",
		   "Pincode": 245101
		 },
		 {
		   "S.No.": 173,
		   "Area": "Kishan Ganj",
		   "District": "Ghaziabad",
		   "Pincode": 245101
		 },
		 {
		   "S.No.": 174,
		   "Area": "Madarsa Sadat B.O",
		   "District": "Ghaziabad",
		   "Pincode": 245101
		 },
		 {
		   "S.No.": 175,
		   "Area": "Mahmoodpur B.O",
		   "District": "Ghaziabad",
		   "Pincode": 245101
		 },
		 {
		   "S.No.": 176,
		   "Area": "Mathurawali B.O",
		   "District": "Ghaziabad",
		   "Pincode": 245101
		 },
		 {
		   "S.No.": 177,
		   "Area": "Nan B.O",
		   "District": "Ghaziabad",
		   "Pincode": 245101
		 },
		 {
		   "S.No.": 178,
		   "Area": "Phagota B.O",
		   "District": "Ghaziabad",
		   "Pincode": 245101
		 },
		 {
		   "S.No.": 179,
		   "Area": "Raghunathpur B.O",
		   "District": "Ghaziabad",
		   "Pincode": 245101
		 },
		 {
		   "S.No.": 180,
		   "Area": "Rampur Puth B.O",
		   "District": "Ghaziabad",
		   "Pincode": 245101
		 },
		 {
		   "S.No.": 181,
		   "Area": "Rly Road Hapur",
		   "District": "Ghaziabad",
		   "Pincode": 245101
		 },
		 {
		   "S.No.": 182,
		   "Area": "Sapnawat B.O",
		   "District": "Ghaziabad",
		   "Pincode": 245101
		 },
		 {
		   "S.No.": 183,
		   "Area": "Shah Mohiuddinpur B.O",
		   "District": "Ghaziabad",
		   "Pincode": 245101
		 },
		 {
		   "S.No.": 184,
		   "Area": "Ubarpur B.O",
		   "District": "Ghaziabad",
		   "Pincode": 245101
		 },
		 {
		   "S.No.": 185,
		   "Area": "Alipur",
		   "District": "Ghaziabad",
		   "Pincode": 245201
		 },
		 {
		   "S.No.": 186,
		   "Area": "Babugarh",
		   "District": "Ghaziabad",
		   "Pincode": 245201
		 },
		 {
		   "S.No.": 187,
		   "Area": "Bachhlota",
		   "District": "Ghaziabad",
		   "Pincode": 245201
		 },
		 {
		   "S.No.": 188,
		   "Area": "Bankhanda",
		   "District": "Ghaziabad",
		   "Pincode": 245201
		 },
		 {
		   "S.No.": 189,
		   "Area": "Hoshdarpur Garhi",
		   "District": "Ghaziabad",
		   "Pincode": 245201
		 },
		 {
		   "S.No.": 190,
		   "Area": "Kanya Kalyanpur",
		   "District": "Ghaziabad",
		   "Pincode": 245201
		 },
		 {
		   "S.No.": 191,
		   "Area": "Kuchesar Chopla",
		   "District": "Ghaziabad",
		   "Pincode": 245201
		 },
		 {
		   "S.No.": 192,
		   "Area": "Matnaurs",
		   "District": "Ghaziabad",
		   "Pincode": 245201
		 },
		 {
		   "S.No.": 193,
		   "Area": "Nali Husainpur",
		   "District": "Ghaziabad",
		   "Pincode": 245201
		 },
		 {
		   "S.No.": 194,
		   "Area": "Rasulpur",
		   "District": "Ghaziabad",
		   "Pincode": 245201
		 },
		 {
		   "S.No.": 195,
		   "Area": "Sakhpur",
		   "District": "Ghaziabad",
		   "Pincode": 245201
		 },
		 {
		   "S.No.": 196,
		   "Area": "Sikandarpur Kakori",
		   "District": "Ghaziabad",
		   "Pincode": 245201
		 },
		 {
		   "S.No.": 197,
		   "Area": "Tatarpur",
		   "District": "Ghaziabad",
		   "Pincode": 245201
		 },
		 {
		   "S.No.": 198,
		   "Area": "Upera",
		   "District": "Ghaziabad",
		   "Pincode": 245201
		 },
		 {
		   "S.No.": 199,
		   "Area": "Athsaini",
		   "District": "Ghaziabad",
		   "Pincode": 245205
		 },
		 {
		   "S.No.": 200,
		   "Area": "Bagarpur",
		   "District": "Ghaziabad",
		   "Pincode": 245205
		 },
		 {
		   "S.No.": 201,
		   "Area": "Bhaina Dholpur",
		   "District": "Ghaziabad",
		   "Pincode": 245205
		 },
		 {
		   "S.No.": 202,
		   "Area": "Bihuni",
		   "District": "Ghaziabad",
		   "Pincode": 245205
		 },
		 {
		   "S.No.": 203,
		   "Area": "Biraj Ghat",
		   "District": "Ghaziabad",
		   "Pincode": 245205
		 },
		 {
		   "S.No.": 204,
		   "Area": "Dehra Rampur",
		   "District": "Ghaziabad",
		   "Pincode": 245205
		 },
		 {
		   "S.No.": 205,
		   "Area": "Dotai",
		   "District": "Ghaziabad",
		   "Pincode": 245205
		 },
		 {
		   "S.No.": 206,
		   "Area": "Gandu Nagla",
		   "District": "Ghaziabad",
		   "Pincode": 245205
		 },
		 {
		   "S.No.": 207,
		   "Area": "Garh Town",
		   "District": "Ghaziabad",
		   "Pincode": 245205
		 },
		 {
		   "S.No.": 208,
		   "Area": "Garhmukhteshwer",
		   "District": "Ghaziabad",
		   "Pincode": 245205
		 },
		 {
		   "S.No.": 209,
		   "Area": "Haidarpur",
		   "District": "Ghaziabad",
		   "Pincode": 245205
		 },
		 {
		   "S.No.": 210,
		   "Area": "Jakhera Rahmatpur",
		   "District": "Ghaziabad",
		   "Pincode": 245205
		 },
		 {
		   "S.No.": 211,
		   "Area": "Jharina",
		   "District": "Ghaziabad",
		   "Pincode": 245205
		 },
		 {
		   "S.No.": 212,
		   "Area": "Khiluai",
		   "District": "Ghaziabad",
		   "Pincode": 245205
		 },
		 {
		   "S.No.": 213,
		   "Area": "Luhari",
		   "District": "Ghaziabad",
		   "Pincode": 245205
		 },
		 {
		   "S.No.": 214,
		   "Area": "Muradpur Janupura",
		   "District": "Ghaziabad",
		   "Pincode": 245205
		 },
		 {
		   "S.No.": 215,
		   "Area": "Nanpur",
		   "District": "Ghaziabad",
		   "Pincode": 245205
		 },
		 {
		   "S.No.": 216,
		   "Area": "Sadullapur",
		   "District": "Ghaziabad",
		   "Pincode": 245205
		 },
		 {
		   "S.No.": 217,
		   "Area": "Salarpur",
		   "District": "Ghaziabad",
		   "Pincode": 245205
		 },
		 {
		   "S.No.": 218,
		   "Area": "Shyampur Jatt",
		   "District": "Ghaziabad",
		   "Pincode": 245205
		 },
		 {
		   "S.No.": 219,
		   "Area": "Baxur",
		   "District": "Ghaziabad",
		   "Pincode": 245207
		 },
		 {
		   "S.No.": 220,
		   "Area": "Bharna",
		   "District": "Ghaziabad",
		   "Pincode": 245207
		 },
		 {
		   "S.No.": 221,
		   "Area": "Datiyana",
		   "District": "Ghaziabad",
		   "Pincode": 245207
		 },
		 {
		   "S.No.": 222,
		   "Area": "Dhana",
		   "District": "Ghaziabad",
		   "Pincode": 245207
		 },
		 {
		   "S.No.": 223,
		   "Area": "Mohd. Pur Khudaliya",
		   "District": "Ghaziabad",
		   "Pincode": 245207
		 },
		 {
		   "S.No.": 224,
		   "Area": "Mubarikpur",
		   "District": "Ghaziabad",
		   "Pincode": 245207
		 },
		 {
		   "S.No.": 225,
		   "Area": "Phuldehra",
		   "District": "Ghaziabad",
		   "Pincode": 245207
		 },
		 {
		   "S.No.": 226,
		   "Area": "Rajethi",
		   "District": "Ghaziabad",
		   "Pincode": 245207
		 },
		 {
		   "S.No.": 227,
		   "Area": "Sikhera",
		   "District": "Ghaziabad",
		   "Pincode": 245207
		 },
		 {
		   "S.No.": 228,
		   "Area": "Simbhaoli",
		   "District": "Ghaziabad",
		   "Pincode": 245207
		 },
		 {
		   "S.No.": 229,
		   "Area": "Wait",
		   "District": "Ghaziabad",
		   "Pincode": 245207
		 },
		 {
		   "S.No.": 230,
		   "Area": "Alamnagar",
		   "District": "Ghaziabad",
		   "Pincode": 245208
		 },
		 {
		   "S.No.": 231,
		   "Area": "Bahadurgarh",
		   "District": "Ghaziabad",
		   "Pincode": 245208
		 },
		 {
		   "S.No.": 232,
		   "Area": "Bhadsiyana",
		   "District": "Ghaziabad",
		   "Pincode": 245208
		 },
		 {
		   "S.No.": 233,
		   "Area": "Mahmoodpur Palwara",
		   "District": "Ghaziabad",
		   "Pincode": 245208
		 },
		 {
		   "S.No.": 234,
		   "Area": "Nek Nanpur Nanai",
		   "District": "Ghaziabad",
		   "Pincode": 245208
		 },
		 {
		   "S.No.": 235,
		   "Area": "Sharpur",
		   "District": "Ghaziabad",
		   "Pincode": 245208
		 },
		 {
		   "S.No.": 236,
		   "Area": "Dehra",
		   "District": "Ghaziabad",
		   "Pincode": 245301
		 },
		 {
		   "S.No.": 237,
		   "Area": "Dhaulana",
		   "District": "Ghaziabad",
		   "Pincode": 245301
		 },
		 {
		   "S.No.": 238,
		   "Area": "Kandaula",
		   "District": "Ghaziabad",
		   "Pincode": 245301
		 },
		 {
		   "S.No.": 239,
		   "Area": "Parpa",
		   "District": "Ghaziabad",
		   "Pincode": 245301
		 },
		 {
		   "S.No.": 240,
		   "Area": "Samana",
		   "District": "Ghaziabad",
		   "Pincode": 245301
		 },
		 {
		   "S.No.": 241,
		   "Area": "Solana",
		   "District": "Ghaziabad",
		   "Pincode": 245301
		 },
		 {
		   "S.No.": 242,
		   "Area": "Anwarpur",
		   "District": "Ghaziabad",
		   "Pincode": 245304
		 },
		 {
		   "S.No.": 243,
		   "Area": "Atrauli",
		   "District": "Ghaziabad",
		   "Pincode": 245304
		 },
		 {
		   "S.No.": 244,
		   "Area": "Bajhera Khurd",
		   "District": "Ghaziabad",
		   "Pincode": 245304
		 },
		 {
		   "S.No.": 245,
		   "Area": "Bhadola",
		   "District": "Ghaziabad",
		   "Pincode": 245304
		 },
		 {
		   "S.No.": 246,
		   "Area": "Bhojpur",
		   "District": "Ghaziabad",
		   "Pincode": 245304
		 },
		 {
		   "S.No.": 247,
		   "Area": "Chajarsi",
		   "District": "Ghaziabad",
		   "Pincode": 245304
		 },
		 {
		   "S.No.": 248,
		   "Area": "Dehpa Azampur",
		   "District": "Ghaziabad",
		   "Pincode": 245304
		 },
		 {
		   "S.No.": 249,
		   "Area": "Doohri",
		   "District": "Ghaziabad",
		   "Pincode": 245304
		 },
		 {
		   "S.No.": 250,
		   "Area": "Farid Nagar",
		   "District": "Ghaziabad",
		   "Pincode": 245304
		 },
		 {
		   "S.No.": 251,
		   "Area": "Kalchina",
		   "District": "Ghaziabad",
		   "Pincode": 245304
		 },
		 {
		   "S.No.": 252,
		   "Area": "Kandoli",
		   "District": "Ghaziabad",
		   "Pincode": 245304
		 },
		 {
		   "S.No.": 253,
		   "Area": "Kastala",
		   "District": "Ghaziabad",
		   "Pincode": 245304
		 },
		 {
		   "S.No.": 254,
		   "Area": "Khera",
		   "District": "Ghaziabad",
		   "Pincode": 245304
		 },
		 {
		   "S.No.": 255,
		   "Area": "Mukeempur",
		   "District": "Ghaziabad",
		   "Pincode": 245304
		 },
		 {
		   "S.No.": 256,
		   "Area": "Nagola",
		   "District": "Ghaziabad",
		   "Pincode": 245304
		 },
		 {
		   "S.No.": 257,
		   "Area": "New Market Pilkhauwa",
		   "District": "Ghaziabad",
		   "Pincode": 245304
		 },
		 {
		   "S.No.": 258,
		   "Area": "Pilkhauwa Post Office",
		   "District": "Ghaziabad",
		   "Pincode": 245304
		 },
		 {
		   "S.No.": 259,
		   "Area": "Samaipur",
		   "District": "Ghaziabad",
		   "Pincode": 245304
		 },
		 {
		   "S.No.": 260,
		   "Area": "Tyori",
		   "District": "Ghaziabad",
		   "Pincode": 245304
		 }
		]


	
}