{
    "East Delhi": [
        {
            "S.No.": "1",
            "Area": "Gandhi Nagar Bazar",
            "District": "East Delhi",
            "Pincode": "110031"
        },
        {
            "S.No.": "2",
            "Area": "Gandhi Nagar",
            "District": "East Delhi",
            "Pincode": "110031"
        },
        {
            "S.No.": "3",
            "Area": "Geeta Colony",
            "District": "East Delhi",
            "Pincode": "110031"
        },
        {
            "S.No.": "4",
            "Area": "Kailash Nagar",
            "District": "East Delhi",
            "Pincode": "110031"
        },
        {
            "S.No.": "5",
            "Area": "Raghubar Pura",
            "District": "East Delhi",
            "Pincode": "110031"
        },
        {
            "S.No.": "6",
            "Area": "Rajgarh Colony",
            "District": "East Delhi",
            "Pincode": "110031"
        },
        {
            "S.No.": "7",
            "Area": "Shastri Nagar",
            "District": "East Delhi",
            "Pincode": "110031"
        },
        {
            "S.No.": "8",
            "Area": "Balbir Nagar",
            "District": "East Delhi",
            "Pincode": "110032"
        },
        {
            "S.No.": "9",
            "Area": "Babarpur",
            "District": "East Delhi",
            "Pincode": "110032"
        },
        {
            "S.No.": "10",
            "Area": "Bhola Nath Nagar",
            "District": "East Delhi",
            "Pincode": "110032"
        },
        {
            "S.No.": "11",
            "Area": "Distt. Court (KKD)",
            "District": "East Delhi",
            "Pincode": "110032"
        },
        {
            "S.No.": "12",
            "Area": "Goverdhan Bihari Colony",
            "District": "East Delhi",
            "Pincode": "110032"
        },
        {
            "S.No.": "13",
            "Area": "Loni Road",
            "District": "East Delhi",
            "Pincode": "110032"
        },
        {
            "S.No.": "14",
            "Area": "Man Sarovar Park",
            "District": "East Delhi",
            "Pincode": "110032"
        },
        {
            "S.No.": "15",
            "Area": "Rohtash Nagar",
            "District": "East Delhi",
            "Pincode": "110032"
        },
        {
            "S.No.": "16",
            "Area": "Shahdara Mandi",
            "District": "East Delhi",
            "Pincode": "110032"
        },
        {
            "S.No.": "17",
            "Area": "Shahdara",
            "District": "East Delhi",
            "Pincode": "110032"
        },
        {
            "S.No.": "18",
            "Area": "Shivaji Park",
            "District": "East Delhi",
            "Pincode": "110032"
        },
        {
            "S.No.": "19",
            "Area": "Subhash Park",
            "District": "East Delhi",
            "Pincode": "110032"
        },
        {
            "S.No.": "20",
            "Area": "Telewara",
            "District": "East Delhi",
            "Pincode": "110032"
        },
        {
            "S.No.": "21",
            "Area": "Vishwas Nagar",
            "District": "East Delhi",
            "Pincode": "110032"
        },
        {
            "S.No.": "22",
            "Area": "Azad Nagar",
            "District": "East Delhi",
            "Pincode": "110051"
        },
        {
            "S.No.": "23",
            "Area": "Govind Pura",
            "District": "East Delhi",
            "Pincode": "110051"
        },
        {
            "S.No.": "24",
            "Area": "Gagan Vihar",
            "District": "East Delhi",
            "Pincode": "110051"
        },
        {
            "S.No.": "25",
            "Area": "Karkardooma",
            "District": "East Delhi",
            "Pincode": "110051"
        },
        {
            "S.No.": "26",
            "Area": "Krishna Nagar",
            "District": "East Delhi",
            "Pincode": "110051"
        },
        {
            "S.No.": "27",
            "Area": "Ram Nagar",
            "District": "East Delhi",
            "Pincode": "110051"
        },
        {
            "S.No.": "28",
            "Area": "Brahampuri",
            "District": "East Delhi",
            "Pincode": "110053"
        },
        {
            "S.No.": "29",
            "Area": "Bhajanpura",
            "District": "East Delhi",
            "Pincode": "110053"
        },
        {
            "S.No.": "30",
            "Area": "Garhi Mandu",
            "District": "East Delhi",
            "Pincode": "110053"
        },
        {
            "S.No.": "31",
            "Area": "Ghonda",
            "District": "East Delhi",
            "Pincode": "110053"
        },
        {
            "S.No.": "32",
            "Area": "Jafrabad",
            "District": "East Delhi",
            "Pincode": "110053"
        },
        {
            "S.No.": "33",
            "Area": "Jagjit Nagar",
            "District": "East Delhi",
            "Pincode": "110053"
        },
        {
            "S.No.": "34",
            "Area": "Maujpur",
            "District": "East Delhi",
            "Pincode": "110053"
        },
        {
            "S.No.": "35",
            "Area": "New Usmanpur",
            "District": "East Delhi",
            "Pincode": "110053"
        },
        {
            "S.No.": "36",
            "Area": "Seelampur",
            "District": "East Delhi",
            "Pincode": "110053"
        },
        {
            "S.No.": "37",
            "Area": "Yamuna Vihar",
            "District": "East Delhi",
            "Pincode": "110053"
        },
        {
            "S.No.": "38",
            "Area": "Badarpur Khadar",
            "District": "East Delhi",
            "Pincode": "110090"
        },
        {
            "S.No.": "39",
            "Area": "Karawal Nagar",
            "District": "East Delhi",
            "Pincode": "110090"
        },
        {
            "S.No.": "40",
            "Area": "Rajeev Nagar",
            "District": "East Delhi",
            "Pincode": "110090"
        },
        {
            "S.No.": "41",
            "Area": "Shaheed Bhagat Singh Colony",
            "District": "East Delhi",
            "Pincode": "110090"
        },
        {
            "S.No.": "42",
            "Area": "Sonia Vihar",
            "District": "East Delhi",
            "Pincode": "110090"
        },
        {
            "S.No.": "43",
            "Area": "Chilla",
            "District": "East Delhi",
            "Pincode": "110091"
        },
        {
            "S.No.": "44",
            "Area": "Commonwealth Games Village",
            "District": "East Delhi",
            "Pincode": "110091"
        },
        {
            "S.No.": "45",
            "Area": "Gharoli",
            "District": "East Delhi",
            "Pincode": "110091"
        },
        {
            "S.No.": "46",
            "Area": "Himmatpuri",
            "District": "East Delhi",
            "Pincode": "110091"
        },
        {
            "S.No.": "47",
            "Area": "Kalyanpuri",
            "District": "East Delhi",
            "Pincode": "110091"
        },
        {
            "S.No.": "48",
            "Area": "Kalyanvas",
            "District": "East Delhi",
            "Pincode": "110091"
        },
        {
            "S.No.": "49",
            "Area": "Mayur Vihar Ph-1",
            "District": "East Delhi",
            "Pincode": "110091"
        },
        {
            "S.No.": "50",
            "Area": "Mayur Vihar Ph-2",
            "District": "East Delhi",
            "Pincode": "110091"
        },
        {
            "S.No.": "51",
            "Area": "Patparganj",
            "District": "East Delhi",
            "Pincode": "110091"
        },
        {
            "S.No.": "52",
            "Area": "Trilok Puri",
            "District": "East Delhi",
            "Pincode": "110091"
        },
        {
            "S.No.": "53",
            "Area": "Anand Vihar",
            "District": "East Delhi",
            "Pincode": "110092"
        },
        {
            "S.No.": "54",
            "Area": "Ganesh Nagar",
            "District": "East Delhi",
            "Pincode": "110092"
        },
        {
            "S.No.": "55",
            "Area": "IP Extension",
            "District": "East Delhi",
            "Pincode": "110092"
        },
        {
            "S.No.": "56",
            "Area": "Karkardooma",
            "District": "East Delhi",
            "Pincode": "110092"
        },
        {
            "S.No.": "57",
            "Area": "Laxmi Nagar",
            "District": "East Delhi",
            "Pincode": "110092"
        },
        {
            "S.No.": "58",
            "Area": "Madhuban",
            "District": "East Delhi",
            "Pincode": "110092"
        },
        {
            "S.No.": "59",
            "Area": "Mandawali Fazalpur",
            "District": "East Delhi",
            "Pincode": "110092"
        },
        {
            "S.No.": "60",
            "Area": "Nirman Vihar",
            "District": "East Delhi",
            "Pincode": "110092"
        },
        {
            "S.No.": "61",
            "Area": "Pandav Nagar",
            "District": "East Delhi",
            "Pincode": "110092"
        },
        {
            "S.No.": "62",
            "Area": "Preet Vihar",
            "District": "East Delhi",
            "Pincode": "110092"
        },
        {
            "S.No.": "63",
            "Area": "Shakarpur",
            "District": "East Delhi",
            "Pincode": "110092"
        },
        {
            "S.No.": "64",
            "Area": "Srestha Vihar",
            "District": "East Delhi",
            "Pincode": "110092"
        },
        {
            "S.No.": "65",
            "Area": "Surajmal Vihar",
            "District": "East Delhi",
            "Pincode": "110092"
        },
        {
            "S.No.": "66",
            "Area": "Yozna Vihar",
            "District": "East Delhi",
            "Pincode": "110092"
        },
        {
            "S.No.": "67",
            "Area": "Harsh Vihar",
            "District": "East Delhi",
            "Pincode": "110093"
        },
        {
            "S.No.": "68",
            "Area": "Loni Road",
            "District": "East Delhi",
            "Pincode": "110093"
        },
        {
            "S.No.": "69",
            "Area": "Loni Road Housing Complex",
            "District": "East Delhi",
            "Pincode": "110093"
        },
        {
            "S.No.": "70",
            "Area": "Mandoli Saboli",
            "District": "East Delhi",
            "Pincode": "110093"
        },
        {
            "S.No.": "71",
            "Area": "Nand Nagri",
            "District": "East Delhi",
            "Pincode": "110093"
        },
        {
            "S.No.": "72",
            "Area": "Nand Nagri A",
            "District": "East Delhi",
            "Pincode": "110093"
        },
        {
            "S.No.": "73",
            "Area": "Nand Nagri C",
            "District": "East Delhi",
            "Pincode": "110093"
        },
        {
            "S.No.": "74",
            "Area": "Sunder Nagri",
            "District": "East Delhi",
            "Pincode": "110093"
        },
        {
            "S.No.": "75",
            "Area": "Dayalpur",
            "District": "East Delhi",
            "Pincode": "110094"
        },
        {
            "S.No.": "76",
            "Area": "Ganga Vihar",
            "District": "East Delhi",
            "Pincode": "110094"
        },
        {
            "S.No.": "77",
            "Area": "Gokal Puri",
            "District": "East Delhi",
            "Pincode": "110094"
        },
        {
            "S.No.": "78",
            "Area": "Johripur",
            "District": "East Delhi",
            "Pincode": "110094"
        },
        {
            "S.No.": "79",
            "Area": "Khazuri Khas",
            "District": "East Delhi",
            "Pincode": "110094"
        },
        {
            "S.No.": "80",
            "Area": "Nagarjun Buddha Vihar",
            "District": "East Delhi",
            "Pincode": "110094"
        },
        {
            "S.No.": "81",
            "Area": "Sabhapur",
            "District": "East Delhi",
            "Pincode": "110094"
        },
        {
            "S.No.": "82",
            "Area": "Sonia Vihar",
            "District": "East Delhi",
            "Pincode": "110094"
        },
        {
            "S.No.": "83",
            "Area": "Dilshad Garden",
            "District": "East Delhi",
            "Pincode": "110095"
        },
        {
            "S.No.": "84",
            "Area": "G.T.B. Hospital",
            "District": "East Delhi",
            "Pincode": "110095"
        },
        {
            "S.No.": "85",
            "Area": "Jhilmil",
            "District": "East Delhi",
            "Pincode": "110095"
        },
        {
            "S.No.": "86",
            "Area": "Jhilmil Tahirpur",
            "District": "East Delhi",
            "Pincode": "110095"
        },
        {
            "S.No.": "87",
            "Area": "New Seemapuri",
            "District": "East Delhi",
            "Pincode": "110095"
        },
        {
            "S.No.": "88",
            "Area": "Old Seemapuri",
            "District": "East Delhi",
            "Pincode": "110095"
        },
        {
            "S.No.": "89",
            "Area": "V.K. Nagar",
            "District": "East Delhi",
            "Pincode": "110095"
        },
        {
            "S.No.": "90",
            "Area": "Vivek Vihar",
            "District": "East Delhi",
            "Pincode": "110095"
        },
        {
            "S.No.": "91",
            "Area": "Ghazipur",
            "District": "East Delhi",
            "Pincode": "110096"
        },
        {
            "S.No.": "92",
            "Area": "New Ashok Nagar",
            "District": "East Delhi",
            "Pincode": "110096"
        },
        {
            "S.No.": "93",
            "Area": "Mayur Vihar Ph-III",
            "District": "East Delhi",
            "Pincode": "110096"
        },
        {
            "S.No.": "94",
            "Area": "Vasundhra Enclave",
            "District": "East Delhi",
            "Pincode": "110096"
        }
    ],
    "Noida": [
        {
            "S.No.": "1",
            "Area": "Barola",
            "District": "Gautam Buddh Nagar",
            "Pincode": "201301"
        },
        {
            "S.No.": "2",
            "Area": "Chhajarsi Colony",
            "District": "Gautam Buddh Nagar",
            "Pincode": "201301"
        },
        {
            "S.No.": "3",
            "Area": "Chhalera",
            "District": "Gautam Buddh Nagar",
            "Pincode": "201301"
        },
        {
            "S.No.": "4",
            "Area": "Gejha",
            "District": "Gautam Buddh Nagar",
            "Pincode": "201301"
        },
        {
            "S.No.": "5",
            "Area": "Gijhor",
            "District": "Gautam Buddh Nagar",
            "Pincode": "201301"
        },
        {
            "S.No.": "6",
            "Area": "Hazipur",
            "District": "Gautam Buddh Nagar",
            "Pincode": "201301"
        },
        {
            "S.No.": "7",
            "Area": "Hoshiyarpur Village",
            "District": "Gautam Buddh Nagar",
            "Pincode": "201301"
        },
        {
            "S.No.": "8",
            "Area": "Hosiery Complex",
            "District": "Gautam Buddh Nagar",
            "Pincode": "201301"
        },
        {
            "S.No.": "9",
            "Area": "Khora Colony",
            "District": "Gautam Buddh Nagar",
            "Pincode": "201301"
        },
        {
            "S.No.": "10",
            "Area": "Nagla",
            "District": "Gautam Buddh Nagar",
            "Pincode": "201301"
        },
        {
            "S.No.": "11",
            "Area": "Raghunathpur",
            "District": "Gautam Buddh Nagar",
            "Pincode": "201301"
        },
        {
            "S.No.": "12",
            "Area": "Rajat Vihar",
            "District": "Gautam Buddh Nagar",
            "Pincode": "201301"
        },
        {
            "S.No.": "13",
            "Area": "Rasulpur Nawada",
            "District": "Gautam Buddh Nagar",
            "Pincode": "201301"
        },
        {
            "S.No.": "14",
            "Area": "Sadarpur",
            "District": "Gautam Buddh Nagar",
            "Pincode": "201301"
        },
        {
            "S.No.": "15",
            "Area": "Salarpur",
            "District": "Gautam Buddh Nagar",
            "Pincode": "201301"
        },
        {
            "S.No.": "16",
            "Area": "Sarfabad",
            "District": "Gautam Buddh Nagar",
            "Pincode": "201301"
        },
        {
            "S.No.": "17",
            "Area": "Sector 1",
            "District": "Gautam Buddh Nagar",
            "Pincode": "201301"
        },
        {
            "S.No.": "18",
            "Area": "Sector 2",
            "District": "Gautam Buddh Nagar",
            "Pincode": "201301"
        },
        {
            "S.No.": "19",
            "Area": "Sector 3",
            "District": "Gautam Buddh Nagar",
            "Pincode": "201301"
        },
        {
            "S.No.": "20",
            "Area": "Sector 4",
            "District": "Gautam Buddh Nagar",
            "Pincode": "201301"
        },
        {
            "S.No.": "21",
            "Area": "Sector 5",
            "District": "Gautam Buddh Nagar",
            "Pincode": "201301"
        },
        {
            "S.No.": "22",
            "Area": "Sector 6",
            "District": "Gautam Buddh Nagar",
            "Pincode": "201301"
        },
        {
            "S.No.": "23",
            "Area": "Sector 7",
            "District": "Gautam Buddh Nagar",
            "Pincode": "201301"
        },
        {
            "S.No.": "24",
            "Area": "Sector 8",
            "District": "Gautam Buddh Nagar",
            "Pincode": "201301"
        },
        {
            "S.No.": "25",
            "Area": "Sector 9",
            "District": "Gautam Buddh Nagar",
            "Pincode": "201301"
        },
        {
            "S.No.": "26",
            "Area": "Sector 10",
            "District": "Gautam Buddh Nagar",
            "Pincode": "201301"
        },
        {
            "S.No.": "27",
            "Area": "Sector 11",
            "District": "Gautam Buddh Nagar",
            "Pincode": "201301"
        },
        {
            "S.No.": "28",
            "Area": "Sector 12",
            "District": "Gautam Buddh Nagar",
            "Pincode": "201301"
        },
        {
            "S.No.": "29",
            "Area": "Sector 14",
            "District": "Gautam Buddh Nagar",
            "Pincode": "201301"
        },
        {
            "S.No.": "30",
            "Area": "Sector 15",
            "District": "Gautam Buddh Nagar",
            "Pincode": "201301"
        },
        {
            "S.No.": "31",
            "Area": "Sector 15A",
            "District": "Gautam Buddh Nagar",
            "Pincode": "201301"
        },
        {
            "S.No.": "32",
            "Area": "Sector 16",
            "District": "Gautam Buddh Nagar",
            "Pincode": "201301"
        },
        {
            "S.No.": "33",
            "Area": "Sector 17",
            "District": "Gautam Buddh Nagar",
            "Pincode": "201301"
        },
        {
            "S.No.": "34",
            "Area": "Sector 18",
            "District": "Gautam Buddh Nagar",
            "Pincode": "201301"
        },
        {
            "S.No.": "35",
            "Area": "Sector 19",
            "District": "Gautam Buddh Nagar",
            "Pincode": "201301"
        },
        {
            "S.No.": "36",
            "Area": "Sector 20",
            "District": "Gautam Buddh Nagar",
            "Pincode": "201301"
        },
        {
            "S.No.": "37",
            "Area": "Sector 21",
            "District": "Gautam Buddh Nagar",
            "Pincode": "201301"
        },
        {
            "S.No.": "38",
            "Area": "Sector 22",
            "District": "Gautam Buddh Nagar",
            "Pincode": "201301"
        },
        {
            "S.No.": "39",
            "Area": "Sector 23",
            "District": "Gautam Buddh Nagar",
            "Pincode": "201301"
        },
        {
            "S.No.": "40",
            "Area": "Sector 24",
            "District": "Gautam Buddh Nagar",
            "Pincode": "201301"
        },
        {
            "S.No.": "41",
            "Area": "Sector 25",
            "District": "Gautam Buddh Nagar",
            "Pincode": "201301"
        },
        {
            "S.No.": "42",
            "Area": "Sector 26",
            "District": "Gautam Buddh Nagar",
            "Pincode": "201301"
        },
        {
            "S.No.": "43",
            "Area": "Sector 27",
            "District": "Gautam Buddh Nagar",
            "Pincode": "201301"
        },
        {
            "S.No.": "44",
            "Area": "Sector 28",
            "District": "Gautam Buddh Nagar",
            "Pincode": "201301"
        },
        {
            "S.No.": "45",
            "Area": "Sector 29",
            "District": "Gautam Buddh Nagar",
            "Pincode": "201301"
        },
        {
            "S.No.": "46",
            "Area": "Sector 30",
            "District": "Gautam Buddh Nagar",
            "Pincode": "201301"
        },
        {
            "S.No.": "47",
            "Area": "Sector 31",
            "District": "Gautam Buddh Nagar",
            "Pincode": "201301"
        },
        {
            "S.No.": "48",
            "Area": "Sector 32",
            "District": "Gautam Buddh Nagar",
            "Pincode": "201301"
        },
        {
            "S.No.": "49",
            "Area": "Sector 33",
            "District": "Gautam Buddh Nagar",
            "Pincode": "201301"
        },
        {
            "S.No.": "50",
            "Area": "Sector 34",
            "District": "Gautam Buddh Nagar",
            "Pincode": "201301"
        },
        {
            "S.No.": "51",
            "Area": "Sector 35",
            "District": "Gautam Buddh Nagar",
            "Pincode": "201301"
        },
        {
            "S.No.": "52",
            "Area": "Sector 36",
            "District": "Gautam Buddh Nagar",
            "Pincode": "201301"
        },
        {
            "S.No.": "53",
            "Area": "Sector 37",
            "District": "Gautam Buddh Nagar",
            "Pincode": "201301"
        },
        {
            "S.No.": "54",
            "Area": "Sector 38",
            "District": "Gautam Buddh Nagar",
            "Pincode": "201301"
        },
        {
            "S.No.": "55",
            "Area": "Sector 39",
            "District": "Gautam Buddh Nagar",
            "Pincode": "201301"
        },
        {
            "S.No.": "56",
            "Area": "Sector 40",
            "District": "Gautam Buddh Nagar",
            "Pincode": "201301"
        },
        {
            "S.No.": "57",
            "Area": "Sector 41",
            "District": "Gautam Buddh Nagar",
            "Pincode": "201301"
        },
        {
            "S.No.": "58",
            "Area": "Sector 42",
            "District": "Gautam Buddh Nagar",
            "Pincode": "201301"
        },
        {
            "S.No.": "59",
            "Area": "Sector 43",
            "District": "Gautam Buddh Nagar",
            "Pincode": "201301"
        },
        {
            "S.No.": "60",
            "Area": "Sector 44",
            "District": "Gautam Buddh Nagar",
            "Pincode": "201301"
        },
        {
            "S.No.": "61",
            "Area": "Sector 45",
            "District": "Gautam Buddh Nagar",
            "Pincode": "201301"
        },
        {
            "S.No.": "62",
            "Area": "Sector 46",
            "District": "Gautam Buddh Nagar",
            "Pincode": "201301"
        },
        {
            "S.No.": "63",
            "Area": "Sector 47",
            "District": "Gautam Buddh Nagar",
            "Pincode": "201301"
        },
        {
            "S.No.": "64",
            "Area": "Sector 48",
            "District": "Gautam Buddh Nagar",
            "Pincode": "201301"
        },
        {
            "S.No.": "65",
            "Area": "Sector 49",
            "District": "Gautam Buddh Nagar",
            "Pincode": "201301"
        },
        {
            "S.No.": "66",
            "Area": "Sector 50",
            "District": "Gautam Buddh Nagar",
            "Pincode": "201301"
        },
        {
            "S.No.": "67",
            "Area": "Sector 51",
            "District": "Gautam Buddh Nagar",
            "Pincode": "201301"
        },
        {
            "S.No.": "68",
            "Area": "Sector 52",
            "District": "Gautam Buddh Nagar",
            "Pincode": "201301"
        },
        {
            "S.No.": "69",
            "Area": "Sector 53",
            "District": "Gautam Buddh Nagar",
            "Pincode": "201301"
        },
        {
            "S.No.": "70",
            "Area": "Sector 54",
            "District": "Gautam Buddh Nagar",
            "Pincode": "201301"
        },
        {
            "S.No.": "71",
            "Area": "Sector 55",
            "District": "Gautam Buddh Nagar",
            "Pincode": "201301"
        },
        {
            "S.No.": "72",
            "Area": "Sector 56",
            "District": "Gautam Buddh Nagar",
            "Pincode": "201301"
        },
        {
            "S.No.": "73",
            "Area": "Sector 57",
            "District": "Gautam Buddh Nagar",
            "Pincode": "201301"
        },
        {
            "S.No.": "74",
            "Area": "Sector 58",
            "District": "Gautam Buddh Nagar",
            "Pincode": "201301"
        },
        {
            "S.No.": "75",
            "Area": "Sector 59",
            "District": "Gautam Buddh Nagar",
            "Pincode": "201301"
        },
        {
            "S.No.": "76",
            "Area": "Sector 60",
            "District": "Gautam Buddh Nagar",
            "Pincode": "201301"
        },
        {
            "S.No.": "77",
            "Area": "Sector 61",
            "District": "Gautam Buddh Nagar",
            "Pincode": "201301"
        },
        {
            "S.No.": "78",
            "Area": "Sector 62",
            "District": "Gautam Buddh Nagar",
            "Pincode": "201301"
        },
        {
            "S.No.": "79",
            "Area": "Sector 63",
            "District": "Gautam Buddh Nagar",
            "Pincode": "201301"
        },
        {
            "S.No.": "80",
            "Area": "Sector 64",
            "District": "Gautam Buddh Nagar",
            "Pincode": "201301"
        },
        {
            "S.No.": "81",
            "Area": "Sector 65",
            "District": "Gautam Buddh Nagar",
            "Pincode": "201301"
        },
        {
            "S.No.": "82",
            "Area": "Sector 66",
            "District": "Gautam Buddh Nagar",
            "Pincode": "201301"
        },
        {
            "S.No.": "83",
            "Area": "Sector 67",
            "District": "Gautam Buddh Nagar",
            "Pincode": "201301"
        },
        {
            "S.No.": "84",
            "Area": "Sector 68",
            "District": "Gautam Buddh Nagar",
            "Pincode": "201301"
        },
        {
            "S.No.": "85",
            "Area": "Sector 69",
            "District": "Gautam Buddh Nagar",
            "Pincode": "201301"
        },
        {
            "S.No.": "86",
            "Area": "Sector 70",
            "District": "Gautam Buddh Nagar",
            "Pincode": "201301"
        },
        {
            "S.No.": "87",
            "Area": "Sector 71",
            "District": "Gautam Buddh Nagar",
            "Pincode": "201301"
        },
        {
            "S.No.": "88",
            "Area": "Sector 72",
            "District": "Gautam Buddh Nagar",
            "Pincode": "201301"
        },
        {
            "S.No.": "89",
            "Area": "Sector 73",
            "District": "Gautam Buddh Nagar",
            "Pincode": "201301"
        },
        {
            "S.No.": "90",
            "Area": "Sector 74",
            "District": "Gautam Buddh Nagar",
            "Pincode": "201301"
        },
        {
            "S.No.": "91",
            "Area": "Sector 75",
            "District": "Gautam Buddh Nagar",
            "Pincode": "201301"
        },
        {
            "S.No.": "92",
            "Area": "Sector 76",
            "District": "Gautam Buddh Nagar",
            "Pincode": "201301"
        },
        {
            "S.No.": "93",
            "Area": "Sector 77",
            "District": "Gautam Buddh Nagar",
            "Pincode": "201301"
        },
        {
            "S.No.": "94",
            "Area": "Sector 78",
            "District": "Gautam Buddh Nagar",
            "Pincode": "201301"
        },
        {
            "S.No.": "95",
            "Area": "Sector 79",
            "District": "Gautam Buddh Nagar",
            "Pincode": "201301"
        },
        {
            "S.No.": "96",
            "Area": "Sector 83",
            "District": "Gautam Buddh Nagar",
            "Pincode": "201301"
        },
        {
            "S.No.": "97",
            "Area": "Sector 84",
            "District": "Gautam Buddh Nagar",
            "Pincode": "201301"
        },
        {
            "S.No.": "98",
            "Area": "Sector 85",
            "District": "Gautam Buddh Nagar",
            "Pincode": "201301"
        },
        {
            "S.No.": "99",
            "Area": "Sector 86",
            "District": "Gautam Buddh Nagar",
            "Pincode": "201301"
        },
        {
            "S.No.": "100",
            "Area": "Sector 87",
            "District": "Gautam Buddh Nagar",
            "Pincode": "201301"
        },
        {
            "S.No.": "101",
            "Area": "Sector 88",
            "District": "Gautam Buddh Nagar",
            "Pincode": "201301"
        },
        {
            "S.No.": "102",
            "Area": "Sector 93",
            "District": "Gautam Buddh Nagar",
            "Pincode": "201301"
        },
        {
            "S.No.": "103",
            "Area": "Sector 94",
            "District": "Gautam Buddh Nagar",
            "Pincode": "201301"
        },
        {
            "S.No.": "104",
            "Area": "Sector 95",
            "District": "Gautam Buddh Nagar",
            "Pincode": "201301"
        },
        {
            "S.No.": "105",
            "Area": "Sector 96",
            "District": "Gautam Buddh Nagar",
            "Pincode": "201301"
        },
        {
            "S.No.": "106",
            "Area": "Sector 97",
            "District": "Gautam Buddh Nagar",
            "Pincode": "201301"
        },
        {
            "S.No.": "107",
            "Area": "Sector 98",
            "District": "Gautam Buddh Nagar",
            "Pincode": "201301"
        },
        {
            "S.No.": "108",
            "Area": "Sector 99",
            "District": "Gautam Buddh Nagar",
            "Pincode": "201301"
        },
        {
            "S.No.": "109",
            "Area": "Sector 100",
            "District": "Gautam Buddh Nagar",
            "Pincode": "201301"
        },
        {
            "S.No.": "110",
            "Area": "Sector 101",
            "District": "Gautam Buddh Nagar",
            "Pincode": "201301"
        },
        {
            "S.No.": "111",
            "Area": "Sector 102",
            "District": "Gautam Buddh Nagar",
            "Pincode": "201301"
        },
        {
            "S.No.": "112",
            "Area": "Sector 103",
            "District": "Gautam Buddh Nagar",
            "Pincode": "201301"
        },
        {
            "S.No.": "113",
            "Area": "Sector 104",
            "District": "Gautam Buddh Nagar",
            "Pincode": "201301"
        },
        {
            "S.No.": "114",
            "Area": "Sector 105",
            "District": "Gautam Buddh Nagar",
            "Pincode": "201301"
        },
        {
            "S.No.": "115",
            "Area": "Sector 106",
            "District": "Gautam Buddh Nagar",
            "Pincode": "201301"
        },
        {
            "S.No.": "116",
            "Area": "Sector 107",
            "District": "Gautam Buddh Nagar",
            "Pincode": "201301"
        },
        {
            "S.No.": "117",
            "Area": "Sector 108",
            "District": "Gautam Buddh Nagar",
            "Pincode": "201301"
        },
        {
            "S.No.": "118",
            "Area": "Sector 109",
            "District": "Gautam Buddh Nagar",
            "Pincode": "201301"
        },
        {
            "S.No.": "119",
            "Area": "Sector 110",
            "District": "Gautam Buddh Nagar",
            "Pincode": "201301"
        },
        {
            "S.No.": "120",
            "Area": "Sector 111",
            "District": "Gautam Buddh Nagar",
            "Pincode": "201301"
        },
        {
            "S.No.": "121",
            "Area": "Sector 112",
            "District": "Gautam Buddh Nagar",
            "Pincode": "201301"
        },
        {
            "S.No.": "122",
            "Area": "Sector 113",
            "District": "Gautam Buddh Nagar",
            "Pincode": "201301"
        },
        {
            "S.No.": "123",
            "Area": "Sector 114",
            "District": "Gautam Buddh Nagar",
            "Pincode": "201301"
        },
        {
            "S.No.": "124",
            "Area": "Sector 115",
            "District": "Gautam Buddh Nagar",
            "Pincode": "201301"
        },
        {
            "S.No.": "125",
            "Area": "Sector 116",
            "District": "Gautam Buddh Nagar",
            "Pincode": "201301"
        },
        {
            "S.No.": "126",
            "Area": "Sector 117",
            "District": "Gautam Buddh Nagar",
            "Pincode": "201301"
        },
        {
            "S.No.": "127",
            "Area": "Sector 118",
            "District": "Gautam Buddh Nagar",
            "Pincode": "201301"
        },
        {
            "S.No.": "128",
            "Area": "Sector 119",
            "District": "Gautam Buddh Nagar",
            "Pincode": "201301"
        },
        {
            "S.No.": "129",
            "Area": "Sector 120",
            "District": "Gautam Buddh Nagar",
            "Pincode": "201301"
        },
        {
            "S.No.": "130",
            "Area": "Sector 121",
            "District": "Gautam Buddh Nagar",
            "Pincode": "201301"
        },
        {
            "S.No.": "131",
            "Area": "Sector 122",
            "District": "Gautam Buddh Nagar",
            "Pincode": "201301"
        },
        {
            "S.No.": "132",
            "Area": "Sector 125",
            "District": "Gautam Buddh Nagar",
            "Pincode": "201301"
        },
        {
            "S.No.": "133",
            "Area": "Sector 126",
            "District": "Gautam Buddh Nagar",
            "Pincode": "201301"
        },
        {
            "S.No.": "134",
            "Area": "Sector 127",
            "District": "Gautam Buddh Nagar",
            "Pincode": "201301"
        },
        {
            "S.No.": "135",
            "Area": "Sector 128",
            "District": "Gautam Buddh Nagar",
            "Pincode": "201301"
        },
        {
            "S.No.": "136",
            "Area": "Sector 129",
            "District": "Gautam Buddh Nagar",
            "Pincode": "201301"
        },
        {
            "S.No.": "137",
            "Area": "Sector 130",
            "District": "Gautam Buddh Nagar",
            "Pincode": "201301"
        },
        {
            "S.No.": "138",
            "Area": "Sector 133",
            "District": "Gautam Buddh Nagar",
            "Pincode": "201301"
        },
        {
            "S.No.": "139",
            "Area": "Sector 134",
            "District": "Gautam Buddh Nagar",
            "Pincode": "201301"
        },
        {
            "S.No.": "140",
            "Area": "Sector 135",
            "District": "Gautam Buddh Nagar",
            "Pincode": "201301"
        },
        {
            "S.No.": "141",
            "Area": "Sector 136",
            "District": "Gautam Buddh Nagar",
            "Pincode": "201301"
        },
        {
            "S.No.": "142",
            "Area": "Sector 137",
            "District": "Gautam Buddh Nagar",
            "Pincode": "201301"
        },
        {
            "S.No.": "143",
            "Area": "Sector 138",
            "District": "Gautam Buddh Nagar",
            "Pincode": "201301"
        },
        {
            "S.No.": "144",
            "Area": "Sector 140",
            "District": "Gautam Buddh Nagar",
            "Pincode": "201301"
        },
        {
            "S.No.": "145",
            "Area": "Sector 141",
            "District": "Gautam Buddh Nagar",
            "Pincode": "201301"
        },
        {
            "S.No.": "146",
            "Area": "Sector 142",
            "District": "Gautam Buddh Nagar",
            "Pincode": "201301"
        },
        {
            "S.No.": "147",
            "Area": "Sector 161",
            "District": "Gautam Buddh Nagar",
            "Pincode": "201301"
        },
        {
            "S.No.": "148",
            "Area": "Sector 168",
            "District": "Gautam Buddh Nagar",
            "Pincode": "201301"
        },
        {
            "S.No.": "149",
            "Area": "Sector 31, Greater Noida",
            "District": "Gautam Buddh Nagar",
            "Pincode": "201302"
        },
        {
            "S.No.": "150",
            "Area": "Barola",
            "District": "Gautam Buddh Nagar",
            "Pincode": "201303"
        },
        {
            "S.No.": "151",
            "Area": "Chhalera",
            "District": "Gautam Buddh Nagar",
            "Pincode": "201303"
        },
        {
            "S.No.": "152",
            "Area": "Gijhor",
            "District": "Gautam Buddh Nagar",
            "Pincode": "201303"
        },
        {
            "S.No.": "153",
            "Area": "Sadarpur",
            "District": "Gautam Buddh Nagar",
            "Pincode": "201303"
        },
        {
            "S.No.": "154",
            "Area": "Sector 100",
            "District": "Gautam Buddh Nagar",
            "Pincode": "201303"
        },
        {
            "S.No.": "155",
            "Area": "Sector 117",
            "District": "Gautam Buddh Nagar",
            "Pincode": "201303"
        },
        {
            "S.No.": "156",
            "Area": "Sector 121",
            "District": "Gautam Buddh Nagar",
            "Pincode": "201303"
        },
        {
            "S.No.": "157",
            "Area": "Sector 123",
            "District": "Gautam Buddh Nagar",
            "Pincode": "201303"
        },
        {
            "S.No.": "158",
            "Area": "Sector 124",
            "District": "Gautam Buddh Nagar",
            "Pincode": "201303"
        },
        {
            "S.No.": "159",
            "Area": "Sector 125",
            "District": "Gautam Buddh Nagar",
            "Pincode": "201303"
        },
        {
            "S.No.": "160",
            "Area": "Sector 126",
            "District": "Gautam Buddh Nagar",
            "Pincode": "201303"
        },
        {
            "S.No.": "161",
            "Area": "Sector 128",
            "District": "Gautam Buddh Nagar",
            "Pincode": "201303"
        },
        {
            "S.No.": "162",
            "Area": "Sector 132",
            "District": "Gautam Buddh Nagar",
            "Pincode": "201303"
        },
        {
            "S.No.": "163",
            "Area": "Sector 18",
            "District": "Gautam Buddh Nagar",
            "Pincode": "201303"
        },
        {
            "S.No.": "164",
            "Area": "Sector 25",
            "District": "Gautam Buddh Nagar",
            "Pincode": "201303"
        },
        {
            "S.No.": "165",
            "Area": "Sector 30",
            "District": "Gautam Buddh Nagar",
            "Pincode": "201303"
        },
        {
            "S.No.": "166",
            "Area": "Sector 36",
            "District": "Gautam Buddh Nagar",
            "Pincode": "201303"
        },
        {
            "S.No.": "167",
            "Area": "Sector 37",
            "District": "Gautam Buddh Nagar",
            "Pincode": "201303"
        },
        {
            "S.No.": "168",
            "Area": "Sector 39",
            "District": "Gautam Buddh Nagar",
            "Pincode": "201303"
        },
        {
            "S.No.": "169",
            "Area": "Sector 40",
            "District": "Gautam Buddh Nagar",
            "Pincode": "201303"
        },
        {
            "S.No.": "170",
            "Area": "Sector 41",
            "District": "Gautam Buddh Nagar",
            "Pincode": "201303"
        },
        {
            "S.No.": "171",
            "Area": "Sector 42",
            "District": "Gautam Buddh Nagar",
            "Pincode": "201303"
        },
        {
            "S.No.": "172",
            "Area": "Sector 43",
            "District": "Gautam Buddh Nagar",
            "Pincode": "201303"
        },
        {
            "S.No.": "173",
            "Area": "Sector 44",
            "District": "Gautam Buddh Nagar",
            "Pincode": "201303"
        },
        {
            "S.No.": "174",
            "Area": "Sector 45",
            "District": "Gautam Buddh Nagar",
            "Pincode": "201303"
        },
        {
            "S.No.": "175",
            "Area": "Sector 46",
            "District": "Gautam Buddh Nagar",
            "Pincode": "201303"
        },
        {
            "S.No.": "176",
            "Area": "Sector 47",
            "District": "Gautam Buddh Nagar",
            "Pincode": "201303"
        },
        {
            "S.No.": "177",
            "Area": "Sector 48",
            "District": "Gautam Buddh Nagar",
            "Pincode": "201303"
        },
        {
            "S.No.": "178",
            "Area": "Sector 49",
            "District": "Gautam Buddh Nagar",
            "Pincode": "201303"
        },
        {
            "S.No.": "179",
            "Area": "Sector 50",
            "District": "Gautam Buddh Nagar",
            "Pincode": "201303"
        },
        {
            "S.No.": "180",
            "Area": "Sector 94",
            "District": "Gautam Buddh Nagar",
            "Pincode": "201303"
        },
        {
            "S.No.": "181",
            "Area": "Sector 96",
            "District": "Gautam Buddh Nagar",
            "Pincode": "201303"
        },
        {
            "S.No.": "182",
            "Area": "Sector 97",
            "District": "Gautam Buddh Nagar",
            "Pincode": "201303"
        },
        {
            "S.No.": "183",
            "Area": "Sector 98",
            "District": "Gautam Buddh Nagar",
            "Pincode": "201303"
        },
        {
            "S.No.": "184",
            "Area": "Sector 99",
            "District": "Gautam Buddh Nagar",
            "Pincode": "201303"
        },
        {
            "S.No.": "185",
            "Area": "Barola",
            "District": "Gautam Buddh Nagar",
            "Pincode": "201304"
        },
        {
            "S.No.": "186",
            "Area": "Gejha",
            "District": "Gautam Buddh Nagar",
            "Pincode": "201304"
        },
        {
            "S.No.": "187",
            "Area": "Hazipur",
            "District": "Gautam Buddh Nagar",
            "Pincode": "201304"
        },
        {
            "S.No.": "188",
            "Area": "Hoshiyarpur Village",
            "District": "Gautam Buddh Nagar",
            "Pincode": "201304"
        },
        {
            "S.No.": "189",
            "Area": "Salarpur",
            "District": "Gautam Buddh Nagar",
            "Pincode": "201304"
        },
        {
            "S.No.": "190",
            "Area": "Safrabad",
            "District": "Gautam Buddh Nagar",
            "Pincode": "201304"
        },
        {
            "S.No.": "191",
            "Area": "Maharishi Nagar",
            "District": "Gautam Buddh Nagar",
            "Pincode": "201304"
        },
        {
            "S.No.": "192",
            "Area": "Parthala Khanjarpur",
            "District": "Gautam Buddh Nagar",
            "Pincode": "201304"
        },
        {
            "S.No.": "193",
            "Area": "Sector 100 ",
            "District": "Gautam Buddh Nagar",
            "Pincode": "201304"
        },
        {
            "S.No.": "194",
            "Area": "Sector 101",
            "District": "Gautam Buddh Nagar",
            "Pincode": "201304"
        },
        {
            "S.No.": "195",
            "Area": "Sector 102",
            "District": "Gautam Buddh Nagar",
            "Pincode": "201304"
        },
        {
            "S.No.": "196",
            "Area": "Sector 103",
            "District": "Gautam Buddh Nagar",
            "Pincode": "201304"
        },
        {
            "S.No.": "197",
            "Area": "Sector 104",
            "District": "Gautam Buddh Nagar",
            "Pincode": "201304"
        },
        {
            "S.No.": "198",
            "Area": "Sector 105",
            "District": "Gautam Buddh Nagar",
            "Pincode": "201304"
        },
        {
            "S.No.": "199",
            "Area": "Sector 106",
            "District": "Gautam Buddh Nagar",
            "Pincode": "201304"
        },
        {
            "S.No.": "200",
            "Area": "Sector 107",
            "District": "Gautam Buddh Nagar",
            "Pincode": "201304"
        },
        {
            "S.No.": "201",
            "Area": "Sector 108",
            "District": "Gautam Buddh Nagar",
            "Pincode": "201304"
        },
        {
            "S.No.": "202",
            "Area": "Sector 109",
            "District": "Gautam Buddh Nagar",
            "Pincode": "201304"
        },
        {
            "S.No.": "203",
            "Area": "Sector 110",
            "District": "Gautam Buddh Nagar",
            "Pincode": "201304"
        },
        {
            "S.No.": "204",
            "Area": "Sector 115",
            "District": "Gautam Buddh Nagar",
            "Pincode": "201304"
        },
        {
            "S.No.": "205",
            "Area": "Sector 116",
            "District": "Gautam Buddh Nagar",
            "Pincode": "201304"
        },
        {
            "S.No.": "206",
            "Area": "Sector 117",
            "District": "Gautam Buddh Nagar",
            "Pincode": "201304"
        },
        {
            "S.No.": "207",
            "Area": "Sector 118",
            "District": "Gautam Buddh Nagar",
            "Pincode": "201304"
        },
        {
            "S.No.": "208",
            "Area": "Sector 119",
            "District": "Gautam Buddh Nagar",
            "Pincode": "201304"
        },
        {
            "S.No.": "209",
            "Area": "Sector 120",
            "District": "Gautam Buddh Nagar",
            "Pincode": "201304"
        },
        {
            "S.No.": "210",
            "Area": "Sector 127",
            "District": "Gautam Buddh Nagar",
            "Pincode": "201304"
        },
        {
            "S.No.": "211",
            "Area": "Sector 128",
            "District": "Gautam Buddh Nagar",
            "Pincode": "201304"
        },
        {
            "S.No.": "212",
            "Area": "Sector 129",
            "District": "Gautam Buddh Nagar",
            "Pincode": "201304"
        },
        {
            "S.No.": "213",
            "Area": "Sector 130",
            "District": "Gautam Buddh Nagar",
            "Pincode": "201304"
        },
        {
            "S.No.": "214",
            "Area": "Sector 131",
            "District": "Gautam Buddh Nagar",
            "Pincode": "201304"
        },
        {
            "S.No.": "215",
            "Area": "Sector 132",
            "District": "Gautam Buddh Nagar",
            "Pincode": "201304"
        },
        {
            "S.No.": "216",
            "Area": "Sector 133",
            "District": "Gautam Buddh Nagar",
            "Pincode": "201304"
        },
        {
            "S.No.": "217",
            "Area": "Sector 134",
            "District": "Gautam Buddh Nagar",
            "Pincode": "201304"
        },
        {
            "S.No.": "218",
            "Area": "Sector 135",
            "District": "Gautam Buddh Nagar",
            "Pincode": "201304"
        },
        {
            "S.No.": "219",
            "Area": "Sector 136",
            "District": "Gautam Buddh Nagar",
            "Pincode": "201304"
        },
        {
            "S.No.": "220",
            "Area": "Sector 144",
            "District": "Gautam Buddh Nagar",
            "Pincode": "201304"
        },
        {
            "S.No.": "221",
            "Area": "Sector 49",
            "District": "Gautam Buddh Nagar",
            "Pincode": "201304"
        },
        {
            "S.No.": "222",
            "Area": "Sector 50",
            "District": "Gautam Buddh Nagar",
            "Pincode": "201304"
        },
        {
            "S.No.": "223",
            "Area": "Sector 51",
            "District": "Gautam Buddh Nagar",
            "Pincode": "201304"
        },
        {
            "S.No.": "224",
            "Area": "Sector 52",
            "District": "Gautam Buddh Nagar",
            "Pincode": "201304"
        },
        {
            "S.No.": "225",
            "Area": "Sector 77",
            "District": "Gautam Buddh Nagar",
            "Pincode": "201304"
        },
        {
            "S.No.": "226",
            "Area": "Sector 82",
            "District": "Gautam Buddh Nagar",
            "Pincode": "201304"
        },
        {
            "S.No.": "227",
            "Area": "Sector 83",
            "District": "Gautam Buddh Nagar",
            "Pincode": "201304"
        },
        {
            "S.No.": "228",
            "Area": "Sector 90",
            "District": "Gautam Buddh Nagar",
            "Pincode": "201304"
        },
        {
            "S.No.": "229",
            "Area": "Sector 91",
            "District": "Gautam Buddh Nagar",
            "Pincode": "201304"
        },
        {
            "S.No.": "230",
            "Area": "Sector 92",
            "District": "Gautam Buddh Nagar",
            "Pincode": "201304"
        },
        {
            "S.No.": "231",
            "Area": "Sector 93",
            "District": "Gautam Buddh Nagar",
            "Pincode": "201304"
        },
        {
            "S.No.": "232",
            "Area": "Sector 94",
            "District": "Gautam Buddh Nagar",
            "Pincode": "201304"
        },
        {
            "S.No.": "233",
            "Area": "Sector 95",
            "District": "Gautam Buddh Nagar",
            "Pincode": "201304"
        },
        {
            "S.No.": "234",
            "Area": "Sector 98",
            "District": "Gautam Buddh Nagar",
            "Pincode": "201304"
        },
        {
            "S.No.": "235",
            "Area": "Sector 99",
            "District": "Gautam Buddh Nagar",
            "Pincode": "201304"
        },
        {
            "S.No.": "236",
            "Area": "Udhog Vihar",
            "District": "Gautam Buddh Nagar",
            "Pincode": "201304"
        },
        {
            "S.No.": "237",
            "Area": "Gejha",
            "District": "Gautam Buddh Nagar",
            "Pincode": "201305"
        },
        {
            "S.No.": "238",
            "Area": "Gijhor",
            "District": "Gautam Buddh Nagar",
            "Pincode": "201305"
        },
        {
            "S.No.": "239",
            "Area": "Hosiery Complex",
            "District": "Gautam Buddh Nagar",
            "Pincode": "201305"
        },
        {
            "S.No.": "240",
            "Area": "Nagla Charandas",
            "District": "Gautam Buddh Nagar",
            "Pincode": "201305"
        },
        {
            "S.No.": "241",
            "Area": "Nepz",
            "District": "Gautam Buddh Nagar",
            "Pincode": "201305"
        },
        {
            "S.No.": "242",
            "Area": "Noida Extension",
            "District": "Gautam Buddh Nagar",
            "Pincode": "201305"
        },
        {
            "S.No.": "243",
            "Area": "NSEZ",
            "District": "Gautam Buddh Nagar",
            "Pincode": "201305"
        },
        {
            "S.No.": "244",
            "Area": "Salarpur",
            "District": "Gautam Buddh Nagar",
            "Pincode": "201305"
        },
        {
            "S.No.": "245",
            "Area": "Sector 106",
            "District": "Gautam Buddh Nagar",
            "Pincode": "201305"
        },
        {
            "S.No.": "246",
            "Area": "Sector 108",
            "District": "Gautam Buddh Nagar",
            "Pincode": "201305"
        },
        {
            "S.No.": "247",
            "Area": "Sector 110",
            "District": "Gautam Buddh Nagar",
            "Pincode": "201305"
        },
        {
            "S.No.": "248",
            "Area": "Sector 111",
            "District": "Gautam Buddh Nagar",
            "Pincode": "201305"
        },
        {
            "S.No.": "249",
            "Area": "Sector 112",
            "District": "Gautam Buddh Nagar",
            "Pincode": "201305"
        },
        {
            "S.No.": "250",
            "Area": "Sector 113",
            "District": "Gautam Buddh Nagar",
            "Pincode": "201305"
        },
        {
            "S.No.": "251",
            "Area": "Sector 116",
            "District": "Gautam Buddh Nagar",
            "Pincode": "201305"
        },
        {
            "S.No.": "252",
            "Area": "Sector 119",
            "District": "Gautam Buddh Nagar",
            "Pincode": "201305"
        },
        {
            "S.No.": "253",
            "Area": "Sector 123",
            "District": "Gautam Buddh Nagar",
            "Pincode": "201305"
        },
        {
            "S.No.": "254",
            "Area": "Sector 124",
            "District": "Gautam Buddh Nagar",
            "Pincode": "201305"
        },
        {
            "S.No.": "255",
            "Area": "Sector 125",
            "District": "Gautam Buddh Nagar",
            "Pincode": "201305"
        },
        {
            "S.No.": "256",
            "Area": "Sector 126",
            "District": "Gautam Buddh Nagar",
            "Pincode": "201305"
        },
        {
            "S.No.": "257",
            "Area": "Sector 127",
            "District": "Gautam Buddh Nagar",
            "Pincode": "201305"
        },
        {
            "S.No.": "258",
            "Area": "Sector 128",
            "District": "Gautam Buddh Nagar",
            "Pincode": "201305"
        },
        {
            "S.No.": "259",
            "Area": "Sector 129",
            "District": "Gautam Buddh Nagar",
            "Pincode": "201305"
        },
        {
            "S.No.": "260",
            "Area": "Sector 130",
            "District": "Gautam Buddh Nagar",
            "Pincode": "201305"
        },
        {
            "S.No.": "261",
            "Area": "Sector 131",
            "District": "Gautam Buddh Nagar",
            "Pincode": "201305"
        },
        {
            "S.No.": "262",
            "Area": "Sector 132",
            "District": "Gautam Buddh Nagar",
            "Pincode": "201305"
        },
        {
            "S.No.": "263",
            "Area": "Sector 133",
            "District": "Gautam Buddh Nagar",
            "Pincode": "201305"
        },
        {
            "S.No.": "264",
            "Area": "Sector 134",
            "District": "Gautam Buddh Nagar",
            "Pincode": "201305"
        },
        {
            "S.No.": "265",
            "Area": "Sector 135",
            "District": "Gautam Buddh Nagar",
            "Pincode": "201305"
        },
        {
            "S.No.": "266",
            "Area": "Sector 136",
            "District": "Gautam Buddh Nagar",
            "Pincode": "201305"
        },
        {
            "S.No.": "267",
            "Area": "Sector 137",
            "District": "Gautam Buddh Nagar",
            "Pincode": "201305"
        },
        {
            "S.No.": "268",
            "Area": "Sector 138",
            "District": "Gautam Buddh Nagar",
            "Pincode": "201305"
        },
        {
            "S.No.": "269",
            "Area": "Sector 139",
            "District": "Gautam Buddh Nagar",
            "Pincode": "201305"
        },
        {
            "S.No.": "270",
            "Area": "Sector 140",
            "District": "Gautam Buddh Nagar",
            "Pincode": "201305"
        },
        {
            "S.No.": "271",
            "Area": "Sector 141",
            "District": "Gautam Buddh Nagar",
            "Pincode": "201305"
        },
        {
            "S.No.": "272",
            "Area": "Sector 142",
            "District": "Gautam Buddh Nagar",
            "Pincode": "201305"
        },
        {
            "S.No.": "273",
            "Area": "Sector 143",
            "District": "Gautam Buddh Nagar",
            "Pincode": "201305"
        },
        {
            "S.No.": "274",
            "Area": "Sector 144",
            "District": "Gautam Buddh Nagar",
            "Pincode": "201305"
        },
        {
            "S.No.": "275",
            "Area": "Sector 145",
            "District": "Gautam Buddh Nagar",
            "Pincode": "201305"
        },
        {
            "S.No.": "276",
            "Area": "Sector 146",
            "District": "Gautam Buddh Nagar",
            "Pincode": "201305"
        },
        {
            "S.No.": "277",
            "Area": "Sector 147",
            "District": "Gautam Buddh Nagar",
            "Pincode": "201305"
        },
        {
            "S.No.": "278",
            "Area": "Sector 161",
            "District": "Gautam Buddh Nagar",
            "Pincode": "201305"
        },
        {
            "S.No.": "279",
            "Area": "Sector 162",
            "District": "Gautam Buddh Nagar",
            "Pincode": "201305"
        },
        {
            "S.No.": "280",
            "Area": "Sector 168",
            "District": "Gautam Buddh Nagar",
            "Pincode": "201305"
        },
        {
            "S.No.": "281",
            "Area": "Sector 68",
            "District": "Gautam Buddh Nagar",
            "Pincode": "201305"
        },
        {
            "S.No.": "282",
            "Area": "Sector 78",
            "District": "Gautam Buddh Nagar",
            "Pincode": "201305"
        },
        {
            "S.No.": "283",
            "Area": "Sector 80",
            "District": "Gautam Buddh Nagar",
            "Pincode": "201305"
        },
        {
            "S.No.": "284",
            "Area": "Sector 81",
            "District": "Gautam Buddh Nagar",
            "Pincode": "201305"
        },
        {
            "S.No.": "285",
            "Area": "Sector 82",
            "District": "Gautam Buddh Nagar",
            "Pincode": "201305"
        },
        {
            "S.No.": "286",
            "Area": "Sector 83",
            "District": "Gautam Buddh Nagar",
            "Pincode": "201305"
        },
        {
            "S.No.": "287",
            "Area": "Sector 84",
            "District": "Gautam Buddh Nagar",
            "Pincode": "201305"
        },
        {
            "S.No.": "288",
            "Area": "Sector 85",
            "District": "Gautam Buddh Nagar",
            "Pincode": "201305"
        },
        {
            "S.No.": "289",
            "Area": "Sector 86",
            "District": "Gautam Buddh Nagar",
            "Pincode": "201305"
        },
        {
            "S.No.": "290",
            "Area": "Sector 87",
            "District": "Gautam Buddh Nagar",
            "Pincode": "201305"
        },
        {
            "S.No.": "291",
            "Area": "Sector 88",
            "District": "Gautam Buddh Nagar",
            "Pincode": "201305"
        },
        {
            "S.No.": "292",
            "Area": "Sector 89",
            "District": "Gautam Buddh Nagar",
            "Pincode": "201305"
        },
        {
            "S.No.": "293",
            "Area": "Sector 90",
            "District": "Gautam Buddh Nagar",
            "Pincode": "201305"
        },
        {
            "S.No.": "294",
            "Area": "Sector 91",
            "District": "Gautam Buddh Nagar",
            "Pincode": "201305"
        },
        {
            "S.No.": "295",
            "Area": "Sector 92",
            "District": "Gautam Buddh Nagar",
            "Pincode": "201305"
        },
        {
            "S.No.": "296",
            "Area": "Sector 93",
            "District": "Gautam Buddh Nagar",
            "Pincode": "201305"
        },
        {
            "S.No.": "297",
            "Area": "Sector 94",
            "District": "Gautam Buddh Nagar",
            "Pincode": "201305"
        },
        {
            "S.No.": "298",
            "Area": "Alpha 1",
            "District": "Gautam Buddh Nagar",
            "Pincode": "201306"
        },
        {
            "S.No.": "299",
            "Area": "AWHO Society",
            "District": "Gautam Buddh Nagar",
            "Pincode": "201306"
        },
        {
            "S.No.": "300",
            "Area": "Bisrakh",
            "District": "Gautam Buddh Nagar",
            "Pincode": "201306"
        },
        {
            "S.No.": "301",
            "Area": "Delta 1",
            "District": "Gautam Buddh Nagar",
            "Pincode": "201306"
        },
        {
            "S.No.": "302",
            "Area": "Delta 2",
            "District": "Gautam Buddh Nagar",
            "Pincode": "201306"
        },
        {
            "S.No.": "303",
            "Area": "Delta 3",
            "District": "Gautam Buddh Nagar",
            "Pincode": "201306"
        },
        {
            "S.No.": "304",
            "Area": "Devla",
            "District": "Gautam Buddh Nagar",
            "Pincode": "201306"
        },
        {
            "S.No.": "305",
            "Area": "Ecotech 1",
            "District": "Gautam Buddh Nagar",
            "Pincode": "201306"
        },
        {
            "S.No.": "306",
            "Area": "Ecotech 2",
            "District": "Gautam Buddh Nagar",
            "Pincode": "201306"
        },
        {
            "S.No.": "307",
            "Area": "Ecotech 3",
            "District": "Gautam Buddh Nagar",
            "Pincode": "201306"
        },
        {
            "S.No.": "308",
            "Area": "Gaur City",
            "District": "Gautam Buddh Nagar",
            "Pincode": "201306"
        },
        {
            "S.No.": "309",
            "Area": "Kulesra",
            "District": "Gautam Buddh Nagar",
            "Pincode": "201306"
        },
        {
            "S.No.": "310",
            "Area": "Sakipur",
            "District": "Gautam Buddh Nagar",
            "Pincode": "201306"
        },
        {
            "S.No.": "311",
            "Area": "Noida Extension",
            "District": "Gautam Buddh Nagar",
            "Pincode": "201306"
        },
        {
            "S.No.": "312",
            "Area": "Sector 1",
            "District": "Gautam Buddh Nagar",
            "Pincode": "201306"
        },
        {
            "S.No.": "313",
            "Area": "Sector 1, Greater Noida",
            "District": "Gautam Buddh Nagar",
            "Pincode": "201306"
        },
        {
            "S.No.": "314",
            "Area": "Sector 12, Greater Noida",
            "District": "Gautam Buddh Nagar",
            "Pincode": "201306"
        },
        {
            "S.No.": "315",
            "Area": "Sector 112",
            "District": "Gautam Buddh Nagar",
            "Pincode": "201306"
        },
        {
            "S.No.": "316",
            "Area": "Sector 113",
            "District": "Gautam Buddh Nagar",
            "Pincode": "201306"
        },
        {
            "S.No.": "317",
            "Area": "Sector 115",
            "District": "Gautam Buddh Nagar",
            "Pincode": "201306"
        },
        {
            "S.No.": "318",
            "Area": "Sector 116",
            "District": "Gautam Buddh Nagar",
            "Pincode": "201306"
        },
        {
            "S.No.": "319",
            "Area": "Sector 118",
            "District": "Gautam Buddh Nagar",
            "Pincode": "201306"
        },
        {
            "S.No.": "320",
            "Area": "Sector 120",
            "District": "Gautam Buddh Nagar",
            "Pincode": "201306"
        },
        {
            "S.No.": "321",
            "Area": "Sector 123",
            "District": "Gautam Buddh Nagar",
            "Pincode": "201306"
        },
        {
            "S.No.": "322",
            "Area": "Sector 131",
            "District": "Gautam Buddh Nagar",
            "Pincode": "201306"
        },
        {
            "S.No.": "323",
            "Area": "Sector 143",
            "District": "Gautam Buddh Nagar",
            "Pincode": "201306"
        },
        {
            "S.No.": "324",
            "Area": "Sector 144",
            "District": "Gautam Buddh Nagar",
            "Pincode": "201306"
        },
        {
            "S.No.": "325",
            "Area": "Sector 145",
            "District": "Gautam Buddh Nagar",
            "Pincode": "201306"
        },
        {
            "S.No.": "326",
            "Area": "Sector 146",
            "District": "Gautam Buddh Nagar",
            "Pincode": "201306"
        },
        {
            "S.No.": "327",
            "Area": "Sector 16",
            "District": "Gautam Buddh Nagar",
            "Pincode": "201306"
        },
        {
            "S.No.": "328",
            "Area": "Sector 16B",
            "District": "Gautam Buddh Nagar",
            "Pincode": "201306"
        },
        {
            "S.No.": "329",
            "Area": "Sector 16C",
            "District": "Gautam Buddh Nagar",
            "Pincode": "201306"
        },
        {
            "S.No.": "330",
            "Area": "Sector 162",
            "District": "Gautam Buddh Nagar",
            "Pincode": "201306"
        },
        {
            "S.No.": "331",
            "Area": "Sector 163",
            "District": "Gautam Buddh Nagar",
            "Pincode": "201306"
        },
        {
            "S.No.": "332",
            "Area": "Sector 164",
            "District": "Gautam Buddh Nagar",
            "Pincode": "201306"
        },
        {
            "S.No.": "333",
            "Area": "Sector 165",
            "District": "Gautam Buddh Nagar",
            "Pincode": "201306"
        },
        {
            "S.No.": "334",
            "Area": "Sector 166",
            "District": "Gautam Buddh Nagar",
            "Pincode": "201306"
        },
        {
            "S.No.": "335",
            "Area": "Sector 167",
            "District": "Gautam Buddh Nagar",
            "Pincode": "201306"
        },
        {
            "S.No.": "336",
            "Area": "Sector 74",
            "District": "Gautam Buddh Nagar",
            "Pincode": "201306"
        },
        {
            "S.No.": "337",
            "Area": "Sector 76",
            "District": "Gautam Buddh Nagar",
            "Pincode": "201306"
        },
        {
            "S.No.": "338",
            "Area": "Sector 77",
            "District": "Gautam Buddh Nagar",
            "Pincode": "201306"
        },
        {
            "S.No.": "339",
            "Area": "Sector 79",
            "District": "Gautam Buddh Nagar",
            "Pincode": "201306"
        },
        {
            "S.No.": "340",
            "Area": "Sector 80",
            "District": "Gautam Buddh Nagar",
            "Pincode": "201306"
        },
        {
            "S.No.": "341",
            "Area": "Sector 81",
            "District": "Gautam Buddh Nagar",
            "Pincode": "201306"
        },
        {
            "S.No.": "342",
            "Area": "Sector 88",
            "District": "Gautam Buddh Nagar",
            "Pincode": "201306"
        },
        {
            "S.No.": "343",
            "Area": "Sigma 2",
            "District": "Gautam Buddh Nagar",
            "Pincode": "201306"
        },
        {
            "S.No.": "344",
            "Area": "Sigma 3",
            "District": "Gautam Buddh Nagar",
            "Pincode": "201306"
        },
        {
            "S.No.": "345",
            "Area": "Surajpur",
            "District": "Gautam Buddh Nagar",
            "Pincode": "201306"
        },
        {
            "S.No.": "346",
            "Area": "Techzone 4",
            "District": "Gautam Buddh Nagar",
            "Pincode": "201306"
        },
        {
            "S.No.": "347",
            "Area": "Tilapta",
            "District": "Gautam Buddh Nagar",
            "Pincode": "201306"
        },
        {
            "S.No.": "348",
            "Area": "Udyog Vihar",
            "District": "Gautam Buddh Nagar",
            "Pincode": "201306"
        },
        {
            "S.No.": "349",
            "Area": "Zeta 1",
            "District": "Gautam Buddh Nagar",
            "Pincode": "201306"
        },
        {
            "S.No.": "350",
            "Area": "Zeta 2",
            "District": "Gautam Buddh Nagar",
            "Pincode": "201306"
        },
        {
            "S.No.": "351",
            "Area": "Zeta 3",
            "District": "Gautam Buddh Nagar",
            "Pincode": "201306"
        },
        {
            "S.No.": "352",
            "Area": "Chhajarsi Colony",
            "District": "Gautam Buddh Nagar",
            "Pincode": "201307"
        },
        {
            "S.No.": "353",
            "Area": "Hoshiyarpur Village",
            "District": "Gautam Buddh Nagar",
            "Pincode": "201307"
        },
        {
            "S.No.": "354",
            "Area": "Gijhor",
            "District": "Gautam Buddh Nagar",
            "Pincode": "201307"
        },
        {
            "S.No.": "355",
            "Area": "Khora Colony",
            "District": "Gautam Buddh Nagar",
            "Pincode": "201307"
        },
        {
            "S.No.": "356",
            "Area": "Rajat Vihar",
            "District": "Gautam Buddh Nagar",
            "Pincode": "201307"
        },
        {
            "S.No.": "357",
            "Area": "Sarfabad",
            "District": "Gautam Buddh Nagar",
            "Pincode": "201307"
        },
        {
            "S.No.": "358",
            "Area": "Sector 112",
            "District": "Gautam Buddh Nagar",
            "Pincode": "201307"
        },
        {
            "S.No.": "359",
            "Area": "Sector 119",
            "District": "Gautam Buddh Nagar",
            "Pincode": "201307"
        },
        {
            "S.No.": "360",
            "Area": "Sector 131",
            "District": "Gautam Buddh Nagar",
            "Pincode": "201307"
        },
        {
            "S.No.": "361",
            "Area": "Sector 132",
            "District": "Gautam Buddh Nagar",
            "Pincode": "201307"
        },
        {
            "S.No.": "362",
            "Area": "Sector 134",
            "District": "Gautam Buddh Nagar",
            "Pincode": "201307"
        },
        {
            "S.No.": "363",
            "Area": "Sector 23",
            "District": "Gautam Buddh Nagar",
            "Pincode": "201307"
        },
        {
            "S.No.": "364",
            "Area": "Sector 24",
            "District": "Gautam Buddh Nagar",
            "Pincode": "201307"
        },
        {
            "S.No.": "365",
            "Area": "Sector 33",
            "District": "Gautam Buddh Nagar",
            "Pincode": "201307"
        },
        {
            "S.No.": "366",
            "Area": "Sector 34",
            "District": "Gautam Buddh Nagar",
            "Pincode": "201307"
        },
        {
            "S.No.": "367",
            "Area": "Sector 35",
            "District": "Gautam Buddh Nagar",
            "Pincode": "201307"
        },
        {
            "S.No.": "368",
            "Area": "Sector 49",
            "District": "Gautam Buddh Nagar",
            "Pincode": "201307"
        },
        {
            "S.No.": "369",
            "Area": "Sector 50",
            "District": "Gautam Buddh Nagar",
            "Pincode": "201307"
        },
        {
            "S.No.": "370",
            "Area": "Sector 53",
            "District": "Gautam Buddh Nagar",
            "Pincode": "201307"
        },
        {
            "S.No.": "371",
            "Area": "Sector 54",
            "District": "Gautam Buddh Nagar",
            "Pincode": "201307"
        },
        {
            "S.No.": "372",
            "Area": "Sector 55",
            "District": "Gautam Buddh Nagar",
            "Pincode": "201307"
        },
        {
            "S.No.": "373",
            "Area": "Sector 56",
            "District": "Gautam Buddh Nagar",
            "Pincode": "201307"
        },
        {
            "S.No.": "374",
            "Area": "Sector 57",
            "District": "Gautam Buddh Nagar",
            "Pincode": "201307"
        },
        {
            "S.No.": "375",
            "Area": "Sector 58",
            "District": "Gautam Buddh Nagar",
            "Pincode": "201307"
        },
        {
            "S.No.": "376",
            "Area": "Sector 59",
            "District": "Gautam Buddh Nagar",
            "Pincode": "201307"
        },
        {
            "S.No.": "377",
            "Area": "Sector 60",
            "District": "Gautam Buddh Nagar",
            "Pincode": "201307"
        },
        {
            "S.No.": "378",
            "Area": "Sector 61",
            "District": "Gautam Buddh Nagar",
            "Pincode": "201307"
        },
        {
            "S.No.": "379",
            "Area": "Sector 63",
            "District": "Gautam Buddh Nagar",
            "Pincode": "201307"
        },
        {
            "S.No.": "380",
            "Area": "Sector 64",
            "District": "Gautam Buddh Nagar",
            "Pincode": "201307"
        },
        {
            "S.No.": "381",
            "Area": "Sector 65",
            "District": "Gautam Buddh Nagar",
            "Pincode": "201307"
        },
        {
            "S.No.": "382",
            "Area": "Sector 66",
            "District": "Gautam Buddh Nagar",
            "Pincode": "201307"
        },
        {
            "S.No.": "383",
            "Area": "Sector 67",
            "District": "Gautam Buddh Nagar",
            "Pincode": "201307"
        },
        {
            "S.No.": "384",
            "Area": "Sector 68",
            "District": "Gautam Buddh Nagar",
            "Pincode": "201307"
        },
        {
            "S.No.": "385",
            "Area": "Sector 69",
            "District": "Gautam Buddh Nagar",
            "Pincode": "201307"
        },
        {
            "S.No.": "386",
            "Area": "Sector 70",
            "District": "Gautam Buddh Nagar",
            "Pincode": "201307"
        },
        {
            "S.No.": "387",
            "Area": "Sector 72",
            "District": "Gautam Buddh Nagar",
            "Pincode": "201307"
        },
        {
            "S.No.": "388",
            "Area": "Sector 73",
            "District": "Gautam Buddh Nagar",
            "Pincode": "201307"
        },
        {
            "S.No.": "389",
            "Area": "Sector 75",
            "District": "Gautam Buddh Nagar",
            "Pincode": "201307"
        },
        {
            "S.No.": "390",
            "Area": "Aicher",
            "District": "Gautam Buddh Nagar",
            "Pincode": "201308"
        },
        {
            "S.No.": "391",
            "Area": "Alpha 1",
            "District": "Gautam Buddh Nagar",
            "Pincode": "201308"
        },
        {
            "S.No.": "392",
            "Area": "Alpha 2",
            "District": "Gautam Buddh Nagar",
            "Pincode": "201308"
        },
        {
            "S.No.": "393",
            "Area": "Beta 1",
            "District": "Gautam Buddh Nagar",
            "Pincode": "201308"
        },
        {
            "S.No.": "394",
            "Area": "Beta 2",
            "District": "Gautam Buddh Nagar",
            "Pincode": "201308"
        },
        {
            "S.No.": "395",
            "Area": "Chi 1",
            "District": "Gautam Buddh Nagar",
            "Pincode": "201308"
        },
        {
            "S.No.": "396",
            "Area": "Chi 2",
            "District": "Gautam Buddh Nagar",
            "Pincode": "201308"
        },
        {
            "S.No.": "397",
            "Area": "Chi 3",
            "District": "Gautam Buddh Nagar",
            "Pincode": "201308"
        },
        {
            "S.No.": "398",
            "Area": "Chi 4",
            "District": "Gautam Buddh Nagar",
            "Pincode": "201308"
        },
        {
            "S.No.": "399",
            "Area": "Delta 1",
            "District": "Gautam Buddh Nagar",
            "Pincode": "201308"
        },
        {
            "S.No.": "400",
            "Area": "Delta 2",
            "District": "Gautam Buddh Nagar",
            "Pincode": "201308"
        },
        {
            "S.No.": "401",
            "Area": "Delta 3",
            "District": "Gautam Buddh Nagar",
            "Pincode": "201308"
        },
        {
            "S.No.": "402",
            "Area": "Ecotech 1",
            "District": "Gautam Buddh Nagar",
            "Pincode": "201308"
        },
        {
            "S.No.": "403",
            "Area": "Ecotech 2",
            "District": "Gautam Buddh Nagar",
            "Pincode": "201308"
        },
        {
            "S.No.": "404",
            "Area": "Ecotech 3",
            "District": "Gautam Buddh Nagar",
            "Pincode": "201308"
        },
        {
            "S.No.": "405",
            "Area": "Eta 1",
            "District": "Gautam Buddh Nagar",
            "Pincode": "201308"
        },
        {
            "S.No.": "406",
            "Area": "Eta 2",
            "District": "Gautam Buddh Nagar",
            "Pincode": "201308"
        },
        {
            "S.No.": "407",
            "Area": "Gamma 1",
            "District": "Gautam Buddh Nagar",
            "Pincode": "201308"
        },
        {
            "S.No.": "408",
            "Area": "Gamma 2",
            "District": "Gautam Buddh Nagar",
            "Pincode": "201308"
        },
        {
            "S.No.": "409",
            "Area": "Gaur City",
            "District": "Gautam Buddh Nagar",
            "Pincode": "201308"
        },
        {
            "S.No.": "410",
            "Area": "Knowledge Park 3",
            "District": "Gautam Buddh Nagar",
            "Pincode": "201308"
        },
        {
            "S.No.": "411",
            "Area": "MU 1",
            "District": "Gautam Buddh Nagar",
            "Pincode": "201308"
        },
        {
            "S.No.": "412",
            "Area": "MU 2",
            "District": "Gautam Buddh Nagar",
            "Pincode": "201308"
        },
        {
            "S.No.": "413",
            "Area": "Nepz",
            "District": "Gautam Buddh Nagar",
            "Pincode": "201308"
        },
        {
            "S.No.": "414",
            "Area": "Noida Extension",
            "District": "Gautam Buddh Nagar",
            "Pincode": "201308"
        },
        {
            "S.No.": "415",
            "Area": "NTPC Anandam",
            "District": "Gautam Buddh Nagar",
            "Pincode": "201308"
        },
        {
            "S.No.": "416",
            "Area": "Omega 1",
            "District": "Gautam Buddh Nagar",
            "Pincode": "201308"
        },
        {
            "S.No.": "417",
            "Area": "Omega 2",
            "District": "Gautam Buddh Nagar",
            "Pincode": "201308"
        },
        {
            "S.No.": "418",
            "Area": "Omega 3",
            "District": "Gautam Buddh Nagar",
            "Pincode": "201308"
        },
        {
            "S.No.": "419",
            "Area": "Omega 4",
            "District": "Gautam Buddh Nagar",
            "Pincode": "201308"
        },
        {
            "S.No.": "420",
            "Area": "Omicron 1",
            "District": "Gautam Buddh Nagar",
            "Pincode": "201308"
        },
        {
            "S.No.": "421",
            "Area": "Omicron 2",
            "District": "Gautam Buddh Nagar",
            "Pincode": "201308"
        },
        {
            "S.No.": "422",
            "Area": "Omicron 3",
            "District": "Gautam Buddh Nagar",
            "Pincode": "201308"
        },
        {
            "S.No.": "423",
            "Area": "Pi 1",
            "District": "Gautam Buddh Nagar",
            "Pincode": "201308"
        },
        {
            "S.No.": "424",
            "Area": "Pi 2",
            "District": "Gautam Buddh Nagar",
            "Pincode": "201308"
        },
        {
            "S.No.": "425",
            "Area": "Sector 1, Greater Noida",
            "District": "Gautam Buddh Nagar",
            "Pincode": "201308"
        },
        {
            "S.No.": "426",
            "Area": "Sector 10, Greater Noida",
            "District": "Gautam Buddh Nagar",
            "Pincode": "201308"
        },
        {
            "S.No.": "427",
            "Area": "Sector 12, Greater Noida",
            "District": "Gautam Buddh Nagar",
            "Pincode": "201308"
        },
        {
            "S.No.": "428",
            "Area": "Sector 16",
            "District": "Gautam Buddh Nagar",
            "Pincode": "201308"
        },
        {
            "S.No.": "429",
            "Area": "Sector 16B",
            "District": "Gautam Buddh Nagar",
            "Pincode": "201308"
        },
        {
            "S.No.": "430",
            "Area": "Sector 16C",
            "District": "Gautam Buddh Nagar",
            "Pincode": "201308"
        },
        {
            "S.No.": "431",
            "Area": "Sector 37, Greater Noida",
            "District": "Gautam Buddh Nagar",
            "Pincode": "201308"
        },
        {
            "S.No.": "432",
            "Area": "Sigma 2",
            "District": "Gautam Buddh Nagar",
            "Pincode": "201308"
        },
        {
            "S.No.": "433",
            "Area": "Sigma 3",
            "District": "Gautam Buddh Nagar",
            "Pincode": "201308"
        },
        {
            "S.No.": "434",
            "Area": "Sigma 4",
            "District": "Gautam Buddh Nagar",
            "Pincode": "201308"
        },
        {
            "S.No.": "435",
            "Area": "Surajpur",
            "District": "Gautam Buddh Nagar",
            "Pincode": "201308"
        },
        {
            "S.No.": "436",
            "Area": "Techzon 4",
            "District": "Gautam Buddh Nagar",
            "Pincode": "201308"
        },
        {
            "S.No.": "437",
            "Area": "Theta 1",
            "District": "Gautam Buddh Nagar",
            "Pincode": "201308"
        },
        {
            "S.No.": "438",
            "Area": "Theta 2",
            "District": "Gautam Buddh Nagar",
            "Pincode": "201308"
        },
        {
            "S.No.": "439",
            "Area": "Tilapta",
            "District": "Gautam Buddh Nagar",
            "Pincode": "201308"
        },
        {
            "S.No.": "440",
            "Area": "Udyog Vihar",
            "District": "Gautam Buddh Nagar",
            "Pincode": "201308"
        },
        {
            "S.No.": "441",
            "Area": "XU 1",
            "District": "Gautam Buddh Nagar",
            "Pincode": "201308"
        },
        {
            "S.No.": "442",
            "Area": "XU 2",
            "District": "Gautam Buddh Nagar",
            "Pincode": "201308"
        },
        {
            "S.No.": "443",
            "Area": "Zeta 1",
            "District": "Gautam Buddh Nagar",
            "Pincode": "201308"
        },
        {
            "S.No.": "444",
            "Area": "Zeta 2",
            "District": "Gautam Buddh Nagar",
            "Pincode": "201308"
        },
        {
            "S.No.": "445",
            "Area": "Zeta 3",
            "District": "Gautam Buddh Nagar",
            "Pincode": "201308"
        },
        {
            "S.No.": "446",
            "Area": "Khora Colony",
            "District": "Gautam Buddh Nagar",
            "Pincode": "201309"
        },
        {
            "S.No.": "447",
            "Area": "Rasulpur Nawada",
            "District": "Gautam Buddh Nagar",
            "Pincode": "201309"
        },
        {
            "S.No.": "448",
            "Area": "Sector 103",
            "District": "Gautam Buddh Nagar",
            "Pincode": "201309"
        },
        {
            "S.No.": "449",
            "Area": "Sector 109",
            "District": "Gautam Buddh Nagar",
            "Pincode": "201309"
        },
        {
            "S.No.": "450",
            "Area": "Sector 111",
            "District": "Gautam Buddh Nagar",
            "Pincode": "201309"
        },
        {
            "S.No.": "451",
            "Area": "Sector 122",
            "District": "Gautam Buddh Nagar",
            "Pincode": "201309"
        },
        {
            "S.No.": "452",
            "Area": "Sector 124",
            "District": "Gautam Buddh Nagar",
            "Pincode": "201309"
        },
        {
            "S.No.": "453",
            "Area": "Sector 149",
            "District": "Gautam Buddh Nagar",
            "Pincode": "201309"
        },
        {
            "S.No.": "454",
            "Area": "Sector 150",
            "District": "Gautam Buddh Nagar",
            "Pincode": "201309"
        },
        {
            "S.No.": "455",
            "Area": "Sector 16",
            "District": "Gautam Buddh Nagar",
            "Pincode": "201309"
        },
        {
            "S.No.": "456",
            "Area": "Sector 62",
            "District": "Gautam Buddh Nagar",
            "Pincode": "201309"
        },
        {
            "S.No.": "457",
            "Area": "Sector 71",
            "District": "Gautam Buddh Nagar",
            "Pincode": "201309"
        },
        {
            "S.No.": "458",
            "Area": "Aicher",
            "District": "Gautam Buddh Nagar",
            "Pincode": "201310"
        },
        {
            "S.No.": "459",
            "Area": "Alpha 1",
            "District": "Gautam Buddh Nagar",
            "Pincode": "201310"
        },
        {
            "S.No.": "460",
            "Area": "Alpha 2",
            "District": "Gautam Buddh Nagar",
            "Pincode": "201310"
        },
        {
            "S.No.": "461",
            "Area": "Beta 1",
            "District": "Gautam Buddh Nagar",
            "Pincode": "201310"
        },
        {
            "S.No.": "462",
            "Area": "Beta 2",
            "District": "Gautam Buddh Nagar",
            "Pincode": "201310"
        },
        {
            "S.No.": "463",
            "Area": "Chi 1",
            "District": "Gautam Buddh Nagar",
            "Pincode": "201310"
        },
        {
            "S.No.": "464",
            "Area": "Chi 2",
            "District": "Gautam Buddh Nagar",
            "Pincode": "201310"
        },
        {
            "S.No.": "465",
            "Area": "Chi 3",
            "District": "Gautam Buddh Nagar",
            "Pincode": "201310"
        },
        {
            "S.No.": "466",
            "Area": "Chi 4",
            "District": "Gautam Buddh Nagar",
            "Pincode": "201310"
        },
        {
            "S.No.": "467",
            "Area": "Chi 5",
            "District": "Gautam Buddh Nagar",
            "Pincode": "201310"
        },
        {
            "S.No.": "468",
            "Area": "Delta 1",
            "District": "Gautam Buddh Nagar",
            "Pincode": "201310"
        },
        {
            "S.No.": "469",
            "Area": "Delta 2",
            "District": "Gautam Buddh Nagar",
            "Pincode": "201310"
        },
        {
            "S.No.": "470",
            "Area": "Delta 3",
            "District": "Gautam Buddh Nagar",
            "Pincode": "201310"
        },
        {
            "S.No.": "471",
            "Area": "Devla",
            "District": "Gautam Buddh Nagar",
            "Pincode": "201310"
        },
        {
            "S.No.": "472",
            "Area": "Ecotech 1",
            "District": "Gautam Buddh Nagar",
            "Pincode": "201310"
        },
        {
            "S.No.": "473",
            "Area": "Ecotech 2",
            "District": "Gautam Buddh Nagar",
            "Pincode": "201310"
        },
        {
            "S.No.": "474",
            "Area": "Ecotech 3",
            "District": "Gautam Buddh Nagar",
            "Pincode": "201310"
        },
        {
            "S.No.": "475",
            "Area": "Eta 1",
            "District": "Gautam Buddh Nagar",
            "Pincode": "201310"
        },
        {
            "S.No.": "476",
            "Area": "Eta 2",
            "District": "Gautam Buddh Nagar",
            "Pincode": "201310"
        },
        {
            "S.No.": "477",
            "Area": "Gamma 1",
            "District": "Gautam Buddh Nagar",
            "Pincode": "201310"
        },
        {
            "S.No.": "478",
            "Area": "Gamma 2",
            "District": "Gautam Buddh Nagar",
            "Pincode": "201310"
        },
        {
            "S.No.": "479",
            "Area": "Khora Colony",
            "District": "Gautam Buddh Nagar",
            "Pincode": "201310"
        },
        {
            "S.No.": "480",
            "Area": "Knowledge Park 1",
            "District": "Gautam Buddh Nagar",
            "Pincode": "201310"
        },
        {
            "S.No.": "481",
            "Area": "Knowledge Park 2",
            "District": "Gautam Buddh Nagar",
            "Pincode": "201310"
        },
        {
            "S.No.": "482",
            "Area": "Knowledge Park 3",
            "District": "Gautam Buddh Nagar",
            "Pincode": "201310"
        },
        {
            "S.No.": "483",
            "Area": "Knowledge Park 4",
            "District": "Gautam Buddh Nagar",
            "Pincode": "201310"
        },
        {
            "S.No.": "484",
            "Area": "Knowledge Park 5",
            "District": "Gautam Buddh Nagar",
            "Pincode": "201310"
        },
        {
            "S.No.": "485",
            "Area": "MU 1",
            "District": "Gautam Buddh Nagar",
            "Pincode": "201310"
        },
        {
            "S.No.": "486",
            "Area": "MU 2",
            "District": "Gautam Buddh Nagar",
            "Pincode": "201310"
        },
        {
            "S.No.": "487",
            "Area": "Nepz",
            "District": "Gautam Buddh Nagar",
            "Pincode": "201310"
        },
        {
            "S.No.": "488",
            "Area": "Noida Extension",
            "District": "Gautam Buddh Nagar",
            "Pincode": "201310"
        },
        {
            "S.No.": "489",
            "Area": "NTPC Anandam",
            "District": "Gautam Buddh Nagar",
            "Pincode": "201310"
        },
        {
            "S.No.": "490",
            "Area": "Omega 1",
            "District": "Gautam Buddh Nagar",
            "Pincode": "201310"
        },
        {
            "S.No.": "491",
            "Area": "Omega 2",
            "District": "Gautam Buddh Nagar",
            "Pincode": "201310"
        },
        {
            "S.No.": "492",
            "Area": "Omega 3",
            "District": "Gautam Buddh Nagar",
            "Pincode": "201310"
        },
        {
            "S.No.": "493",
            "Area": "Omega 4",
            "District": "Gautam Buddh Nagar",
            "Pincode": "201310"
        },
        {
            "S.No.": "494",
            "Area": "Omicron 1",
            "District": "Gautam Buddh Nagar",
            "Pincode": "201310"
        },
        {
            "S.No.": "495",
            "Area": "Omicron 2",
            "District": "Gautam Buddh Nagar",
            "Pincode": "201310"
        },
        {
            "S.No.": "496",
            "Area": "Omicron 3",
            "District": "Gautam Buddh Nagar",
            "Pincode": "201310"
        },
        {
            "S.No.": "497",
            "Area": "Pi 1",
            "District": "Gautam Buddh Nagar",
            "Pincode": "201310"
        },
        {
            "S.No.": "498",
            "Area": "Pi 2",
            "District": "Gautam Buddh Nagar",
            "Pincode": "201310"
        },
        {
            "S.No.": "499",
            "Area": "Safrabad",
            "District": "Gautam Buddh Nagar",
            "Pincode": "201310"
        },
        {
            "S.No.": "500",
            "Area": "Sector 111",
            "District": "Gautam Buddh Nagar",
            "Pincode": "201310"
        },
        {
            "S.No.": "501",
            "Area": "Sector 113",
            "District": "Gautam Buddh Nagar",
            "Pincode": "201310"
        },
        {
            "S.No.": "502",
            "Area": "Sector 146",
            "District": "Gautam Buddh Nagar",
            "Pincode": "201310"
        },
        {
            "S.No.": "503",
            "Area": "Sector 147",
            "District": "Gautam Buddh Nagar",
            "Pincode": "201310"
        },
        {
            "S.No.": "504",
            "Area": "Sector 148",
            "District": "Gautam Buddh Nagar",
            "Pincode": "201310"
        },
        {
            "S.No.": "505",
            "Area": "Sector 149",
            "District": "Gautam Buddh Nagar",
            "Pincode": "201310"
        },
        {
            "S.No.": "506",
            "Area": "Sector 150",
            "District": "Gautam Buddh Nagar",
            "Pincode": "201310"
        },
        {
            "S.No.": "507",
            "Area": "Sector 151",
            "District": "Gautam Buddh Nagar",
            "Pincode": "201310"
        },
        {
            "S.No.": "508",
            "Area": "Sector 152",
            "District": "Gautam Buddh Nagar",
            "Pincode": "201310"
        },
        {
            "S.No.": "509",
            "Area": "Sector 153",
            "District": "Gautam Buddh Nagar",
            "Pincode": "201310"
        },
        {
            "S.No.": "510",
            "Area": "Sector 154",
            "District": "Gautam Buddh Nagar",
            "Pincode": "201310"
        },
        {
            "S.No.": "511",
            "Area": "Sector 155",
            "District": "Gautam Buddh Nagar",
            "Pincode": "201310"
        },
        {
            "S.No.": "512",
            "Area": "Sector 156",
            "District": "Gautam Buddh Nagar",
            "Pincode": "201310"
        },
        {
            "S.No.": "513",
            "Area": "Sector 157",
            "District": "Gautam Buddh Nagar",
            "Pincode": "201310"
        },
        {
            "S.No.": "514",
            "Area": "Sector 158",
            "District": "Gautam Buddh Nagar",
            "Pincode": "201310"
        },
        {
            "S.No.": "515",
            "Area": "Sector 159",
            "District": "Gautam Buddh Nagar",
            "Pincode": "201310"
        },
        {
            "S.No.": "516",
            "Area": "Sector 160",
            "District": "Gautam Buddh Nagar",
            "Pincode": "201310"
        },
        {
            "S.No.": "517",
            "Area": "Sector 161",
            "District": "Gautam Buddh Nagar",
            "Pincode": "201310"
        },
        {
            "S.No.": "518",
            "Area": "Sector 162",
            "District": "Gautam Buddh Nagar",
            "Pincode": "201310"
        },
        {
            "S.No.": "519",
            "Area": "Sector 163",
            "District": "Gautam Buddh Nagar",
            "Pincode": "201310"
        },
        {
            "S.No.": "520",
            "Area": "Sector 164",
            "District": "Gautam Buddh Nagar",
            "Pincode": "201310"
        },
        {
            "S.No.": "521",
            "Area": "Sector 165",
            "District": "Gautam Buddh Nagar",
            "Pincode": "201310"
        },
        {
            "S.No.": "522",
            "Area": "Sector 166",
            "District": "Gautam Buddh Nagar",
            "Pincode": "201310"
        },
        {
            "S.No.": "523",
            "Area": "Sector 167",
            "District": "Gautam Buddh Nagar",
            "Pincode": "201310"
        },
        {
            "S.No.": "524",
            "Area": "Sector 168",
            "District": "Gautam Buddh Nagar",
            "Pincode": "201310"
        },
        {
            "S.No.": "525",
            "Area": "Sector 31, Greater Noida",
            "District": "Gautam Buddh Nagar",
            "Pincode": "201310"
        },
        {
            "S.No.": "526",
            "Area": "Sector 36, Greater Noida",
            "District": "Gautam Buddh Nagar",
            "Pincode": "201310"
        },
        {
            "S.No.": "527",
            "Area": "Sector 37, Greater Noida",
            "District": "Gautam Buddh Nagar",
            "Pincode": "201310"
        },
        {
            "S.No.": "528",
            "Area": "Sector 73",
            "District": "Gautam Buddh Nagar",
            "Pincode": "201310"
        },
        {
            "S.No.": "529",
            "Area": "Sigma 1",
            "District": "Gautam Buddh Nagar",
            "Pincode": "201310"
        },
        {
            "S.No.": "530",
            "Area": "Sigma 2",
            "District": "Gautam Buddh Nagar",
            "Pincode": "201310"
        },
        {
            "S.No.": "531",
            "Area": "Sigma 3",
            "District": "Gautam Buddh Nagar",
            "Pincode": "201310"
        },
        {
            "S.No.": "532",
            "Area": "Sigma 4",
            "District": "Gautam Buddh Nagar",
            "Pincode": "201310"
        },
        {
            "S.No.": "533",
            "Area": "Surajpur",
            "District": "Gautam Buddh Nagar",
            "Pincode": "201310"
        },
        {
            "S.No.": "534",
            "Area": "Swarn Nagari",
            "District": "Gautam Buddh Nagar",
            "Pincode": "201310"
        },
        {
            "S.No.": "535",
            "Area": "Theta 1",
            "District": "Gautam Buddh Nagar",
            "Pincode": "201310"
        },
        {
            "S.No.": "536",
            "Area": "Theta 2",
            "District": "Gautam Buddh Nagar",
            "Pincode": "201310"
        },
        {
            "S.No.": "537",
            "Area": "Tilapta",
            "District": "Gautam Buddh Nagar",
            "Pincode": "201310"
        },
        {
            "S.No.": "538",
            "Area": "Udyog Vihar",
            "District": "Gautam Buddh Nagar",
            "Pincode": "201310"
        },
        {
            "S.No.": "539",
            "Area": "XU 1",
            "District": "Gautam Buddh Nagar",
            "Pincode": "201310"
        },
        {
            "S.No.": "540",
            "Area": "XU 2",
            "District": "Gautam Buddh Nagar",
            "Pincode": "201310"
        },
        {
            "S.No.": "541",
            "Area": "Zeta 1",
            "District": "Gautam Buddh Nagar",
            "Pincode": "201310"
        },
        {
            "S.No.": "542",
            "Area": "Zeta 2",
            "District": "Gautam Buddh Nagar",
            "Pincode": "201310"
        },
        {
            "S.No.": "543",
            "Area": "Zeta 3",
            "District": "Gautam Buddh Nagar",
            "Pincode": "201310"
        },
        {
            "S.No.": "544",
            "Area": "Container Depot",
            "District": "Gautam Buddh Nagar",
            "Pincode": "201311"
        },
        {
            "S.No.": "545",
            "Area": "Gautam Budh University",
            "District": "Gautam Buddh Nagar",
            "Pincode": "201312"
        },
        {
            "S.No.": "546",
            "Area": "Sector 125",
            "District": "Gautam Buddh Nagar",
            "Pincode": "201313"
        },
        {
            "S.No.": "547",
            "Area": "Sector 126",
            "District": "Gautam Buddh Nagar",
            "Pincode": "201313"
        },
        {
            "S.No.": "548",
            "Area": "Sector 127",
            "District": "Gautam Buddh Nagar",
            "Pincode": "201313"
        },
        {
            "S.No.": "549",
            "Area": "Chhaisa",
            "District": "Gautam Buddh Nagar",
            "Pincode": "201314"
        },
        {
            "S.No.": "550",
            "Area": "Chholas",
            "District": "Gautam Buddh Nagar",
            "Pincode": "201314"
        },
        {
            "S.No.": "551",
            "Area": "Chithera",
            "District": "Gautam Buddh Nagar",
            "Pincode": "201314"
        },
        {
            "S.No.": "552",
            "Area": "Khandera",
            "District": "Gautam Buddh Nagar",
            "Pincode": "201314"
        },
        {
            "S.No.": "553",
            "Area": "Kot",
            "District": "Gautam Buddh Nagar",
            "Pincode": "201314"
        },
        {
            "S.No.": "554",
            "Area": "Luharli",
            "District": "Gautam Buddh Nagar",
            "Pincode": "201314"
        },
        {
            "S.No.": "555",
            "Area": "Sainthli",
            "District": "Gautam Buddh Nagar",
            "Pincode": "201314"
        },
        {
            "S.No.": "556",
            "Area": "Shiv Nadar University",
            "District": "Gautam Buddh Nagar",
            "Pincode": "201314"
        },
        {
            "S.No.": "557",
            "Area": "Dayanatpur",
            "District": "Gautam Buddh Nagar",
            "Pincode": "203135"
        },
        {
            "S.No.": "558",
            "Area": "Faleda",
            "District": "Gautam Buddh Nagar",
            "Pincode": "203135"
        },
        {
            "S.No.": "559",
            "Area": "Jewar",
            "District": "Gautam Buddh Nagar",
            "Pincode": "203135"
        },
        {
            "S.No.": "560",
            "Area": "Kanigarhi",
            "District": "Gautam Buddh Nagar",
            "Pincode": "203135"
        },
        {
            "S.No.": "561",
            "Area": "Kureb",
            "District": "Gautam Buddh Nagar",
            "Pincode": "203135"
        },
        {
            "S.No.": "562",
            "Area": "Mangrouly",
            "District": "Gautam Buddh Nagar",
            "Pincode": "203135"
        },
        {
            "S.No.": "563",
            "Area": "Sabouta Jafrabad",
            "District": "Gautam Buddh Nagar",
            "Pincode": "203135"
        },
        {
            "S.No.": "564",
            "Area": "Bhunna Jattan",
            "District": "Gautam Buddh Nagar",
            "Pincode": "203141"
        },
        {
            "S.No.": "565",
            "Area": "Chhapana",
            "District": "Gautam Buddh Nagar",
            "Pincode": "203141"
        },
        {
            "S.No.": "566",
            "Area": "Chingrawly",
            "District": "Gautam Buddh Nagar",
            "Pincode": "203141"
        },
        {
            "S.No.": "567",
            "Area": "Gotheny",
            "District": "Gautam Buddh Nagar",
            "Pincode": "203141"
        },
        {
            "S.No.": "568",
            "Area": "Hasanpur",
            "District": "Gautam Buddh Nagar",
            "Pincode": "203141"
        },
        {
            "S.No.": "569",
            "Area": "Jahangirpur",
            "District": "Gautam Buddh Nagar",
            "Pincode": "203141"
        },
        {
            "S.No.": "570",
            "Area": "Jawan",
            "District": "Gautam Buddh Nagar",
            "Pincode": "203141"
        },
        {
            "S.No.": "571",
            "Area": "Lodana",
            "District": "Gautam Buddh Nagar",
            "Pincode": "203141"
        },
        {
            "S.No.": "572",
            "Area": "Mansoor Pur Hasanpur",
            "District": "Gautam Buddh Nagar",
            "Pincode": "203141"
        },
        {
            "S.No.": "573",
            "Area": "Narmohamadpur",
            "District": "Gautam Buddh Nagar",
            "Pincode": "203141"
        },
        {
            "S.No.": "574",
            "Area": "Bankapur",
            "District": "Gautam Buddh Nagar",
            "Pincode": "203155"
        },
        {
            "S.No.": "575",
            "Area": "Chanchaly",
            "District": "Gautam Buddh Nagar",
            "Pincode": "203155"
        },
        {
            "S.No.": "576",
            "Area": "Kishore Pur",
            "District": "Gautam Buddh Nagar",
            "Pincode": "203155"
        },
        {
            "S.No.": "577",
            "Area": "Manchad",
            "District": "Gautam Buddh Nagar",
            "Pincode": "203155"
        },
        {
            "S.No.": "578",
            "Area": "Neemka",
            "District": "Gautam Buddh Nagar",
            "Pincode": "203155"
        },
        {
            "S.No.": "579",
            "Area": "Ranhera",
            "District": "Gautam Buddh Nagar",
            "Pincode": "203155"
        },
        {
            "S.No.": "580",
            "Area": "Thora",
            "District": "Gautam Buddh Nagar",
            "Pincode": "203155"
        },
        {
            "S.No.": "581",
            "Area": "Dhanouri Kalan",
            "District": "Gautam Buddh Nagar",
            "Pincode": "203201"
        },
        {
            "S.No.": "582",
            "Area": "Nawada",
            "District": "Gautam Buddh Nagar",
            "Pincode": "203201"
        },
        {
            "S.No.": "583",
            "Area": "Parsol",
            "District": "Gautam Buddh Nagar",
            "Pincode": "203201"
        },
        {
            "S.No.": "584",
            "Area": "Astauly",
            "District": "Gautam Buddh Nagar",
            "Pincode": "203202"
        },
        {
            "S.No.": "585",
            "Area": "Baroda",
            "District": "Gautam Buddh Nagar",
            "Pincode": "203202"
        },
        {
            "S.No.": "586",
            "Area": "Chiti",
            "District": "Gautam Buddh Nagar",
            "Pincode": "203202"
        },
        {
            "S.No.": "587",
            "Area": "Deota",
            "District": "Gautam Buddh Nagar",
            "Pincode": "203202"
        },
        {
            "S.No.": "588",
            "Area": "Rashol Rithaury",
            "District": "Gautam Buddh Nagar",
            "Pincode": "203202"
        },
        {
            "S.No.": "589",
            "Area": "Salempur Gujar",
            "District": "Gautam Buddh Nagar",
            "Pincode": "203202"
        },
        {
            "S.No.": "590",
            "Area": "Wair",
            "District": "Gautam Buddh Nagar",
            "Pincode": "203202"
        },
        {
            "S.No.": "591",
            "Area": "Banchawaly",
            "District": "Gautam Buddh Nagar",
            "Pincode": "203203"
        },
        {
            "S.No.": "592",
            "Area": "Bichat Sujanpur",
            "District": "Gautam Buddh Nagar",
            "Pincode": "203203"
        },
        {
            "S.No.": "593",
            "Area": "Biroundi Tajpur",
            "District": "Gautam Buddh Nagar",
            "Pincode": "203203"
        },
        {
            "S.No.": "594",
            "Area": "Chol R.S.",
            "District": "Gautam Buddh Nagar",
            "Pincode": "203203"
        },
        {
            "S.No.": "595",
            "Area": "Jhajhar",
            "District": "Gautam Buddh Nagar",
            "Pincode": "203203"
        },
        {
            "S.No.": "596",
            "Area": "Kakore",
            "District": "Gautam Buddh Nagar",
            "Pincode": "203203"
        },
        {
            "S.No.": "597",
            "Area": "Khabra Khanpur",
            "District": "Gautam Buddh Nagar",
            "Pincode": "203203"
        },
        {
            "S.No.": "598",
            "Area": "Mahamdpur Jadon",
            "District": "Gautam Buddh Nagar",
            "Pincode": "203203"
        },
        {
            "S.No.": "599",
            "Area": "Salempur Jat",
            "District": "Gautam Buddh Nagar",
            "Pincode": "203203"
        },
        {
            "S.No.": "600",
            "Area": "Sunpera",
            "District": "Gautam Buddh Nagar",
            "Pincode": "203203"
        },
        {
            "S.No.": "601",
            "Area": "Wailana",
            "District": "Gautam Buddh Nagar",
            "Pincode": "203203"
        },
        {
            "S.No.": "602",
            "Area": "Achheja",
            "District": "Gautam Buddh Nagar",
            "Pincode": "203207"
        },
        {
            "S.No.": "603",
            "Area": "Bambawar",
            "District": "Gautam Buddh Nagar",
            "Pincode": "203207"
        },
        {
            "S.No.": "604",
            "Area": "Behhrampur",
            "District": "Gautam Buddh Nagar",
            "Pincode": "203207"
        },
        {
            "S.No.": "605",
            "Area": "Dadri",
            "District": "Gautam Buddh Nagar",
            "Pincode": "203207"
        },
        {
            "S.No.": "606",
            "Area": "Dhoomedso",
            "District": "Gautam Buddh Nagar",
            "Pincode": "203207"
        },
        {
            "S.No.": "607",
            "Area": "Dujana",
            "District": "Gautam Buddh Nagar",
            "Pincode": "203207"
        },
        {
            "S.No.": "608",
            "Area": "Jarcha",
            "District": "Gautam Buddh Nagar",
            "Pincode": "203207"
        },
        {
            "S.No.": "609",
            "Area": "Kachera Versabad",
            "District": "Gautam Buddh Nagar",
            "Pincode": "203207"
        },
        {
            "S.No.": "610",
            "Area": "Kalaunda",
            "District": "Gautam Buddh Nagar",
            "Pincode": "203207"
        },
        {
            "S.No.": "611",
            "Area": "Khatana",
            "District": "Gautam Buddh Nagar",
            "Pincode": "203207"
        },
        {
            "S.No.": "612",
            "Area": "Kheri Bhanauta",
            "District": "Gautam Buddh Nagar",
            "Pincode": "203207"
        },
        {
            "S.No.": "613",
            "Area": "Pali",
            "District": "Gautam Buddh Nagar",
            "Pincode": "203207"
        },
        {
            "S.No.": "614",
            "Area": "Vedpura",
            "District": "Gautam Buddh Nagar",
            "Pincode": "203207"
        },
        {
            "S.No.": "615",
            "Area": "Bhaipur Brahmanan",
            "District": "Gautam Buddh Nagar",
            "Pincode": "203209"
        },
        {
            "S.No.": "616",
            "Area": "Karauli Banger",
            "District": "Gautam Buddh Nagar",
            "Pincode": "203209"
        },
        {
            "S.No.": "617",
            "Area": "Rabupura",
            "District": "Gautam Buddh Nagar",
            "Pincode": "203209"
        },
        {
            "S.No.": "618",
            "Area": "Ronija",
            "District": "Gautam Buddh Nagar",
            "Pincode": "203209"
        },
        {
            "S.No.": "619",
            "Area": "Tirthaly",
            "District": "Gautam Buddh Nagar",
            "Pincode": "203209"
        },
        {
            "S.No.": "620",
            "Area": "Salarpur Kalan",
            "District": "Gautam Buddh Nagar",
            "Pincode": "201008"
        },
        {
            "S.No.": "621",
            "Area": "Vidyut Nagar",
            "District": "Gautam Buddh Nagar",
            "Pincode": "201008"
        }
    ],
    "Ghaziabad": [
        {
            "S.No.": "1",
            "Area": "Ashok Nagar",
            "District": "Ghaziabad",
            "Pincode": "201001"
        },
        {
            "S.No.": "2",
            "Area": "Nehru Nagar",
            "District": "Ghaziabad",
            "Pincode": "201001"
        },
        {
            "S.No.": "3",
            "Area": "Ramte Ram Road",
            "District": "Ghaziabad",
            "Pincode": "201001"
        },
        {
            "S.No.": "4",
            "Area": "Ghaziabad",
            "District": "Ghaziabad",
            "Pincode": "201001"
        },
        {
            "S.No.": "5",
            "Area": "Nehru Nagar",
            "District": "Ghaziabad",
            "Pincode": "201001"
        },
        {
            "S.No.": "6",
            "Area": "Ramte Ram Road",
            "District": "Ghaziabad",
            "Pincode": "201001"
        },
        {
            "S.No.": "7",
            "Area": "Ingram Institute",
            "District": "Ghaziabad",
            "Pincode": "201002"
        },
        {
            "S.No.": "8",
            "Area": "Kamla Nehru Nagar",
            "District": "Ghaziabad",
            "Pincode": "201002"
        },
        {
            "S.No.": "9",
            "Area": "Kavi Nagar",
            "District": "Ghaziabad",
            "Pincode": "201002"
        },
        {
            "S.No.": "10",
            "Area": "New Raj Nagar",
            "District": "Ghaziabad",
            "Pincode": "201002"
        },
        {
            "S.No.": "11",
            "Area": "Old Raj Nagar",
            "District": "Ghaziabad",
            "Pincode": "201002"
        },
        {
            "S.No.": "12",
            "Area": "Police Line Harsaon",
            "District": "Ghaziabad",
            "Pincode": "201002"
        },
        {
            "S.No.": "13",
            "Area": "Raispur",
            "District": "Ghaziabad",
            "Pincode": "201002"
        },
        {
            "S.No.": "14",
            "Area": "Rajapur",
            "District": "Ghaziabad",
            "Pincode": "201002"
        },
        {
            "S.No.": "15",
            "Area": "RAKNPA",
            "District": "Ghaziabad",
            "Pincode": "201002"
        },
        {
            "S.No.": "16",
            "Area": "Sadarpur",
            "District": "Ghaziabad",
            "Pincode": "201002"
        },
        {
            "S.No.": "17",
            "Area": "Shahpur Bamheta",
            "District": "Ghaziabad",
            "Pincode": "201002"
        },
        {
            "S.No.": "18",
            "Area": "Shastri Nagar",
            "District": "Ghaziabad",
            "Pincode": "201002"
        },
        {
            "S.No.": "19",
            "Area": "Vivekanand Nagar",
            "District": "Ghaziabad",
            "Pincode": "201002"
        },
        {
            "S.No.": "20",
            "Area": "Ator Nagla",
            "District": "Ghaziabad",
            "Pincode": "201003"
        },
        {
            "S.No.": "21",
            "Area": "Aurangabad Ristal",
            "District": "Ghaziabad",
            "Pincode": "201003"
        },
        {
            "S.No.": "22",
            "Area": "Bhup Kheri",
            "District": "Ghaziabad",
            "Pincode": "201003"
        },
        {
            "S.No.": "23",
            "Area": "Farrukh Nagar",
            "District": "Ghaziabad",
            "Pincode": "201003"
        },
        {
            "S.No.": "24",
            "Area": "Meerut Road",
            "District": "Ghaziabad",
            "Pincode": "201003"
        },
        {
            "S.No.": "25",
            "Area": "Morta",
            "District": "Ghaziabad",
            "Pincode": "201003"
        },
        {
            "S.No.": "26",
            "Area": "Nistoli",
            "District": "Ghaziabad",
            "Pincode": "201003"
        },
        {
            "S.No.": "27",
            "Area": "Hindon Air Field",
            "District": "Ghaziabad",
            "Pincode": "201004"
        },
        {
            "S.No.": "28",
            "Area": "Bhopura",
            "District": "Ghaziabad",
            "Pincode": "201005"
        },
        {
            "S.No.": "29",
            "Area": "Pasonda",
            "District": "Ghaziabad",
            "Pincode": "201005"
        },
        {
            "S.No.": "30",
            "Area": "Sahibabad",
            "District": "Ghaziabad",
            "Pincode": "201005"
        },
        {
            "S.No.": "31",
            "Area": "Chikamberpur",
            "District": "Ghaziabad",
            "Pincode": "201006"
        },
        {
            "S.No.": "32",
            "Area": "Mohan Nagar",
            "District": "Ghaziabad",
            "Pincode": "201007"
        },
        {
            "S.No.": "33",
            "Area": "Arya Nagar",
            "District": "Ghaziabad",
            "Pincode": "201009"
        },
        {
            "S.No.": "34",
            "Area": "B.B.Nagar",
            "District": "Ghaziabad",
            "Pincode": "201009"
        },
        {
            "S.No.": "35",
            "Area": "Bhangel",
            "District": "Ghaziabad",
            "Pincode": "201009"
        },
        {
            "S.No.": "36",
            "Area": "Chhaprola",
            "District": "Ghaziabad",
            "Pincode": "201009"
        },
        {
            "S.No.": "37",
            "Area": "Crossing Republic",
            "District": "Ghaziabad",
            "Pincode": "201009"
        },
        {
            "S.No.": "38",
            "Area": "Dasna Gate",
            "District": "Ghaziabad",
            "Pincode": "201009"
        },
        {
            "S.No.": "39",
            "Area": "Dundahera",
            "District": "Ghaziabad",
            "Pincode": "201009"
        },
        {
            "S.No.": "40",
            "Area": "Eco Village 2",
            "District": "Ghaziabad",
            "Pincode": "201009"
        },
        {
            "S.No.": "41",
            "Area": "Eco Village 3",
            "District": "Ghaziabad",
            "Pincode": "201009"
        },
        {
            "S.No.": "42",
            "Area": "Gaur City",
            "District": "Ghaziabad",
            "Pincode": "201009"
        },
        {
            "S.No.": "43",
            "Area": "Gaur City 1",
            "District": "Ghaziabad",
            "Pincode": "201009"
        },
        {
            "S.No.": "44",
            "Area": "Gaur City 2",
            "District": "Ghaziabad",
            "Pincode": "201009"
        },
        {
            "S.No.": "45",
            "Area": "Ghaziabad City",
            "District": "Ghaziabad",
            "Pincode": "201009"
        },
        {
            "S.No.": "46",
            "Area": "Nasratpura ED",
            "District": "Ghaziabad",
            "Pincode": "201009"
        },
        {
            "S.No.": "47",
            "Area": "Roza Yakubpur",
            "District": "Ghaziabad",
            "Pincode": "201009"
        },
        {
            "S.No.": "48",
            "Area": "Sector 16",
            "District": "Ghaziabad",
            "Pincode": "201009"
        },
        {
            "S.No.": "49",
            "Area": "Sector 16B",
            "District": "Ghaziabad",
            "Pincode": "201009"
        },
        {
            "S.No.": "50",
            "Area": "Sector 16B",
            "District": "Ghaziabad",
            "Pincode": "201009"
        },
        {
            "S.No.": "51",
            "Area": "Sector 4, Greater Noida",
            "District": "Ghaziabad",
            "Pincode": "201009"
        },
        {
            "S.No.": "52",
            "Area": "Techzone 4",
            "District": "Ghaziabad",
            "Pincode": "201009"
        },
        {
            "S.No.": "53",
            "Area": "Vijai Nagar",
            "District": "Ghaziabad",
            "Pincode": "201009"
        },
        {
            "S.No.": "54",
            "Area": "Chhaprola",
            "District": "Ghaziabad",
            "Pincode": "201009"
        },
        {
            "S.No.": "55",
            "Area": "Chhipyana",
            "District": "Ghaziabad",
            "Pincode": "201009"
        },
        {
            "S.No.": "56",
            "Area": "Dasna Gate Ed",
            "District": "Ghaziabad",
            "Pincode": "201009"
        },
        {
            "S.No.": "57",
            "Area": "Dundahera",
            "District": "Ghaziabad",
            "Pincode": "201009"
        },
        {
            "S.No.": "58",
            "Area": "Ghaziabad City",
            "District": "Ghaziabad",
            "Pincode": "201009"
        },
        {
            "S.No.": "59",
            "Area": "Kaila",
            "District": "Ghaziabad",
            "Pincode": "201009"
        },
        {
            "S.No.": "60",
            "Area": "Model Town",
            "District": "Ghaziabad",
            "Pincode": "201009"
        },
        {
            "S.No.": "61",
            "Area": "Nasratpura ED",
            "District": "Ghaziabad",
            "Pincode": "201009"
        },
        {
            "S.No.": "62",
            "Area": "Roza Yakubpur",
            "District": "Ghaziabad",
            "Pincode": "201009"
        },
        {
            "S.No.": "63",
            "Area": "Vijay Nagar",
            "District": "Ghaziabad",
            "Pincode": "201009"
        },
        {
            "S.No.": "64",
            "Area": "Bharat Nagar",
            "District": "Ghaziabad",
            "Pincode": "201010"
        },
        {
            "S.No.": "65",
            "Area": "Abhay Khand",
            "District": "Ghaziabad",
            "Pincode": "201010"
        },
        {
            "S.No.": "66",
            "Area": "Hasanpur",
            "District": "Ghaziabad",
            "Pincode": "201010"
        },
        {
            "S.No.": "67",
            "Area": "Indirapuram",
            "District": "Ghaziabad",
            "Pincode": "201010"
        },
        {
            "S.No.": "68",
            "Area": "Sahibabad",
            "District": "Ghaziabad",
            "Pincode": "201010"
        },
        {
            "S.No.": "69",
            "Area": "Vaishali",
            "District": "Ghaziabad",
            "Pincode": "201010"
        },
        {
            "S.No.": "70",
            "Area": "Kaushambi",
            "District": "Ghaziabad",
            "Pincode": "201010"
        },
        {
            "S.No.": "71",
            "Area": "Hasanpur Bhowapur",
            "District": "Ghaziabad",
            "Pincode": "201010"
        },
        {
            "S.No.": "72",
            "Area": "I.E.Sahibabad",
            "District": "Ghaziabad",
            "Pincode": "201010"
        },
        {
            "S.No.": "73",
            "Area": "Chander Nagar",
            "District": "Ghaziabad",
            "Pincode": "201011"
        },
        {
            "S.No.": "74",
            "Area": "Kaushambi",
            "District": "Ghaziabad",
            "Pincode": "201012"
        },
        {
            "S.No.": "75",
            "Area": "Vasundhra",
            "District": "Ghaziabad",
            "Pincode": "201012"
        },
        {
            "S.No.": "76",
            "Area": "Govindpuram",
            "District": "Ghaziabad",
            "Pincode": "201013"
        },
        {
            "S.No.": "77",
            "Area": "Makanpur",
            "District": "Ghaziabad",
            "Pincode": "201014"
        },
        {
            "S.No.": "78",
            "Area": "Shipra Sun City",
            "District": "Ghaziabad",
            "Pincode": "201014"
        },
        {
            "S.No.": "79",
            "Area": "Ahinsa Khand 1",
            "District": "Ghaziabad",
            "Pincode": "201014"
        },
        {
            "S.No.": "80",
            "Area": "Ahinsa Khand 2",
            "District": "Ghaziabad",
            "Pincode": "201014"
        },
        {
            "S.No.": "81",
            "Area": "Gyan Khand",
            "District": "Ghaziabad",
            "Pincode": "201014"
        },
        {
            "S.No.": "82",
            "Area": "Indirapuram",
            "District": "Ghaziabad",
            "Pincode": "201014"
        },
        {
            "S.No.": "83",
            "Area": "Kala Patthar",
            "District": "Ghaziabad",
            "Pincode": "201014"
        },
        {
            "S.No.": "84",
            "Area": "Niti Khand",
            "District": "Ghaziabad",
            "Pincode": "201014"
        },
        {
            "S.No.": "85",
            "Area": "Nyay Khand",
            "District": "Ghaziabad",
            "Pincode": "201014"
        },
        {
            "S.No.": "86",
            "Area": "Shakti Khand",
            "District": "Ghaziabad",
            "Pincode": "201014"
        },
        {
            "S.No.": "87",
            "Area": "Vaibhav Khand",
            "District": "Ghaziabad",
            "Pincode": "201014"
        },
        {
            "S.No.": "88",
            "Area": "Adhyatmic Nagar",
            "District": "Ghaziabad",
            "Pincode": "201015"
        },
        {
            "S.No.": "89",
            "Area": "Dasna",
            "District": "Ghaziabad",
            "Pincode": "201015"
        },
        {
            "S.No.": "90",
            "Area": "Dasna R.S.",
            "District": "Ghaziabad",
            "Pincode": "201015"
        },
        {
            "S.No.": "91",
            "Area": "Galand",
            "District": "Ghaziabad",
            "Pincode": "201015"
        },
        {
            "S.No.": "92",
            "Area": "Hassanpur",
            "District": "Ghaziabad",
            "Pincode": "201015"
        },
        {
            "S.No.": "93",
            "Area": "Hindan Nagar",
            "District": "Ghaziabad",
            "Pincode": "201015"
        },
        {
            "S.No.": "94",
            "Area": "Jindal Nagar",
            "District": "Ghaziabad",
            "Pincode": "201015"
        },
        {
            "S.No.": "95",
            "Area": "Kushlia",
            "District": "Ghaziabad",
            "Pincode": "201015"
        },
        {
            "S.No.": "96",
            "Area": "Nahal",
            "District": "Ghaziabad",
            "Pincode": "201015"
        },
        {
            "S.No.": "97",
            "Area": "Udai Rampur Nagla",
            "District": "Ghaziabad",
            "Pincode": "201015"
        },
        {
            "S.No.": "98",
            "Area": "Crossing Republik",
            "District": "Ghaziabad",
            "Pincode": "201016"
        },
        {
            "S.No.": "99",
            "Area": "Raj Nagar Extension",
            "District": "Ghaziabad",
            "Pincode": "201017"
        },
        {
            "S.No.": "100",
            "Area": "Vaishali",
            "District": "Ghaziabad",
            "Pincode": "201019"
        },
        {
            "S.No.": "101",
            "Area": "Badshahnpur Siroli",
            "District": "Ghaziabad",
            "Pincode": "201102"
        },
        {
            "S.No.": "102",
            "Area": "Behta Hazipur",
            "District": "Ghaziabad",
            "Pincode": "201102"
        },
        {
            "S.No.": "103",
            "Area": "Chirori",
            "District": "Ghaziabad",
            "Pincode": "201102"
        },
        {
            "S.No.": "104",
            "Area": "Jaoli",
            "District": "Ghaziabad",
            "Pincode": "201102"
        },
        {
            "S.No.": "105",
            "Area": "Loni",
            "District": "Ghaziabad",
            "Pincode": "201102"
        },
        {
            "S.No.": "106",
            "Area": "Mandola",
            "District": "Ghaziabad",
            "Pincode": "201102"
        },
        {
            "S.No.": "107",
            "Area": "Teela Sahbazpur",
            "District": "Ghaziabad",
            "Pincode": "201102"
        },
        {
            "S.No.": "108",
            "Area": "Tronica City",
            "District": "Ghaziabad",
            "Pincode": "201103"
        },
        {
            "S.No.": "109",
            "Area": "Churiyala",
            "District": "Ghaziabad",
            "Pincode": "201201"
        },
        {
            "S.No.": "110",
            "Area": "Govindpuri",
            "District": "Ghaziabad",
            "Pincode": "201201"
        },
        {
            "S.No.": "111",
            "Area": "Harmukhpuri",
            "District": "Ghaziabad",
            "Pincode": "201201"
        },
        {
            "S.No.": "112",
            "Area": "Rori",
            "District": "Ghaziabad",
            "Pincode": "201201"
        },
        {
            "S.No.": "113",
            "Area": "Saidpur",
            "District": "Ghaziabad",
            "Pincode": "201201"
        },
        {
            "S.No.": "114",
            "Area": "Sara",
            "District": "Ghaziabad",
            "Pincode": "201201"
        },
        {
            "S.No.": "115",
            "Area": "Talhata",
            "District": "Ghaziabad",
            "Pincode": "201201"
        },
        {
            "S.No.": "116",
            "Area": "Begmabad",
            "District": "Ghaziabad",
            "Pincode": "201204"
        },
        {
            "S.No.": "117",
            "Area": "Gyaspur",
            "District": "Ghaziabad",
            "Pincode": "201204"
        },
        {
            "S.No.": "118",
            "Area": "Khanjarpur",
            "District": "Ghaziabad",
            "Pincode": "201204"
        },
        {
            "S.No.": "119",
            "Area": "Khindora",
            "District": "Ghaziabad",
            "Pincode": "201204"
        },
        {
            "S.No.": "120",
            "Area": "Modi Nagar",
            "District": "Ghaziabad",
            "Pincode": "201204"
        },
        {
            "S.No.": "121",
            "Area": "Nagla Akhu",
            "District": "Ghaziabad",
            "Pincode": "201204"
        },
        {
            "S.No.": "122",
            "Area": "Niwari",
            "District": "Ghaziabad",
            "Pincode": "201204"
        },
        {
            "S.No.": "123",
            "Area": "Painga",
            "District": "Ghaziabad",
            "Pincode": "201204"
        },
        {
            "S.No.": "124",
            "Area": "Patla",
            "District": "Ghaziabad",
            "Pincode": "201204"
        },
        {
            "S.No.": "125",
            "Area": "Saunda",
            "District": "Ghaziabad",
            "Pincode": "201204"
        },
        {
            "S.No.": "126",
            "Area": "Shahjahanpur",
            "District": "Ghaziabad",
            "Pincode": "201204"
        },
        {
            "S.No.": "127",
            "Area": "Sikri Kalan",
            "District": "Ghaziabad",
            "Pincode": "201204"
        },
        {
            "S.No.": "128",
            "Area": "Sikri Khurd",
            "District": "Ghaziabad",
            "Pincode": "201204"
        },
        {
            "S.No.": "129",
            "Area": "Tibra",
            "District": "Ghaziabad",
            "Pincode": "201204"
        },
        {
            "S.No.": "130",
            "Area": "Abupur",
            "District": "Ghaziabad",
            "Pincode": "201206"
        },
        {
            "S.No.": "131",
            "Area": "Basantpur Sainthli",
            "District": "Ghaziabad",
            "Pincode": "201206"
        },
        {
            "S.No.": "132",
            "Area": "Bhadoli",
            "District": "Ghaziabad",
            "Pincode": "201206"
        },
        {
            "S.No.": "133",
            "Area": "Bhikanpur",
            "District": "Ghaziabad",
            "Pincode": "201206"
        },
        {
            "S.No.": "134",
            "Area": "Didoli",
            "District": "Ghaziabad",
            "Pincode": "201206"
        },
        {
            "S.No.": "135",
            "Area": "Dosa Banjarpur",
            "District": "Ghaziabad",
            "Pincode": "201206"
        },
        {
            "S.No.": "136",
            "Area": "Duhai",
            "District": "Ghaziabad",
            "Pincode": "201206"
        },
        {
            "S.No.": "137",
            "Area": "Jalalabad",
            "District": "Ghaziabad",
            "Pincode": "201206"
        },
        {
            "S.No.": "138",
            "Area": "Jalalpur Dhindar",
            "District": "Ghaziabad",
            "Pincode": "201206"
        },
        {
            "S.No.": "139",
            "Area": "Kakra",
            "District": "Ghaziabad",
            "Pincode": "201206"
        },
        {
            "S.No.": "140",
            "Area": "Kanauja",
            "District": "Ghaziabad",
            "Pincode": "201206"
        },
        {
            "S.No.": "141",
            "Area": "Khimawati",
            "District": "Ghaziabad",
            "Pincode": "201206"
        },
        {
            "S.No.": "142",
            "Area": "Kumhera",
            "District": "Ghaziabad",
            "Pincode": "201206"
        },
        {
            "S.No.": "143",
            "Area": "Murad Nagar Bazar",
            "District": "Ghaziabad",
            "Pincode": "201206"
        },
        {
            "S.No.": "144",
            "Area": "Murad Nagar",
            "District": "Ghaziabad",
            "Pincode": "201206"
        },
        {
            "S.No.": "145",
            "Area": "Murad Nagar Town",
            "District": "Ghaziabad",
            "Pincode": "201206"
        },
        {
            "S.No.": "146",
            "Area": "Nekpur",
            "District": "Ghaziabad",
            "Pincode": "201206"
        },
        {
            "S.No.": "147",
            "Area": "Noorpur",
            "District": "Ghaziabad",
            "Pincode": "201206"
        },
        {
            "S.No.": "148",
            "Area": "Raoli Kalan",
            "District": "Ghaziabad",
            "Pincode": "201206"
        },
        {
            "S.No.": "149",
            "Area": "Shahpur",
            "District": "Ghaziabad",
            "Pincode": "201206"
        },
        {
            "S.No.": "150",
            "Area": "Sultanpur",
            "District": "Ghaziabad",
            "Pincode": "201206"
        },
        {
            "S.No.": "151",
            "Area": "Surana",
            "District": "Ghaziabad",
            "Pincode": "201206"
        },
        {
            "S.No.": "152",
            "Area": "Noida Sector 27",
            "District": "Ghaziabad",
            "Pincode": "201301"
        },
        {
            "S.No.": "153",
            "Area": "Noida Sector 41",
            "District": "Ghaziabad",
            "Pincode": "201303"
        },
        {
            "S.No.": "154",
            "Area": "Achheja B.O",
            "District": "Ghaziabad",
            "Pincode": "245101"
        },
        {
            "S.No.": "155",
            "Area": "Asaura B.O",
            "District": "Ghaziabad",
            "Pincode": "245101"
        },
        {
            "S.No.": "156",
            "Area": "Bajhera Kalan B.O",
            "District": "Ghaziabad",
            "Pincode": "245101"
        },
        {
            "S.No.": "157",
            "Area": "Bhatiyana B.O",
            "District": "Ghaziabad",
            "Pincode": "245101"
        },
        {
            "S.No.": "158",
            "Area": "Chamri B.O",
            "District": "Ghaziabad",
            "Pincode": "245101"
        },
        {
            "S.No.": "159",
            "Area": "Chhajupur B.O",
            "District": "Ghaziabad",
            "Pincode": "245101"
        },
        {
            "S.No.": "160",
            "Area": "Dadri B.O",
            "District": "Ghaziabad",
            "Pincode": "245101"
        },
        {
            "S.No.": "161",
            "Area": "Dahana B.O",
            "District": "Ghaziabad",
            "Pincode": "245101"
        },
        {
            "S.No.": "162",
            "Area": "Dhanaura B.O",
            "District": "Ghaziabad",
            "Pincode": "245101"
        },
        {
            "S.No.": "163",
            "Area": "Ghungrala B.O",
            "District": "Ghaziabad",
            "Pincode": "245101"
        },
        {
            "S.No.": "164",
            "Area": "Girdharpur Tmrel B.O",
            "District": "Ghaziabad",
            "Pincode": "245101"
        },
        {
            "S.No.": "165",
            "Area": "Gohra Alamgirpur B.O",
            "District": "Ghaziabad",
            "Pincode": "245101"
        },
        {
            "S.No.": "166",
            "Area": "Gyan Lok",
            "District": "Ghaziabad",
            "Pincode": "245101"
        },
        {
            "S.No.": "167",
            "Area": "Hapur",
            "District": "Ghaziabad",
            "Pincode": "245101"
        },
        {
            "S.No.": "168",
            "Area": "Hapur Mandi",
            "District": "Ghaziabad",
            "Pincode": "245101"
        },
        {
            "S.No.": "169",
            "Area": "Harsinghpur B.O",
            "District": "Ghaziabad",
            "Pincode": "245101"
        },
        {
            "S.No.": "170",
            "Area": "Iklahdi B.O",
            "District": "Ghaziabad",
            "Pincode": "245101"
        },
        {
            "S.No.": "171",
            "Area": "Kathikhera B.O",
            "District": "Ghaziabad",
            "Pincode": "245101"
        },
        {
            "S.No.": "172",
            "Area": "Kharkhari B.O",
            "District": "Ghaziabad",
            "Pincode": "245101"
        },
        {
            "S.No.": "173",
            "Area": "Kishan Ganj",
            "District": "Ghaziabad",
            "Pincode": "245101"
        },
        {
            "S.No.": "174",
            "Area": "Madarsa Sadat B.O",
            "District": "Ghaziabad",
            "Pincode": "245101"
        },
        {
            "S.No.": "175",
            "Area": "Mahmoodpur B.O",
            "District": "Ghaziabad",
            "Pincode": "245101"
        },
        {
            "S.No.": "176",
            "Area": "Mathurawali B.O",
            "District": "Ghaziabad",
            "Pincode": "245101"
        },
        {
            "S.No.": "177",
            "Area": "Nan B.O",
            "District": "Ghaziabad",
            "Pincode": "245101"
        },
        {
            "S.No.": "178",
            "Area": "Phagota B.O",
            "District": "Ghaziabad",
            "Pincode": "245101"
        },
        {
            "S.No.": "179",
            "Area": "Raghunathpur B.O",
            "District": "Ghaziabad",
            "Pincode": "245101"
        },
        {
            "S.No.": "180",
            "Area": "Rampur Puth B.O",
            "District": "Ghaziabad",
            "Pincode": "245101"
        },
        {
            "S.No.": "181",
            "Area": "Rly Road Hapur",
            "District": "Ghaziabad",
            "Pincode": "245101"
        },
        {
            "S.No.": "182",
            "Area": "Sapnawat B.O",
            "District": "Ghaziabad",
            "Pincode": "245101"
        },
        {
            "S.No.": "183",
            "Area": "Shah Mohiuddinpur B.O",
            "District": "Ghaziabad",
            "Pincode": "245101"
        },
        {
            "S.No.": "184",
            "Area": "Ubarpur B.O",
            "District": "Ghaziabad",
            "Pincode": "245101"
        },
        {
            "S.No.": "185",
            "Area": "Alipur",
            "District": "Ghaziabad",
            "Pincode": "245201"
        },
        {
            "S.No.": "186",
            "Area": "Babugarh",
            "District": "Ghaziabad",
            "Pincode": "245201"
        },
        {
            "S.No.": "187",
            "Area": "Bachhlota",
            "District": "Ghaziabad",
            "Pincode": "245201"
        },
        {
            "S.No.": "188",
            "Area": "Bankhanda",
            "District": "Ghaziabad",
            "Pincode": "245201"
        },
        {
            "S.No.": "189",
            "Area": "Hoshdarpur Garhi",
            "District": "Ghaziabad",
            "Pincode": "245201"
        },
        {
            "S.No.": "190",
            "Area": "Kanya Kalyanpur",
            "District": "Ghaziabad",
            "Pincode": "245201"
        },
        {
            "S.No.": "191",
            "Area": "Kuchesar Chopla",
            "District": "Ghaziabad",
            "Pincode": "245201"
        },
        {
            "S.No.": "192",
            "Area": "Matnaurs",
            "District": "Ghaziabad",
            "Pincode": "245201"
        },
        {
            "S.No.": "193",
            "Area": "Nali Husainpur",
            "District": "Ghaziabad",
            "Pincode": "245201"
        },
        {
            "S.No.": "194",
            "Area": "Rasulpur",
            "District": "Ghaziabad",
            "Pincode": "245201"
        },
        {
            "S.No.": "195",
            "Area": "Sakhpur",
            "District": "Ghaziabad",
            "Pincode": "245201"
        },
        {
            "S.No.": "196",
            "Area": "Sikandarpur Kakori",
            "District": "Ghaziabad",
            "Pincode": "245201"
        },
        {
            "S.No.": "197",
            "Area": "Tatarpur",
            "District": "Ghaziabad",
            "Pincode": "245201"
        },
        {
            "S.No.": "198",
            "Area": "Upera",
            "District": "Ghaziabad",
            "Pincode": "245201"
        },
        {
            "S.No.": "199",
            "Area": "Athsaini",
            "District": "Ghaziabad",
            "Pincode": "245205"
        },
        {
            "S.No.": "200",
            "Area": "Bagarpur",
            "District": "Ghaziabad",
            "Pincode": "245205"
        },
        {
            "S.No.": "201",
            "Area": "Bhaina Dholpur",
            "District": "Ghaziabad",
            "Pincode": "245205"
        },
        {
            "S.No.": "202",
            "Area": "Bihuni",
            "District": "Ghaziabad",
            "Pincode": "245205"
        },
        {
            "S.No.": "203",
            "Area": "Biraj Ghat",
            "District": "Ghaziabad",
            "Pincode": "245205"
        },
        {
            "S.No.": "204",
            "Area": "Dehra Rampur",
            "District": "Ghaziabad",
            "Pincode": "245205"
        },
        {
            "S.No.": "205",
            "Area": "Dotai",
            "District": "Ghaziabad",
            "Pincode": "245205"
        },
        {
            "S.No.": "206",
            "Area": "Gandu Nagla",
            "District": "Ghaziabad",
            "Pincode": "245205"
        },
        {
            "S.No.": "207",
            "Area": "Garh Town",
            "District": "Ghaziabad",
            "Pincode": "245205"
        },
        {
            "S.No.": "208",
            "Area": "Garhmukhteshwer",
            "District": "Ghaziabad",
            "Pincode": "245205"
        },
        {
            "S.No.": "209",
            "Area": "Haidarpur",
            "District": "Ghaziabad",
            "Pincode": "245205"
        },
        {
            "S.No.": "210",
            "Area": "Jakhera Rahmatpur",
            "District": "Ghaziabad",
            "Pincode": "245205"
        },
        {
            "S.No.": "211",
            "Area": "Jharina",
            "District": "Ghaziabad",
            "Pincode": "245205"
        },
        {
            "S.No.": "212",
            "Area": "Khiluai",
            "District": "Ghaziabad",
            "Pincode": "245205"
        },
        {
            "S.No.": "213",
            "Area": "Luhari",
            "District": "Ghaziabad",
            "Pincode": "245205"
        },
        {
            "S.No.": "214",
            "Area": "Muradpur Janupura",
            "District": "Ghaziabad",
            "Pincode": "245205"
        },
        {
            "S.No.": "215",
            "Area": "Nanpur",
            "District": "Ghaziabad",
            "Pincode": "245205"
        },
        {
            "S.No.": "216",
            "Area": "Sadullapur",
            "District": "Ghaziabad",
            "Pincode": "245205"
        },
        {
            "S.No.": "217",
            "Area": "Salarpur",
            "District": "Ghaziabad",
            "Pincode": "245205"
        },
        {
            "S.No.": "218",
            "Area": "Shyampur Jatt",
            "District": "Ghaziabad",
            "Pincode": "245205"
        },
        {
            "S.No.": "219",
            "Area": "Baxur",
            "District": "Ghaziabad",
            "Pincode": "245207"
        },
        {
            "S.No.": "220",
            "Area": "Bharna",
            "District": "Ghaziabad",
            "Pincode": "245207"
        },
        {
            "S.No.": "221",
            "Area": "Datiyana",
            "District": "Ghaziabad",
            "Pincode": "245207"
        },
        {
            "S.No.": "222",
            "Area": "Dhana",
            "District": "Ghaziabad",
            "Pincode": "245207"
        },
        {
            "S.No.": "223",
            "Area": "Mohd. Pur Khudaliya",
            "District": "Ghaziabad",
            "Pincode": "245207"
        },
        {
            "S.No.": "224",
            "Area": "Mubarikpur",
            "District": "Ghaziabad",
            "Pincode": "245207"
        },
        {
            "S.No.": "225",
            "Area": "Phuldehra",
            "District": "Ghaziabad",
            "Pincode": "245207"
        },
        {
            "S.No.": "226",
            "Area": "Rajethi",
            "District": "Ghaziabad",
            "Pincode": "245207"
        },
        {
            "S.No.": "227",
            "Area": "Sikhera",
            "District": "Ghaziabad",
            "Pincode": "245207"
        },
        {
            "S.No.": "228",
            "Area": "Simbhaoli",
            "District": "Ghaziabad",
            "Pincode": "245207"
        },
        {
            "S.No.": "229",
            "Area": "Wait",
            "District": "Ghaziabad",
            "Pincode": "245207"
        },
        {
            "S.No.": "230",
            "Area": "Alamnagar",
            "District": "Ghaziabad",
            "Pincode": "245208"
        },
        {
            "S.No.": "231",
            "Area": "Bahadurgarh",
            "District": "Ghaziabad",
            "Pincode": "245208"
        },
        {
            "S.No.": "232",
            "Area": "Bhadsiyana",
            "District": "Ghaziabad",
            "Pincode": "245208"
        },
        {
            "S.No.": "233",
            "Area": "Mahmoodpur Palwara",
            "District": "Ghaziabad",
            "Pincode": "245208"
        },
        {
            "S.No.": "234",
            "Area": "Nek Nanpur Nanai",
            "District": "Ghaziabad",
            "Pincode": "245208"
        },
        {
            "S.No.": "235",
            "Area": "Sharpur",
            "District": "Ghaziabad",
            "Pincode": "245208"
        },
        {
            "S.No.": "236",
            "Area": "Dehra",
            "District": "Ghaziabad",
            "Pincode": "245301"
        },
        {
            "S.No.": "237",
            "Area": "Dhaulana",
            "District": "Ghaziabad",
            "Pincode": "245301"
        },
        {
            "S.No.": "238",
            "Area": "Kandaula",
            "District": "Ghaziabad",
            "Pincode": "245301"
        },
        {
            "S.No.": "239",
            "Area": "Parpa",
            "District": "Ghaziabad",
            "Pincode": "245301"
        },
        {
            "S.No.": "240",
            "Area": "Samana",
            "District": "Ghaziabad",
            "Pincode": "245301"
        },
        {
            "S.No.": "241",
            "Area": "Solana",
            "District": "Ghaziabad",
            "Pincode": "245301"
        },
        {
            "S.No.": "242",
            "Area": "Anwarpur",
            "District": "Ghaziabad",
            "Pincode": "245304"
        },
        {
            "S.No.": "243",
            "Area": "Atrauli",
            "District": "Ghaziabad",
            "Pincode": "245304"
        },
        {
            "S.No.": "244",
            "Area": "Bajhera Khurd",
            "District": "Ghaziabad",
            "Pincode": "245304"
        },
        {
            "S.No.": "245",
            "Area": "Bhadola",
            "District": "Ghaziabad",
            "Pincode": "245304"
        },
        {
            "S.No.": "246",
            "Area": "Bhojpur",
            "District": "Ghaziabad",
            "Pincode": "245304"
        },
        {
            "S.No.": "247",
            "Area": "Chajarsi",
            "District": "Ghaziabad",
            "Pincode": "245304"
        },
        {
            "S.No.": "248",
            "Area": "Dehpa Azampur",
            "District": "Ghaziabad",
            "Pincode": "245304"
        },
        {
            "S.No.": "249",
            "Area": "Doohri",
            "District": "Ghaziabad",
            "Pincode": "245304"
        },
        {
            "S.No.": "250",
            "Area": "Farid Nagar",
            "District": "Ghaziabad",
            "Pincode": "245304"
        },
        {
            "S.No.": "251",
            "Area": "Kalchina",
            "District": "Ghaziabad",
            "Pincode": "245304"
        },
        {
            "S.No.": "252",
            "Area": "Kandoli",
            "District": "Ghaziabad",
            "Pincode": "245304"
        },
        {
            "S.No.": "253",
            "Area": "Kastala",
            "District": "Ghaziabad",
            "Pincode": "245304"
        },
        {
            "S.No.": "254",
            "Area": "Khera",
            "District": "Ghaziabad",
            "Pincode": "245304"
        },
        {
            "S.No.": "255",
            "Area": "Mukeempur",
            "District": "Ghaziabad",
            "Pincode": "245304"
        },
        {
            "S.No.": "256",
            "Area": "Nagola",
            "District": "Ghaziabad",
            "Pincode": "245304"
        },
        {
            "S.No.": "257",
            "Area": "New Market Pilkhauwa",
            "District": "Ghaziabad",
            "Pincode": "245304"
        },
        {
            "S.No.": "258",
            "Area": "Pilkhauwa Post Office",
            "District": "Ghaziabad",
            "Pincode": "245304"
        },
        {
            "S.No.": "259",
            "Area": "Samaipur",
            "District": "Ghaziabad",
            "Pincode": "245304"
        },
        {
            "S.No.": "260",
            "Area": "Tyori",
            "District": "Ghaziabad",
            "Pincode": "245304"
        }
    ]
}