{
	"East Delhi":[
 {
   "S.No.": 1,
   "Area": "Gandhi Nagar Bazar",
   "District": "East Delhi",
   "Pincode": 110031
 },
 {
   "S.No.": 2,
   "Area": "Gandhi Nagar",
   "District": "East Delhi",
   "Pincode": 110031
 },
 {
   "S.No.": 3,
   "Area": "Geeta Colony",
   "District": "East Delhi",
   "Pincode": 110031
 },
 {
   "S.No.": 4,
   "Area": "Kailash Nagar",
   "District": "East Delhi",
   "Pincode": 110031
 },
 {
   "S.No.": 5,
   "Area": "Raghubar Pura",
   "District": "East Delhi",
   "Pincode": 110031
 },
 {
   "S.No.": 6,
   "Area": "Rajgarh Colony",
   "District": "East Delhi",
   "Pincode": 110031
 },
 {
   "S.No.": 7,
   "Area": "Shastri Nagar",
   "District": "East Delhi",
   "Pincode": 110031
 },
 {
   "S.No.": 8,
   "Area": "Balbir Nagar",
   "District": "East Delhi",
   "Pincode": 110032
 },
 {
   "S.No.": 9,
   "Area": "Babarpur",
   "District": "East Delhi",
   "Pincode": 110032
 },
 {
   "S.No.": 10,
   "Area": "Bhola Nath Nagar",
   "District": "East Delhi",
   "Pincode": 110032
 },
 {
   "S.No.": 11,
   "Area": "Distt. Court (KKD)",
   "District": "East Delhi",
   "Pincode": 110032
 },
 {
   "S.No.": 12,
   "Area": "Goverdhan Bihari Colony",
   "District": "East Delhi",
   "Pincode": 110032
 },
 {
   "S.No.": 13,
   "Area": "Man Sarovar Park",
   "District": "East Delhi",
   "Pincode": 110032
 },
 {
   "S.No.": 14,
   "Area": "Rohtash Nagar",
   "District": "East Delhi",
   "Pincode": 110032
 },
 {
   "S.No.": 15,
   "Area": "Shahdara",
   "District": "East Delhi",
   "Pincode": 110032
 },
 {
   "S.No.": 16,
   "Area": "Shivaji Park",
   "District": "East Delhi",
   "Pincode": 110032
 },
 {
   "S.No.": 17,
   "Area": "Subhash Park",
   "District": "East Delhi",
   "Pincode": 110032
 },
 {
   "S.No.": 18,
   "Area": "Vishwas Nagar",
   "District": "East Delhi",
   "Pincode": 110032
 },
 {
   "S.No.": 19,
   "Area": "Azad Nagar",
   "District": "East Delhi",
   "Pincode": 110051
 },
 {
   "S.No.": 20,
   "Area": "Govind Pura",
   "District": "East Delhi",
   "Pincode": 110051
 },
 {
   "S.No.": 21,
   "Area": "Gagan Vihar",
   "District": "East Delhi",
   "Pincode": 110051
 },
 {
   "S.No.": 22,
   "Area": "Karkardooma",
   "District": "East Delhi",
   "Pincode": 110051
 },
 {
   "S.No.": 23,
   "Area": "Krishna Nagar",
   "District": "East Delhi",
   "Pincode": 110051
 },
 {
   "S.No.": 24,
   "Area": "Ram Nagar",
   "District": "East Delhi",
   "Pincode": 110051
 },
 {
   "S.No.": 25,
   "Area": "Sonia Vihar",
   "District": "East Delhi",
   "Pincode": 110090
 },
 {
   "S.No.": 26,
   "Area": "Chilla",
   "District": "East Delhi",
   "Pincode": 110091
 },
 {
   "S.No.": 27,
   "Area": "Commonwealth Games Village",
   "District": "East Delhi",
   "Pincode": 110091
 },
 {
   "S.No.": 28,
   "Area": "Kalyanvas",
   "District": "East Delhi",
   "Pincode": 110091
 },
 {
   "S.No.": 29,
   "Area": "Mayur Vihar Ph-1",
   "District": "East Delhi",
   "Pincode": 110091
 },
 {
   "S.No.": 30,
   "Area": "Mayur Vihar Ph-2",
   "District": "East Delhi",
   "Pincode": 110091
 },
 {
   "S.No.": 31,
   "Area": "Patparganj",
   "District": "East Delhi",
   "Pincode": 110091
 },
 {
   "S.No.": 32,
   "Area": "Anand Vihar",
   "District": "East Delhi",
   "Pincode": 110092
 },
 {
   "S.No.": 33,
   "Area": "Ganesh Nagar",
   "District": "East Delhi",
   "Pincode": 110092
 },
 {
   "S.No.": 34,
   "Area": "IP Extension",
   "District": "East Delhi",
   "Pincode": 110092
 },
 {
   "S.No.": 35,
   "Area": "Karkardooma",
   "District": "East Delhi",
   "Pincode": 110092
 },
 {
   "S.No.": 36,
   "Area": "Laxmi Nagar",
   "District": "East Delhi",
   "Pincode": 110092
 },
 {
   "S.No.": 37,
   "Area": "Madhuban",
   "District": "East Delhi",
   "Pincode": 110092
 },
 {
   "S.No.": 38,
   "Area": "Mandawali Fazalpur",
   "District": "East Delhi",
   "Pincode": 110092
 },
 {
   "S.No.": 39,
   "Area": "Nirman Vihar",
   "District": "East Delhi",
   "Pincode": 110092
 },
 {
   "S.No.": 40,
   "Area": "Pandav Nagar",
   "District": "East Delhi",
   "Pincode": 110092
 },
 {
   "S.No.": 41,
   "Area": "Preet Vihar",
   "District": "East Delhi",
   "Pincode": 110092
 },
 {
   "S.No.": 42,
   "Area": "Shakarpur",
   "District": "East Delhi",
   "Pincode": 110092
 },
 {
   "S.No.": 43,
   "Area": "Srestha Vihar",
   "District": "East Delhi",
   "Pincode": 110092
 },
 {
   "S.No.": 44,
   "Area": "Surajmal Vihar",
   "District": "East Delhi",
   "Pincode": 110092
 },
 {
   "S.No.": 45,
   "Area": "Yozna Vihar",
   "District": "East Delhi",
   "Pincode": 110092
 },
 {
   "S.No.": 46,
   "Area": "Harsh Vihar",
   "District": "East Delhi",
   "Pincode": 110093
 },
 {
   "S.No.": 47,
   "Area": "Mandoli Saboli",
   "District": "East Delhi",
   "Pincode": 110093
 },
 {
   "S.No.": 48,
   "Area": "Nand Nagri",
   "District": "East Delhi",
   "Pincode": 110093
 },
 {
   "S.No.": 49,
   "Area": "Ganga Vihar",
   "District": "East Delhi",
   "Pincode": 110094
 },
 {
   "S.No.": 50,
   "Area": "Johripur",
   "District": "East Delhi",
   "Pincode": 110094
 },
 {
   "S.No.": 51,
   "Area": "Sonia Vihar",
   "District": "East Delhi",
   "Pincode": 110094
 },
 {
   "S.No.": 52,
   "Area": "Dilshad Garden",
   "District": "East Delhi",
   "Pincode": 110095
 },
 {
   "S.No.": 53,
   "Area": "G.T.B. Hospital",
   "District": "East Delhi",
   "Pincode": 110095
 },
 {
   "S.No.": 54,
   "Area": "Jhilmil",
   "District": "East Delhi",
   "Pincode": 110095
 },
 {
   "S.No.": 55,
   "Area": "V.K. Nagar",
   "District": "East Delhi",
   "Pincode": 110095
 },
 {
   "S.No.": 56,
   "Area": "Vivek Vihar",
   "District": "East Delhi",
   "Pincode": 110095
 },
 {
   "S.No.": 57,
   "Area": "New Ashok Nagar",
   "District": "East Delhi",
   "Pincode": 110096
 },
 {
   "S.No.": 58,
   "Area": "Mayur Vihar Ph-III",
   "District": "East Delhi",
   "Pincode": 110096
 },
 {
   "S.No.": 59,
   "Area": "Vasundhra Enclave",
   "District": "East Delhi",
   "Pincode": 110096
 }
],
"Ghaziabad":[
 {
   "S.No.": 1,
   "Area": "Crossing Republic",
   "District": "Ghaziabad",
   "Pincode": 201009
 },
 {
   "S.No.": 2,
   "Area": "Eco Village 2",
   "District": "Ghaziabad",
   "Pincode": 201009
 },
 {
   "S.No.": 3,
   "Area": "Eco Village 3",
   "District": "Ghaziabad",
   "Pincode": 201009
 },
 {
   "S.No.": 4,
   "Area": "Gaur City",
   "District": "Ghaziabad",
   "Pincode": 201009
 },
 {
   "S.No.": 5,
   "Area": "Gaur City 1",
   "District": "Ghaziabad",
   "Pincode": 201009
 },
 {
   "S.No.": 6,
   "Area": "Gaur City 2",
   "District": "Ghaziabad",
   "Pincode": 201009
 },
 {
   "S.No.": 7,
   "Area": "Sector 16",
   "District": "Ghaziabad",
   "Pincode": 201009
 },
 {
   "S.No.": 8,
   "Area": "Sector 16B",
   "District": "Ghaziabad",
   "Pincode": 201009
 },
 {
   "S.No.": 9,
   "Area": "Sector 16B",
   "District": "Ghaziabad",
   "Pincode": 201009
 },
 {
   "S.No.": 10,
   "Area": "Hasanpur",
   "District": "Ghaziabad",
   "Pincode": 201010
 },
 {
   "S.No.": 11,
   "Area": "Indirapuram",
   "District": "Ghaziabad",
   "Pincode": 201010
 },
 {
   "S.No.": 12,
   "Area": "Vaishali",
   "District": "Ghaziabad",
   "Pincode": 201010
 },
 {
   "S.No.": 13,
   "Area": "Kaushambi",
   "District": "Ghaziabad",
   "Pincode": 201010
 },
 {
   "S.No.": 14,
   "Area": "Kaushambi",
   "District": "Ghaziabad",
   "Pincode": 201012
 },
 {
   "S.No.": 15,
   "Area": "Vasundhra",
   "District": "Ghaziabad",
   "Pincode": 201012
 },
 {
   "S.No.": 16,
   "Area": "Shipra Sun City",
   "District": "Ghaziabad",
   "Pincode": 201014
 },
 {
   "S.No.": 17,
   "Area": "Ahinsa Khand 1",
   "District": "Ghaziabad",
   "Pincode": 201014
 },
 {
   "S.No.": 18,
   "Area": "Ahinsa Khand 2",
   "District": "Ghaziabad",
   "Pincode": 201014
 },
 {
   "S.No.": 19,
   "Area": "Gyan Khand",
   "District": "Ghaziabad",
   "Pincode": 201014
 },
 {
   "S.No.": 20,
   "Area": "Indirapuram",
   "District": "Ghaziabad",
   "Pincode": 201014
 },
 {
   "S.No.": 21,
   "Area": "Kala Patthar",
   "District": "Ghaziabad",
   "Pincode": 201014
 },
 {
   "S.No.": 22,
   "Area": "Niti Khand",
   "District": "Ghaziabad",
   "Pincode": 201014
 },
 {
   "S.No.": 23,
   "Area": "Nyay Khand",
   "District": "Ghaziabad",
   "Pincode": 201014
 },
 {
   "S.No.": 24,
   "Area": "Shakti Khand",
   "District": "Ghaziabad",
   "Pincode": 201014
 },
 {
   "S.No.": 25,
   "Area": "Vaibhav Khand",
   "District": "Ghaziabad",
   "Pincode": 201014
 },
 {
   "S.No.": 26,
   "Area": "Crossing Republik",
   "District": "Ghaziabad",
   "Pincode": 201016
 },
 {
   "S.No.": 27,
   "Area": "Raj Nagar Extension",
   "District": "Ghaziabad",
   "Pincode": 201017
 },
 {
   "S.No.": 28,
   "Area": "Vaishali",
   "District": "Ghaziabad",
   "Pincode": 201019
 },
 {
   "S.No.": 29,
   "Area": "Badshahnpur Siroli",
   "District": "Ghaziabad",
   "Pincode": 201102
 },
 {
   "S.No.": 30,
   "Area": "Noida Sector 27",
   "District": "Ghaziabad",
   "Pincode": 201301
 },
 {
   "S.No.": 31,
   "Area": "Noida Sector 41",
   "District": "Ghaziabad",
   "Pincode": 201303
 }
],

	"Noida" :[
 {
   "S.No.": 1,
   "Area": "Barola",
   "District": "Gautam Buddh Nagar",
   "Pincode": 201301
 },
 {
   "S.No.": 2,
   "Area": "Chhalera",
   "District": "Gautam Buddh Nagar",
   "Pincode": 201301
 },
 {
   "S.No.": 3,
   "Area": "Gejha",
   "District": "Gautam Buddh Nagar",
   "Pincode": 201301
 },
 {
   "S.No.": 4,
   "Area": "Gijhor",
   "District": "Gautam Buddh Nagar",
   "Pincode": 201301
 },
 {
   "S.No.": 5,
   "Area": "Hazipur",
   "District": "Gautam Buddh Nagar",
   "Pincode": 201301
 },
 {
   "S.No.": 6,
   "Area": "Hoshiyarpur Village",
   "District": "Gautam Buddh Nagar",
   "Pincode": 201301
 },
 {
   "S.No.": 7,
   "Area": "Hosiery Complex",
   "District": "Gautam Buddh Nagar",
   "Pincode": 201301
 },
 {
   "S.No.": 8,
   "Area": "Sadarpur",
   "District": "Gautam Buddh Nagar",
   "Pincode": 201301
 },
 {
   "S.No.": 9,
   "Area": "Salarpur",
   "District": "Gautam Buddh Nagar",
   "Pincode": 201301
 },
 {
   "S.No.": 10,
   "Area": "Sarfabad",
   "District": "Gautam Buddh Nagar",
   "Pincode": 201301
 },
 {
   "S.No.": 11,
   "Area": "Sector 1",
   "District": "Gautam Buddh Nagar",
   "Pincode": 201301
 },
 {
   "S.No.": 12,
   "Area": "Sector 2",
   "District": "Gautam Buddh Nagar",
   "Pincode": 201301
 },
 {
   "S.No.": 13,
   "Area": "Sector 3",
   "District": "Gautam Buddh Nagar",
   "Pincode": 201301
 },
 {
   "S.No.": 14,
   "Area": "Sector 4",
   "District": "Gautam Buddh Nagar",
   "Pincode": 201301
 },
 {
   "S.No.": 15,
   "Area": "Sector 5",
   "District": "Gautam Buddh Nagar",
   "Pincode": 201301
 },
 {
   "S.No.": 16,
   "Area": "Sector 6",
   "District": "Gautam Buddh Nagar",
   "Pincode": 201301
 },
 {
   "S.No.": 17,
   "Area": "Sector 7",
   "District": "Gautam Buddh Nagar",
   "Pincode": 201301
 },
 {
   "S.No.": 18,
   "Area": "Sector 8",
   "District": "Gautam Buddh Nagar",
   "Pincode": 201301
 },
 {
   "S.No.": 19,
   "Area": "Sector 9",
   "District": "Gautam Buddh Nagar",
   "Pincode": 201301
 },
 {
   "S.No.": 20,
   "Area": "Sector 10",
   "District": "Gautam Buddh Nagar",
   "Pincode": 201301
 },
 {
   "S.No.": 21,
   "Area": "Sector 11",
   "District": "Gautam Buddh Nagar",
   "Pincode": 201301
 },
 {
   "S.No.": 22,
   "Area": "Sector 12",
   "District": "Gautam Buddh Nagar",
   "Pincode": 201301
 },
 {
   "S.No.": 23,
   "Area": "Sector 14",
   "District": "Gautam Buddh Nagar",
   "Pincode": 201301
 },
 {
   "S.No.": 24,
   "Area": "Sector 15",
   "District": "Gautam Buddh Nagar",
   "Pincode": 201301
 },
 {
   "S.No.": 25,
   "Area": "Sector 15A",
   "District": "Gautam Buddh Nagar",
   "Pincode": 201301
 },
 {
   "S.No.": 26,
   "Area": "Sector 16",
   "District": "Gautam Buddh Nagar",
   "Pincode": 201301
 },
 {
   "S.No.": 27,
   "Area": "Sector 17",
   "District": "Gautam Buddh Nagar",
   "Pincode": 201301
 },
 {
   "S.No.": 28,
   "Area": "Sector 18",
   "District": "Gautam Buddh Nagar",
   "Pincode": 201301
 },
 {
   "S.No.": 29,
   "Area": "Sector 19",
   "District": "Gautam Buddh Nagar",
   "Pincode": 201301
 },
 {
   "S.No.": 30,
   "Area": "Sector 20",
   "District": "Gautam Buddh Nagar",
   "Pincode": 201301
 },
 {
   "S.No.": 31,
   "Area": "Sector 21",
   "District": "Gautam Buddh Nagar",
   "Pincode": 201301
 },
 {
   "S.No.": 32,
   "Area": "Sector 22",
   "District": "Gautam Buddh Nagar",
   "Pincode": 201301
 },
 {
   "S.No.": 33,
   "Area": "Sector 23",
   "District": "Gautam Buddh Nagar",
   "Pincode": 201301
 },
 {
   "S.No.": 34,
   "Area": "Sector 24",
   "District": "Gautam Buddh Nagar",
   "Pincode": 201301
 },
 {
   "S.No.": 35,
   "Area": "Sector 25",
   "District": "Gautam Buddh Nagar",
   "Pincode": 201301
 },
 {
   "S.No.": 36,
   "Area": "Sector 26",
   "District": "Gautam Buddh Nagar",
   "Pincode": 201301
 },
 {
   "S.No.": 37,
   "Area": "Sector 27",
   "District": "Gautam Buddh Nagar",
   "Pincode": 201301
 },
 {
   "S.No.": 38,
   "Area": "Sector 28",
   "District": "Gautam Buddh Nagar",
   "Pincode": 201301
 },
 {
   "S.No.": 39,
   "Area": "Sector 29",
   "District": "Gautam Buddh Nagar",
   "Pincode": 201301
 },
 {
   "S.No.": 40,
   "Area": "Sector 30",
   "District": "Gautam Buddh Nagar",
   "Pincode": 201301
 },
 {
   "S.No.": 41,
   "Area": "Sector 31",
   "District": "Gautam Buddh Nagar",
   "Pincode": 201301
 },
 {
   "S.No.": 42,
   "Area": "Sector 32",
   "District": "Gautam Buddh Nagar",
   "Pincode": 201301
 },
 {
   "S.No.": 43,
   "Area": "Sector 33",
   "District": "Gautam Buddh Nagar",
   "Pincode": 201301
 },
 {
   "S.No.": 44,
   "Area": "Sector 34",
   "District": "Gautam Buddh Nagar",
   "Pincode": 201301
 },
 {
   "S.No.": 45,
   "Area": "Sector 35",
   "District": "Gautam Buddh Nagar",
   "Pincode": 201301
 },
 {
   "S.No.": 46,
   "Area": "Sector 36",
   "District": "Gautam Buddh Nagar",
   "Pincode": 201301
 },
 {
   "S.No.": 47,
   "Area": "Sector 37",
   "District": "Gautam Buddh Nagar",
   "Pincode": 201301
 },
 {
   "S.No.": 48,
   "Area": "Sector 38",
   "District": "Gautam Buddh Nagar",
   "Pincode": 201301
 },
 {
   "S.No.": 49,
   "Area": "Sector 39",
   "District": "Gautam Buddh Nagar",
   "Pincode": 201301
 },
 {
   "S.No.": 50,
   "Area": "Sector 40",
   "District": "Gautam Buddh Nagar",
   "Pincode": 201301
 },
 {
   "S.No.": 51,
   "Area": "Sector 41",
   "District": "Gautam Buddh Nagar",
   "Pincode": 201301
 },
 {
   "S.No.": 52,
   "Area": "Sector 42",
   "District": "Gautam Buddh Nagar",
   "Pincode": 201301
 },
 {
   "S.No.": 53,
   "Area": "Sector 43",
   "District": "Gautam Buddh Nagar",
   "Pincode": 201301
 },
 {
   "S.No.": 54,
   "Area": "Sector 44",
   "District": "Gautam Buddh Nagar",
   "Pincode": 201301
 },
 {
   "S.No.": 55,
   "Area": "Sector 45",
   "District": "Gautam Buddh Nagar",
   "Pincode": 201301
 },
 {
   "S.No.": 56,
   "Area": "Sector 46",
   "District": "Gautam Buddh Nagar",
   "Pincode": 201301
 },
 {
   "S.No.": 57,
   "Area": "Sector 47",
   "District": "Gautam Buddh Nagar",
   "Pincode": 201301
 },
 {
   "S.No.": 58,
   "Area": "Sector 48",
   "District": "Gautam Buddh Nagar",
   "Pincode": 201301
 },
 {
   "S.No.": 59,
   "Area": "Sector 49",
   "District": "Gautam Buddh Nagar",
   "Pincode": 201301
 },
 {
   "S.No.": 60,
   "Area": "Sector 50",
   "District": "Gautam Buddh Nagar",
   "Pincode": 201301
 },
 {
   "S.No.": 61,
   "Area": "Sector 51",
   "District": "Gautam Buddh Nagar",
   "Pincode": 201301
 },
 {
   "S.No.": 62,
   "Area": "Sector 52",
   "District": "Gautam Buddh Nagar",
   "Pincode": 201301
 },
 {
   "S.No.": 63,
   "Area": "Sector 53",
   "District": "Gautam Buddh Nagar",
   "Pincode": 201301
 },
 {
   "S.No.": 64,
   "Area": "Sector 54",
   "District": "Gautam Buddh Nagar",
   "Pincode": 201301
 },
 {
   "S.No.": 65,
   "Area": "Sector 55",
   "District": "Gautam Buddh Nagar",
   "Pincode": 201301
 },
 {
   "S.No.": 66,
   "Area": "Sector 56",
   "District": "Gautam Buddh Nagar",
   "Pincode": 201301
 },
 {
   "S.No.": 67,
   "Area": "Sector 57",
   "District": "Gautam Buddh Nagar",
   "Pincode": 201301
 },
 {
   "S.No.": 68,
   "Area": "Sector 58",
   "District": "Gautam Buddh Nagar",
   "Pincode": 201301
 },
 {
   "S.No.": 69,
   "Area": "Sector 59",
   "District": "Gautam Buddh Nagar",
   "Pincode": 201301
 },
 {
   "S.No.": 70,
   "Area": "Sector 60",
   "District": "Gautam Buddh Nagar",
   "Pincode": 201301
 },
 {
   "S.No.": 71,
   "Area": "Sector 61",
   "District": "Gautam Buddh Nagar",
   "Pincode": 201301
 },
 {
   "S.No.": 72,
   "Area": "Sector 62",
   "District": "Gautam Buddh Nagar",
   "Pincode": 201301
 },
 {
   "S.No.": 73,
   "Area": "Sector 63",
   "District": "Gautam Buddh Nagar",
   "Pincode": 201301
 },
 {
   "S.No.": 74,
   "Area": "Sector 64",
   "District": "Gautam Buddh Nagar",
   "Pincode": 201301
 },
 {
   "S.No.": 75,
   "Area": "Sector 65",
   "District": "Gautam Buddh Nagar",
   "Pincode": 201301
 },
 {
   "S.No.": 76,
   "Area": "Sector 66",
   "District": "Gautam Buddh Nagar",
   "Pincode": 201301
 },
 {
   "S.No.": 77,
   "Area": "Sector 67",
   "District": "Gautam Buddh Nagar",
   "Pincode": 201301
 },
 {
   "S.No.": 78,
   "Area": "Sector 68",
   "District": "Gautam Buddh Nagar",
   "Pincode": 201301
 },
 {
   "S.No.": 79,
   "Area": "Sector 69",
   "District": "Gautam Buddh Nagar",
   "Pincode": 201301
 },
 {
   "S.No.": 80,
   "Area": "Sector 70",
   "District": "Gautam Buddh Nagar",
   "Pincode": 201301
 },
 {
   "S.No.": 81,
   "Area": "Sector 71",
   "District": "Gautam Buddh Nagar",
   "Pincode": 201301
 },
 {
   "S.No.": 82,
   "Area": "Sector 72",
   "District": "Gautam Buddh Nagar",
   "Pincode": 201301
 },
 {
   "S.No.": 83,
   "Area": "Sector 73",
   "District": "Gautam Buddh Nagar",
   "Pincode": 201301
 },
 {
   "S.No.": 84,
   "Area": "Sector 74",
   "District": "Gautam Buddh Nagar",
   "Pincode": 201301
 },
 {
   "S.No.": 85,
   "Area": "Sector 75",
   "District": "Gautam Buddh Nagar",
   "Pincode": 201301
 },
 {
   "S.No.": 86,
   "Area": "Sector 76",
   "District": "Gautam Buddh Nagar",
   "Pincode": 201301
 },
 {
   "S.No.": 87,
   "Area": "Sector 77",
   "District": "Gautam Buddh Nagar",
   "Pincode": 201301
 },
 {
   "S.No.": 88,
   "Area": "Sector 78",
   "District": "Gautam Buddh Nagar",
   "Pincode": 201301
 },
 {
   "S.No.": 89,
   "Area": "Sector 79",
   "District": "Gautam Buddh Nagar",
   "Pincode": 201301
 },
 {
   "S.No.": 90,
   "Area": "Sector 83",
   "District": "Gautam Buddh Nagar",
   "Pincode": 201301
 },
 {
   "S.No.": 91,
   "Area": "Sector 84",
   "District": "Gautam Buddh Nagar",
   "Pincode": 201301
 },
 {
   "S.No.": 92,
   "Area": "Sector 85",
   "District": "Gautam Buddh Nagar",
   "Pincode": 201301
 },
 {
   "S.No.": 93,
   "Area": "Sector 86",
   "District": "Gautam Buddh Nagar",
   "Pincode": 201301
 },
 {
   "S.No.": 94,
   "Area": "Sector 87",
   "District": "Gautam Buddh Nagar",
   "Pincode": 201301
 },
 {
   "S.No.": 95,
   "Area": "Sector 88",
   "District": "Gautam Buddh Nagar",
   "Pincode": 201301
 },
 {
   "S.No.": 96,
   "Area": "Sector 93",
   "District": "Gautam Buddh Nagar",
   "Pincode": 201301
 },
 {
   "S.No.": 97,
   "Area": "Sector 94",
   "District": "Gautam Buddh Nagar",
   "Pincode": 201301
 },
 {
   "S.No.": 98,
   "Area": "Sector 95",
   "District": "Gautam Buddh Nagar",
   "Pincode": 201301
 },
 {
   "S.No.": 99,
   "Area": "Sector 96",
   "District": "Gautam Buddh Nagar",
   "Pincode": 201301
 },
 {
   "S.No.": 100,
   "Area": "Sector 97",
   "District": "Gautam Buddh Nagar",
   "Pincode": 201301
 },
 {
   "S.No.": 101,
   "Area": "Sector 98",
   "District": "Gautam Buddh Nagar",
   "Pincode": 201301
 },
 {
   "S.No.": 102,
   "Area": "Sector 99",
   "District": "Gautam Buddh Nagar",
   "Pincode": 201301
 },
 {
   "S.No.": 103,
   "Area": "Sector 100",
   "District": "Gautam Buddh Nagar",
   "Pincode": 201301
 },
 {
   "S.No.": 104,
   "Area": "Sector 101",
   "District": "Gautam Buddh Nagar",
   "Pincode": 201301
 },
 {
   "S.No.": 105,
   "Area": "Sector 102",
   "District": "Gautam Buddh Nagar",
   "Pincode": 201301
 },
 {
   "S.No.": 106,
   "Area": "Sector 103",
   "District": "Gautam Buddh Nagar",
   "Pincode": 201301
 },
 {
   "S.No.": 107,
   "Area": "Sector 104",
   "District": "Gautam Buddh Nagar",
   "Pincode": 201301
 },
 {
   "S.No.": 108,
   "Area": "Sector 105",
   "District": "Gautam Buddh Nagar",
   "Pincode": 201301
 },
 {
   "S.No.": 109,
   "Area": "Sector 106",
   "District": "Gautam Buddh Nagar",
   "Pincode": 201301
 },
 {
   "S.No.": 110,
   "Area": "Sector 107",
   "District": "Gautam Buddh Nagar",
   "Pincode": 201301
 },
 {
   "S.No.": 111,
   "Area": "Sector 108",
   "District": "Gautam Buddh Nagar",
   "Pincode": 201301
 },
 {
   "S.No.": 112,
   "Area": "Sector 109",
   "District": "Gautam Buddh Nagar",
   "Pincode": 201301
 },
 {
   "S.No.": 113,
   "Area": "Sector 110",
   "District": "Gautam Buddh Nagar",
   "Pincode": 201301
 },
 {
   "S.No.": 114,
   "Area": "Sector 111",
   "District": "Gautam Buddh Nagar",
   "Pincode": 201301
 },
 {
   "S.No.": 115,
   "Area": "Sector 112",
   "District": "Gautam Buddh Nagar",
   "Pincode": 201301
 },
 {
   "S.No.": 116,
   "Area": "Sector 113",
   "District": "Gautam Buddh Nagar",
   "Pincode": 201301
 },
 {
   "S.No.": 117,
   "Area": "Sector 114",
   "District": "Gautam Buddh Nagar",
   "Pincode": 201301
 },
 {
   "S.No.": 118,
   "Area": "Sector 115",
   "District": "Gautam Buddh Nagar",
   "Pincode": 201301
 },
 {
   "S.No.": 119,
   "Area": "Sector 116",
   "District": "Gautam Buddh Nagar",
   "Pincode": 201301
 },
 {
   "S.No.": 120,
   "Area": "Sector 117",
   "District": "Gautam Buddh Nagar",
   "Pincode": 201301
 },
 {
   "S.No.": 121,
   "Area": "Sector 118",
   "District": "Gautam Buddh Nagar",
   "Pincode": 201301
 },
 {
   "S.No.": 122,
   "Area": "Sector 119",
   "District": "Gautam Buddh Nagar",
   "Pincode": 201301
 },
 {
   "S.No.": 123,
   "Area": "Sector 120",
   "District": "Gautam Buddh Nagar",
   "Pincode": 201301
 },
 {
   "S.No.": 124,
   "Area": "Sector 121",
   "District": "Gautam Buddh Nagar",
   "Pincode": 201301
 },
 {
   "S.No.": 125,
   "Area": "Sector 122",
   "District": "Gautam Buddh Nagar",
   "Pincode": 201301
 },
 {
   "S.No.": 126,
   "Area": "Sector 125",
   "District": "Gautam Buddh Nagar",
   "Pincode": 201301
 },
 {
   "S.No.": 127,
   "Area": "Sector 126",
   "District": "Gautam Buddh Nagar",
   "Pincode": 201301
 },
 {
   "S.No.": 128,
   "Area": "Sector 127",
   "District": "Gautam Buddh Nagar",
   "Pincode": 201301
 },
 {
   "S.No.": 129,
   "Area": "Sector 128",
   "District": "Gautam Buddh Nagar",
   "Pincode": 201301
 },
 {
   "S.No.": 130,
   "Area": "Sector 129",
   "District": "Gautam Buddh Nagar",
   "Pincode": 201301
 },
 {
   "S.No.": 131,
   "Area": "Sector 130",
   "District": "Gautam Buddh Nagar",
   "Pincode": 201301
 },
 {
   "S.No.": 132,
   "Area": "Barola",
   "District": "Gautam Buddh Nagar",
   "Pincode": 201303
 },
 {
   "S.No.": 133,
   "Area": "Chhalera",
   "District": "Gautam Buddh Nagar",
   "Pincode": 201303
 },
 {
   "S.No.": 134,
   "Area": "Gijhor",
   "District": "Gautam Buddh Nagar",
   "Pincode": 201303
 },
 {
   "S.No.": 135,
   "Area": "Sadarpur",
   "District": "Gautam Buddh Nagar",
   "Pincode": 201303
 },
 {
   "S.No.": 136,
   "Area": "Sector 100",
   "District": "Gautam Buddh Nagar",
   "Pincode": 201303
 },
 {
   "S.No.": 137,
   "Area": "Sector 117",
   "District": "Gautam Buddh Nagar",
   "Pincode": 201303
 },
 {
   "S.No.": 138,
   "Area": "Sector 121",
   "District": "Gautam Buddh Nagar",
   "Pincode": 201303
 },
 {
   "S.No.": 139,
   "Area": "Sector 123",
   "District": "Gautam Buddh Nagar",
   "Pincode": 201303
 },
 {
   "S.No.": 140,
   "Area": "Sector 124",
   "District": "Gautam Buddh Nagar",
   "Pincode": 201303
 },
 {
   "S.No.": 141,
   "Area": "Sector 125",
   "District": "Gautam Buddh Nagar",
   "Pincode": 201303
 },
 {
   "S.No.": 142,
   "Area": "Sector 126",
   "District": "Gautam Buddh Nagar",
   "Pincode": 201303
 },
 {
   "S.No.": 143,
   "Area": "Sector 128",
   "District": "Gautam Buddh Nagar",
   "Pincode": 201303
 },
 {
   "S.No.": 144,
   "Area": "Sector 132",
   "District": "Gautam Buddh Nagar",
   "Pincode": 201303
 },
 {
   "S.No.": 145,
   "Area": "Sector 18",
   "District": "Gautam Buddh Nagar",
   "Pincode": 201303
 },
 {
   "S.No.": 146,
   "Area": "Sector 25",
   "District": "Gautam Buddh Nagar",
   "Pincode": 201303
 },
 {
   "S.No.": 147,
   "Area": "Sector 30",
   "District": "Gautam Buddh Nagar",
   "Pincode": 201303
 },
 {
   "S.No.": 148,
   "Area": "Sector 36",
   "District": "Gautam Buddh Nagar",
   "Pincode": 201303
 },
 {
   "S.No.": 149,
   "Area": "Sector 37",
   "District": "Gautam Buddh Nagar",
   "Pincode": 201303
 },
 {
   "S.No.": 150,
   "Area": "Sector 39",
   "District": "Gautam Buddh Nagar",
   "Pincode": 201303
 },
 {
   "S.No.": 151,
   "Area": "Sector 40",
   "District": "Gautam Buddh Nagar",
   "Pincode": 201303
 },
 {
   "S.No.": 152,
   "Area": "Sector 41",
   "District": "Gautam Buddh Nagar",
   "Pincode": 201303
 },
 {
   "S.No.": 153,
   "Area": "Sector 42",
   "District": "Gautam Buddh Nagar",
   "Pincode": 201303
 },
 {
   "S.No.": 154,
   "Area": "Sector 43",
   "District": "Gautam Buddh Nagar",
   "Pincode": 201303
 },
 {
   "S.No.": 155,
   "Area": "Sector 44",
   "District": "Gautam Buddh Nagar",
   "Pincode": 201303
 },
 {
   "S.No.": 156,
   "Area": "Sector 45",
   "District": "Gautam Buddh Nagar",
   "Pincode": 201303
 },
 {
   "S.No.": 157,
   "Area": "Sector 46",
   "District": "Gautam Buddh Nagar",
   "Pincode": 201303
 },
 {
   "S.No.": 158,
   "Area": "Sector 47",
   "District": "Gautam Buddh Nagar",
   "Pincode": 201303
 },
 {
   "S.No.": 159,
   "Area": "Sector 48",
   "District": "Gautam Buddh Nagar",
   "Pincode": 201303
 },
 {
   "S.No.": 160,
   "Area": "Sector 49",
   "District": "Gautam Buddh Nagar",
   "Pincode": 201303
 },
 {
   "S.No.": 161,
   "Area": "Sector 50",
   "District": "Gautam Buddh Nagar",
   "Pincode": 201303
 },
 {
   "S.No.": 162,
   "Area": "Sector 94",
   "District": "Gautam Buddh Nagar",
   "Pincode": 201303
 },
 {
   "S.No.": 163,
   "Area": "Sector 96",
   "District": "Gautam Buddh Nagar",
   "Pincode": 201303
 },
 {
   "S.No.": 164,
   "Area": "Sector 97",
   "District": "Gautam Buddh Nagar",
   "Pincode": 201303
 },
 {
   "S.No.": 165,
   "Area": "Sector 98",
   "District": "Gautam Buddh Nagar",
   "Pincode": 201303
 },
 {
   "S.No.": 166,
   "Area": "Sector 99",
   "District": "Gautam Buddh Nagar",
   "Pincode": 201303
 },
 {
   "S.No.": 167,
   "Area": "Barola",
   "District": "Gautam Buddh Nagar",
   "Pincode": 201304
 },
 {
   "S.No.": 168,
   "Area": "Gejha",
   "District": "Gautam Buddh Nagar",
   "Pincode": 201304
 },
 {
   "S.No.": 169,
   "Area": "Hoshiyarpur Village",
   "District": "Gautam Buddh Nagar",
   "Pincode": 201304
 },
 {
   "S.No.": 170,
   "Area": "Salarpur",
   "District": "Gautam Buddh Nagar",
   "Pincode": 201304
 },
 {
   "S.No.": 171,
   "Area": "Safrabad",
   "District": "Gautam Buddh Nagar",
   "Pincode": 201304
 },
 {
   "S.No.": 172,
   "Area": "Maharishi Nagar",
   "District": "Gautam Buddh Nagar",
   "Pincode": 201304
 },
 {
   "S.No.": 173,
   "Area": "Parthala Khanjarpur",
   "District": "Gautam Buddh Nagar",
   "Pincode": 201304
 },
 {
   "S.No.": 174,
   "Area": "Sector 100 ",
   "District": "Gautam Buddh Nagar",
   "Pincode": 201304
 },
 {
   "S.No.": 175,
   "Area": "Sector 101",
   "District": "Gautam Buddh Nagar",
   "Pincode": 201304
 },
 {
   "S.No.": 176,
   "Area": "Sector 102",
   "District": "Gautam Buddh Nagar",
   "Pincode": 201304
 },
 {
   "S.No.": 177,
   "Area": "Sector 103",
   "District": "Gautam Buddh Nagar",
   "Pincode": 201304
 },
 {
   "S.No.": 178,
   "Area": "Sector 104",
   "District": "Gautam Buddh Nagar",
   "Pincode": 201304
 },
 {
   "S.No.": 179,
   "Area": "Sector 105",
   "District": "Gautam Buddh Nagar",
   "Pincode": 201304
 },
 {
   "S.No.": 180,
   "Area": "Sector 106",
   "District": "Gautam Buddh Nagar",
   "Pincode": 201304
 },
 {
   "S.No.": 181,
   "Area": "Sector 107",
   "District": "Gautam Buddh Nagar",
   "Pincode": 201304
 },
 {
   "S.No.": 182,
   "Area": "Sector 108",
   "District": "Gautam Buddh Nagar",
   "Pincode": 201304
 },
 {
   "S.No.": 183,
   "Area": "Sector 109",
   "District": "Gautam Buddh Nagar",
   "Pincode": 201304
 },
 {
   "S.No.": 184,
   "Area": "Sector 110",
   "District": "Gautam Buddh Nagar",
   "Pincode": 201304
 },
 {
   "S.No.": 185,
   "Area": "Sector 115",
   "District": "Gautam Buddh Nagar",
   "Pincode": 201304
 },
 {
   "S.No.": 186,
   "Area": "Sector 116",
   "District": "Gautam Buddh Nagar",
   "Pincode": 201304
 },
 {
   "S.No.": 187,
   "Area": "Sector 117",
   "District": "Gautam Buddh Nagar",
   "Pincode": 201304
 },
 {
   "S.No.": 188,
   "Area": "Sector 118",
   "District": "Gautam Buddh Nagar",
   "Pincode": 201304
 },
 {
   "S.No.": 189,
   "Area": "Sector 119",
   "District": "Gautam Buddh Nagar",
   "Pincode": 201304
 },
 {
   "S.No.": 190,
   "Area": "Sector 120",
   "District": "Gautam Buddh Nagar",
   "Pincode": 201304
 },
 {
   "S.No.": 191,
   "Area": "Sector 127",
   "District": "Gautam Buddh Nagar",
   "Pincode": 201304
 },
 {
   "S.No.": 192,
   "Area": "Sector 128",
   "District": "Gautam Buddh Nagar",
   "Pincode": 201304
 },
 {
   "S.No.": 193,
   "Area": "Sector 129",
   "District": "Gautam Buddh Nagar",
   "Pincode": 201304
 },
 {
   "S.No.": 194,
   "Area": "Sector 130",
   "District": "Gautam Buddh Nagar",
   "Pincode": 201304
 },
 {
   "S.No.": 195,
   "Area": "Sector 49",
   "District": "Gautam Buddh Nagar",
   "Pincode": 201304
 },
 {
   "S.No.": 196,
   "Area": "Sector 50",
   "District": "Gautam Buddh Nagar",
   "Pincode": 201304
 },
 {
   "S.No.": 197,
   "Area": "Sector 51",
   "District": "Gautam Buddh Nagar",
   "Pincode": 201304
 },
 {
   "S.No.": 198,
   "Area": "Sector 52",
   "District": "Gautam Buddh Nagar",
   "Pincode": 201304
 },
 {
   "S.No.": 199,
   "Area": "Sector 77",
   "District": "Gautam Buddh Nagar",
   "Pincode": 201304
 },
 {
   "S.No.": 200,
   "Area": "Sector 82",
   "District": "Gautam Buddh Nagar",
   "Pincode": 201304
 },
 {
   "S.No.": 201,
   "Area": "Sector 83",
   "District": "Gautam Buddh Nagar",
   "Pincode": 201304
 },
 {
   "S.No.": 202,
   "Area": "Sector 90",
   "District": "Gautam Buddh Nagar",
   "Pincode": 201304
 },
 {
   "S.No.": 203,
   "Area": "Sector 91",
   "District": "Gautam Buddh Nagar",
   "Pincode": 201304
 },
 {
   "S.No.": 204,
   "Area": "Sector 92",
   "District": "Gautam Buddh Nagar",
   "Pincode": 201304
 },
 {
   "S.No.": 205,
   "Area": "Sector 93",
   "District": "Gautam Buddh Nagar",
   "Pincode": 201304
 },
 {
   "S.No.": 206,
   "Area": "Sector 94",
   "District": "Gautam Buddh Nagar",
   "Pincode": 201304
 },
 {
   "S.No.": 207,
   "Area": "Sector 95",
   "District": "Gautam Buddh Nagar",
   "Pincode": 201304
 },
 {
   "S.No.": 208,
   "Area": "Sector 98",
   "District": "Gautam Buddh Nagar",
   "Pincode": 201304
 },
 {
   "S.No.": 209,
   "Area": "Sector 99",
   "District": "Gautam Buddh Nagar",
   "Pincode": 201304
 },
 {
   "S.No.": 210,
   "Area": "Udhog Vihar",
   "District": "Gautam Buddh Nagar",
   "Pincode": 201304
 },
 {
   "S.No.": 211,
   "Area": "Gejha",
   "District": "Gautam Buddh Nagar",
   "Pincode": 201305
 },
 {
   "S.No.": 212,
   "Area": "Gijhor",
   "District": "Gautam Buddh Nagar",
   "Pincode": 201305
 },
 {
   "S.No.": 213,
   "Area": "Salarpur",
   "District": "Gautam Buddh Nagar",
   "Pincode": 201305
 },
 {
   "S.No.": 214,
   "Area": "Sector 106",
   "District": "Gautam Buddh Nagar",
   "Pincode": 201305
 },
 {
   "S.No.": 215,
   "Area": "Sector 108",
   "District": "Gautam Buddh Nagar",
   "Pincode": 201305
 },
 {
   "S.No.": 216,
   "Area": "Sector 110",
   "District": "Gautam Buddh Nagar",
   "Pincode": 201305
 },
 {
   "S.No.": 217,
   "Area": "Sector 111",
   "District": "Gautam Buddh Nagar",
   "Pincode": 201305
 },
 {
   "S.No.": 218,
   "Area": "Sector 112",
   "District": "Gautam Buddh Nagar",
   "Pincode": 201305
 },
 {
   "S.No.": 219,
   "Area": "Sector 113",
   "District": "Gautam Buddh Nagar",
   "Pincode": 201305
 },
 {
   "S.No.": 220,
   "Area": "Sector 116",
   "District": "Gautam Buddh Nagar",
   "Pincode": 201305
 },
 {
   "S.No.": 221,
   "Area": "Sector 119",
   "District": "Gautam Buddh Nagar",
   "Pincode": 201305
 },
 {
   "S.No.": 222,
   "Area": "Sector 123",
   "District": "Gautam Buddh Nagar",
   "Pincode": 201305
 },
 {
   "S.No.": 223,
   "Area": "Sector 124",
   "District": "Gautam Buddh Nagar",
   "Pincode": 201305
 },
 {
   "S.No.": 224,
   "Area": "Sector 125",
   "District": "Gautam Buddh Nagar",
   "Pincode": 201305
 },
 {
   "S.No.": 225,
   "Area": "Sector 126",
   "District": "Gautam Buddh Nagar",
   "Pincode": 201305
 },
 {
   "S.No.": 226,
   "Area": "Sector 127",
   "District": "Gautam Buddh Nagar",
   "Pincode": 201305
 },
 {
   "S.No.": 227,
   "Area": "Sector 128",
   "District": "Gautam Buddh Nagar",
   "Pincode": 201305
 },
 {
   "S.No.": 228,
   "Area": "Sector 129",
   "District": "Gautam Buddh Nagar",
   "Pincode": 201305
 },
 {
   "S.No.": 229,
   "Area": "Sector 130",
   "District": "Gautam Buddh Nagar",
   "Pincode": 201305
 },
 {
   "S.No.": 230,
   "Area": "Sector 68",
   "District": "Gautam Buddh Nagar",
   "Pincode": 201305
 },
 {
   "S.No.": 231,
   "Area": "Sector 78",
   "District": "Gautam Buddh Nagar",
   "Pincode": 201305
 },
 {
   "S.No.": 232,
   "Area": "Sector 80",
   "District": "Gautam Buddh Nagar",
   "Pincode": 201305
 },
 {
   "S.No.": 233,
   "Area": "Sector 81",
   "District": "Gautam Buddh Nagar",
   "Pincode": 201305
 },
 {
   "S.No.": 234,
   "Area": "Sector 82",
   "District": "Gautam Buddh Nagar",
   "Pincode": 201305
 },
 {
   "S.No.": 235,
   "Area": "Sector 83",
   "District": "Gautam Buddh Nagar",
   "Pincode": 201305
 },
 {
   "S.No.": 236,
   "Area": "Sector 84",
   "District": "Gautam Buddh Nagar",
   "Pincode": 201305
 },
 {
   "S.No.": 237,
   "Area": "Sector 85",
   "District": "Gautam Buddh Nagar",
   "Pincode": 201305
 },
 {
   "S.No.": 238,
   "Area": "Sector 86",
   "District": "Gautam Buddh Nagar",
   "Pincode": 201305
 },
 {
   "S.No.": 239,
   "Area": "Sector 87",
   "District": "Gautam Buddh Nagar",
   "Pincode": 201305
 },
 {
   "S.No.": 240,
   "Area": "Sector 88",
   "District": "Gautam Buddh Nagar",
   "Pincode": 201305
 },
 {
   "S.No.": 241,
   "Area": "Sector 89",
   "District": "Gautam Buddh Nagar",
   "Pincode": 201305
 },
 {
   "S.No.": 242,
   "Area": "Sector 90",
   "District": "Gautam Buddh Nagar",
   "Pincode": 201305
 },
 {
   "S.No.": 243,
   "Area": "Sector 91",
   "District": "Gautam Buddh Nagar",
   "Pincode": 201305
 },
 {
   "S.No.": 244,
   "Area": "Sector 92",
   "District": "Gautam Buddh Nagar",
   "Pincode": 201305
 },
 {
   "S.No.": 245,
   "Area": "Sector 93",
   "District": "Gautam Buddh Nagar",
   "Pincode": 201305
 },
 {
   "S.No.": 246,
   "Area": "Sector 94",
   "District": "Gautam Buddh Nagar",
   "Pincode": 201305
 },
 {
   "S.No.": 247,
   "Area": "Gaur City",
   "District": "Gautam Buddh Nagar",
   "Pincode": 201306
 },
 {
   "S.No.": 248,
   "Area": "Sector 112",
   "District": "Gautam Buddh Nagar",
   "Pincode": 201306
 },
 {
   "S.No.": 249,
   "Area": "Sector 113",
   "District": "Gautam Buddh Nagar",
   "Pincode": 201306
 },
 {
   "S.No.": 250,
   "Area": "Sector 115",
   "District": "Gautam Buddh Nagar",
   "Pincode": 201306
 },
 {
   "S.No.": 251,
   "Area": "Sector 116",
   "District": "Gautam Buddh Nagar",
   "Pincode": 201306
 },
 {
   "S.No.": 252,
   "Area": "Sector 118",
   "District": "Gautam Buddh Nagar",
   "Pincode": 201306
 },
 {
   "S.No.": 253,
   "Area": "Sector 120",
   "District": "Gautam Buddh Nagar",
   "Pincode": 201306
 },
 {
   "S.No.": 254,
   "Area": "Sector 123",
   "District": "Gautam Buddh Nagar",
   "Pincode": 201306
 },
 {
   "S.No.": 255,
   "Area": "Sector 16",
   "District": "Gautam Buddh Nagar",
   "Pincode": 201306
 },
 {
   "S.No.": 256,
   "Area": "Sector 16B",
   "District": "Gautam Buddh Nagar",
   "Pincode": 201306
 },
 {
   "S.No.": 257,
   "Area": "Sector 16C",
   "District": "Gautam Buddh Nagar",
   "Pincode": 201306
 },
 {
   "S.No.": 258,
   "Area": "Sector 74",
   "District": "Gautam Buddh Nagar",
   "Pincode": 201306
 },
 {
   "S.No.": 259,
   "Area": "Sector 76",
   "District": "Gautam Buddh Nagar",
   "Pincode": 201306
 },
 {
   "S.No.": 260,
   "Area": "Sector 77",
   "District": "Gautam Buddh Nagar",
   "Pincode": 201306
 },
 {
   "S.No.": 261,
   "Area": "Sector 79",
   "District": "Gautam Buddh Nagar",
   "Pincode": 201306
 },
 {
   "S.No.": 262,
   "Area": "Sector 80",
   "District": "Gautam Buddh Nagar",
   "Pincode": 201306
 },
 {
   "S.No.": 263,
   "Area": "Sector 81",
   "District": "Gautam Buddh Nagar",
   "Pincode": 201306
 },
 {
   "S.No.": 264,
   "Area": "Sector 88",
   "District": "Gautam Buddh Nagar",
   "Pincode": 201306
 },
 {
   "S.No.": 265,
   "Area": "Chhajarsi Colony",
   "District": "Gautam Buddh Nagar",
   "Pincode": 201307
 },
 {
   "S.No.": 266,
   "Area": "Hoshiyarpur Village",
   "District": "Gautam Buddh Nagar",
   "Pincode": 201307
 },
 {
   "S.No.": 267,
   "Area": "Gijhor",
   "District": "Gautam Buddh Nagar",
   "Pincode": 201307
 },
 {
   "S.No.": 268,
   "Area": "Sarfabad",
   "District": "Gautam Buddh Nagar",
   "Pincode": 201307
 },
 {
   "S.No.": 269,
   "Area": "Sector 112",
   "District": "Gautam Buddh Nagar",
   "Pincode": 201307
 },
 {
   "S.No.": 270,
   "Area": "Sector 119",
   "District": "Gautam Buddh Nagar",
   "Pincode": 201307
 },
 {
   "S.No.": 271,
   "Area": "Sector 23",
   "District": "Gautam Buddh Nagar",
   "Pincode": 201307
 },
 {
   "S.No.": 272,
   "Area": "Sector 24",
   "District": "Gautam Buddh Nagar",
   "Pincode": 201307
 },
 {
   "S.No.": 273,
   "Area": "Sector 33",
   "District": "Gautam Buddh Nagar",
   "Pincode": 201307
 },
 {
   "S.No.": 274,
   "Area": "Sector 34",
   "District": "Gautam Buddh Nagar",
   "Pincode": 201307
 },
 {
   "S.No.": 275,
   "Area": "Sector 35",
   "District": "Gautam Buddh Nagar",
   "Pincode": 201307
 },
 {
   "S.No.": 276,
   "Area": "Sector 49",
   "District": "Gautam Buddh Nagar",
   "Pincode": 201307
 },
 {
   "S.No.": 277,
   "Area": "Sector 50",
   "District": "Gautam Buddh Nagar",
   "Pincode": 201307
 },
 {
   "S.No.": 278,
   "Area": "Sector 53",
   "District": "Gautam Buddh Nagar",
   "Pincode": 201307
 },
 {
   "S.No.": 279,
   "Area": "Sector 54",
   "District": "Gautam Buddh Nagar",
   "Pincode": 201307
 },
 {
   "S.No.": 280,
   "Area": "Sector 55",
   "District": "Gautam Buddh Nagar",
   "Pincode": 201307
 },
 {
   "S.No.": 281,
   "Area": "Sector 56",
   "District": "Gautam Buddh Nagar",
   "Pincode": 201307
 },
 {
   "S.No.": 282,
   "Area": "Sector 57",
   "District": "Gautam Buddh Nagar",
   "Pincode": 201307
 },
 {
   "S.No.": 283,
   "Area": "Sector 58",
   "District": "Gautam Buddh Nagar",
   "Pincode": 201307
 },
 {
   "S.No.": 284,
   "Area": "Sector 59",
   "District": "Gautam Buddh Nagar",
   "Pincode": 201307
 },
 {
   "S.No.": 285,
   "Area": "Sector 60",
   "District": "Gautam Buddh Nagar",
   "Pincode": 201307
 },
 {
   "S.No.": 286,
   "Area": "Sector 61",
   "District": "Gautam Buddh Nagar",
   "Pincode": 201307
 },
 {
   "S.No.": 287,
   "Area": "Sector 63",
   "District": "Gautam Buddh Nagar",
   "Pincode": 201307
 },
 {
   "S.No.": 288,
   "Area": "Sector 64",
   "District": "Gautam Buddh Nagar",
   "Pincode": 201307
 },
 {
   "S.No.": 289,
   "Area": "Sector 65",
   "District": "Gautam Buddh Nagar",
   "Pincode": 201307
 },
 {
   "S.No.": 290,
   "Area": "Sector 66",
   "District": "Gautam Buddh Nagar",
   "Pincode": 201307
 },
 {
   "S.No.": 291,
   "Area": "Sector 67",
   "District": "Gautam Buddh Nagar",
   "Pincode": 201307
 },
 {
   "S.No.": 292,
   "Area": "Sector 68",
   "District": "Gautam Buddh Nagar",
   "Pincode": 201307
 },
 {
   "S.No.": 293,
   "Area": "Sector 69",
   "District": "Gautam Buddh Nagar",
   "Pincode": 201307
 },
 {
   "S.No.": 294,
   "Area": "Sector 70",
   "District": "Gautam Buddh Nagar",
   "Pincode": 201307
 },
 {
   "S.No.": 295,
   "Area": "Sector 72",
   "District": "Gautam Buddh Nagar",
   "Pincode": 201307
 },
 {
   "S.No.": 296,
   "Area": "Sector 73",
   "District": "Gautam Buddh Nagar",
   "Pincode": 201307
 },
 {
   "S.No.": 297,
   "Area": "Sector 75",
   "District": "Gautam Buddh Nagar",
   "Pincode": 201307
 },
 {
   "S.No.": 298,
   "Area": "Gaur City",
   "District": "Gautam Buddh Nagar",
   "Pincode": 201308
 },
 {
   "S.No.": 299,
   "Area": "Sector 16",
   "District": "Gautam Buddh Nagar",
   "Pincode": 201308
 },
 {
   "S.No.": 300,
   "Area": "Sector 16B",
   "District": "Gautam Buddh Nagar",
   "Pincode": 201308
 },
 {
   "S.No.": 301,
   "Area": "Sector 16C",
   "District": "Gautam Buddh Nagar",
   "Pincode": 201308
 },
 {
   "S.No.": 302,
   "Area": "Sector 103",
   "District": "Gautam Buddh Nagar",
   "Pincode": 201309
 },
 {
   "S.No.": 303,
   "Area": "Sector 109",
   "District": "Gautam Buddh Nagar",
   "Pincode": 201309
 },
 {
   "S.No.": 304,
   "Area": "Sector 111",
   "District": "Gautam Buddh Nagar",
   "Pincode": 201309
 },
 {
   "S.No.": 305,
   "Area": "Sector 122",
   "District": "Gautam Buddh Nagar",
   "Pincode": 201309
 },
 {
   "S.No.": 306,
   "Area": "Sector 124",
   "District": "Gautam Buddh Nagar",
   "Pincode": 201309
 },
 {
   "S.No.": 307,
   "Area": "Sector 16",
   "District": "Gautam Buddh Nagar",
   "Pincode": 201309
 },
 {
   "S.No.": 308,
   "Area": "Sector 62",
   "District": "Gautam Buddh Nagar",
   "Pincode": 201309
 },
 {
   "S.No.": 309,
   "Area": "Sector 71",
   "District": "Gautam Buddh Nagar",
   "Pincode": 201309
 },
 {
   "S.No.": 310,
   "Area": "Safrabad",
   "District": "Gautam Buddh Nagar",
   "Pincode": 201310
 },
 {
   "S.No.": 311,
   "Area": "Sector 111",
   "District": "Gautam Buddh Nagar",
   "Pincode": 201310
 },
 {
   "S.No.": 312,
   "Area": "Sector 113",
   "District": "Gautam Buddh Nagar",
   "Pincode": 201310
 },
 {
   "S.No.": 313,
   "Area": "Sector 73",
   "District": "Gautam Buddh Nagar",
   "Pincode": 201310
 },
 {
   "S.No.": 314,
   "Area": "Sector 126",
   "District": "Gautam Buddh Nagar",
   "Pincode": 201313
 },
 {
   "S.No.": 315,
   "Area": "Sector 127",
   "District": "Gautam Buddh Nagar",
   "Pincode": 201313
 },

  {
   "S.No.": 316,
   "Area": "Shalimar Garden",
   "District": "Ghaziabad",
   "Pincode": 201005
 }
],

   "South Delhi":[
 {
   "Sr No.": 1,
   "Area": "Aliganj",
   "Pincode": 110003,
   "District": "South Delhi"
 },
 {
   "Sr No.": 2,
   "Area": "CGO Complex",
   "Pincode": 110003,
   "District": "South Delhi"
 },
 {
   "Sr No.": 3,
   "Area": "Delhi High Court",
   "Pincode": 110003,
   "District": "South Delhi"
 },
 {
   "Sr No.": 4,
   "Area": "Golf Links",
   "Pincode": 110003,
   "District": "South Delhi"
 },
 {
   "Sr No.": 5,
   "Area": "Jorbagh",
   "Pincode": 110003,
   "District": "South Delhi"
 },
 {
   "Sr No.": 6,
   "Area": "Kasturba Nagar",
   "Pincode": 110003,
   "District": "South Delhi"
 },
 {
   "Sr No.": 7,
   "Area": "Kotla Mubarakpur",
   "Pincode": 110003,
   "District": "South Delhi"
 },
 {
   "Sr No.": 8,
   "Area": "Lodi Colony market",
   "Pincode": 110003,
   "District": "South Delhi"
 },
 {
   "Sr No.": 9,
   "Area": "Lodhi Road",
   "Pincode": 110003,
   "District": "South Delhi"
 },
 {
   "Sr No.": 10,
   "Area": "Lodi Road",
   "Pincode": 110003,
   "District": "South Delhi"
 },
 {
   "Sr No.": 11,
   "Area": "Pandara Road",
   "Pincode": 110003,
   "District": "South Delhi"
 },
 {
   "Sr No.": 12,
   "Area": "Pragati Vihar",
   "Pincode": 110003,
   "District": "South Delhi"
 },
 {
   "Sr No.": 13,
   "Area": "Safdarjung Air port",
   "Pincode": 110003,
   "District": "South Delhi"
 },
 {
   "Sr No.": 14,
   "Area": "South Ext-I",
   "Pincode": 110003,
   "District": "South Delhi"
 },
 {
   "Sr No.": 15,
   "Area": "Ashram",
   "Pincode": 110014,
   "District": "South Delhi"
 },
 {
   "Sr No.": 16,
   "Area": "Bhogal",
   "Pincode": 110014,
   "District": "South Delhi"
 },
 {
   "Sr No.": 17,
   "Area": "Hari Nagar Ashram",
   "Pincode": 110014,
   "District": "South Delhi"
 },
 {
   "Sr No.": 18,
   "Area": "Jeevan Nagar",
   "Pincode": 110014,
   "District": "South Delhi"
 },
 {
   "Sr No.": 19,
   "Area": "Jangpura",
   "Pincode": 110014,
   "District": "South Delhi"
 },
 {
   "Sr No.": 20,
   "Area": "Jungpura",
   "Pincode": 110014,
   "District": "South Delhi"
 },
 {
   "Sr No.": 21,
   "Area": "Jangpura Ext",
   "Pincode": 110014,
   "District": "South Delhi"
 },
 {
   "Sr No.": 22,
   "Area": "Maharani Bagh",
   "Pincode": 110014,
   "District": "South Delhi"
 },
 {
   "Sr No.": 23,
   "Area": "Pratap Market",
   "Pincode": 110014,
   "District": "South Delhi"
 },
 {
   "Sr No.": 24,
   "Area": "Siddhartha Enclave",
   "Pincode": 110014,
   "District": "South Delhi"
 },
 {
   "Sr No.": 25,
   "Area": "Chirag Delhi",
   "Pincode": 110017,
   "District": "South Delhi"
 },
 {
   "Sr No.": 26,
   "Area": "Distt. Court Complex, Saket",
   "Pincode": 110017,
   "District": "South Delhi"
 },
 {
   "Sr No.": 27,
   "Area": "Geetanjali Enclave",
   "Pincode": 110017,
   "District": "South Delhi"
 },
 {
   "Sr No.": 28,
   "Area": "Hauz Rani",
   "Pincode": 110017,
   "District": "South Delhi"
 },
 {
   "Sr No.": 29,
   "Area": "Khirki",
   "Pincode": 110017,
   "District": "South Delhi"
 },
 {
   "Sr No.": 30,
   "Area": "Malviya Nagar",
   "Pincode": 110017,
   "District": "South Delhi"
 },
 {
   "Sr No.": 31,
   "Area": "MMTC/STC Colony",
   "Pincode": 110017,
   "District": "South Delhi"
 },
 {
   "Sr No.": 32,
   "Area": "Malviya Nagar",
   "Pincode": 110017,
   "District": "South Delhi"
 },
 {
   "Sr No.": 33,
   "Area": "Panchsheel Park",
   "Pincode": 110017,
   "District": "South Delhi"
 },
 {
   "Sr No.": 34,
   "Area": "Panchsheel Enclave",
   "Pincode": 110017,
   "District": "South Delhi"
 },
 {
   "Sr No.": 35,
   "Area": "Pushp Vihar",
   "Pincode": 110017,
   "District": "South Delhi"
 },
 {
   "Sr No.": 36,
   "Area": "Saidulajab",
   "Pincode": 110017,
   "District": "South Delhi"
 },
 {
   "Sr No.": 37,
   "Area": "Saket",
   "Pincode": 110017,
   "District": "South Delhi"
 },
 {
   "Sr No.": 38,
   "Area": "Sarvodya Enclave",
   "Pincode": 110017,
   "District": "South Delhi"
 },
 {
   "Sr No.": 39,
   "Area": "South Malviya Nagar",
   "Pincode": 110017,
   "District": "South Delhi"
 },
 {
   "Sr No.": 40,
   "Area": "Savitri Nagar",
   "Pincode": 110017,
   "District": "South Delhi"
 },
 {
   "Sr No.": 41,
   "Area": "Sheikh Sarai",
   "Pincode": 110017,
   "District": "South Delhi"
 },
 {
   "Sr No.": 42,
   "Area": "Swami Nagar",
   "Pincode": 110017,
   "District": "South Delhi"
 },
 {
   "Sr No.": 43,
   "Area": "Alaknanda",
   "Pincode": 110019,
   "District": "South Delhi"
 },
 {
   "Sr No.": 44,
   "Area": "Chittranjan Park",
   "Pincode": 110019,
   "District": "South Delhi"
 },
 {
   "Sr No.": 45,
   "Area": "Govindpuri",
   "Pincode": 110019,
   "District": "South Delhi"
 },
 {
   "Sr No.": 46,
   "Area": "Kalkaji",
   "Pincode": 110019,
   "District": "South Delhi"
 },
 {
   "Sr No.": 47,
   "Area": "Kalkaji Extension",
   "Pincode": 110019,
   "District": "South Delhi"
 },
 {
   "Sr No.": 48,
   "Area": "Mandakini Enclave",
   "Pincode": 110019,
   "District": "South Delhi"
 },
 {
   "Sr No.": 49,
   "Area": "Nehru Place",
   "Pincode": 110019,
   "District": "South Delhi"
 },
 {
   "Sr No.": 50,
   "Area": "Tehkhand",
   "Pincode": 110019,
   "District": "South Delhi"
 },
 {
   "Sr No.": 51,
   "Area": "Tughlakabad",
   "Pincode": 110019,
   "District": "South Delhi"
 },
 {
   "Sr No.": 52,
   "Area": "Tughlakabad Extension",
   "Pincode": 110019,
   "District": "South Delhi"
 },
 {
   "Sr No.": 53,
   "Area": "Okhla Industrial Area",
   "Pincode": 110020,
   "District": "South Delhi"
 },
 {
   "Sr No.": 54,
   "Area": "Okhla Industrial Area Phase-I",
   "Pincode": 110020,
   "District": "South Delhi"
 },
 {
   "Sr No.": 55,
   "Area": "Okhla Industrial Estate",
   "Pincode": 110020,
   "District": "South Delhi"
 },
 {
   "Sr No.": 56,
   "Area": "Okhla Phase-I",
   "Pincode": 110020,
   "District": "South Delhi"
 },
 {
   "Sr No.": 57,
   "Area": "Okhla Phase-II",
   "Pincode": 110020,
   "District": "South Delhi"
 },
 {
   "Sr No.": 58,
   "Area": "Okhla Phase-III",
   "Pincode": 110020,
   "District": "South Delhi"
 },
 {
   "Sr No.": 59,
   "Area": "Amar Colony",
   "Pincode": 110024,
   "District": "South Delhi"
 },
 {
   "Sr No.": 60,
   "Area": "Defence Colony",
   "Pincode": 110024,
   "District": "South Delhi"
 },
 {
   "Sr No.": 61,
   "Area": "Krishna Market",
   "Pincode": 110024,
   "District": "South Delhi"
 },
 {
   "Sr No.": 62,
   "Area": "Lajpat Nagar",
   "Pincode": 110024,
   "District": "South Delhi"
 },
 {
   "Sr No.": 63,
   "Area": "Abul Fazal Enclave-I",
   "Pincode": 110025,
   "District": "South Delhi"
 },
 {
   "Sr No.": 64,
   "Area": "New Friends colony",
   "Pincode": 110025,
   "District": "South Delhi"
 },
 {
   "Sr No.": 65,
   "Area": "Sukhdev Vihar",
   "Pincode": 110025,
   "District": "South Delhi"
 },
 {
   "Sr No.": 66,
   "Area": "Greater Kailash",
   "Pincode": 110048,
   "District": "South Delhi"
 },
 {
   "Sr No.": 67,
   "Area": "Greater Kailash Part-I",
   "Pincode": 110048,
   "District": "South Delhi"
 },
 {
   "Sr No.": 68,
   "Area": "Greater Kailash Part-II",
   "Pincode": 110048,
   "District": "South Delhi"
 },
 {
   "Sr No.": 69,
   "Area": "Greater Kailash Part-III",
   "Pincode": 110048,
   "District": "South Delhi"
 },
 {
   "Sr No.": 70,
   "Area": "Kailash Colony",
   "Pincode": 110048,
   "District": "South Delhi"
 },
 {
   "Sr No.": 71,
   "Area": "Masjid Moth",
   "Pincode": 110048,
   "District": "South Delhi"
 },
 {
   "Sr No.": 72,
   "Area": "Andrews Ganj",
   "Pincode": 110049,
   "District": "South Delhi"
 },
 {
   "Sr No.": 73,
   "Area": "Gautam Nagar",
   "Pincode": 110049,
   "District": "South Delhi"
 },
 {
   "Sr No.": 74,
   "Area": "Gulmohar Park",
   "Pincode": 110049,
   "District": "South Delhi"
 },
 {
   "Sr No.": 75,
   "Area": "Khel Gaon",
   "Pincode": 110049,
   "District": "South Delhi"
 },
 {
   "Sr No.": 76,
   "Area": "Moolchand",
   "Pincode": 110049,
   "District": "South Delhi"
 },
 {
   "Sr No.": 77,
   "Area": "Neeti Bagh",
   "Pincode": 110049,
   "District": "South Delhi"
 },
 {
   "Sr No.": 78,
   "Area": "New Delhi South Ext-II",
   "Pincode": 110049,
   "District": "South Delhi"
 },
 {
   "Sr No.": 79,
   "Area": "Sadiq Nagar",
   "Pincode": 110049,
   "District": "South Delhi"
 },
 {
   "Sr No.": 80,
   "Area": "Sahpurjat",
   "Pincode": 110049,
   "District": "South Delhi"
 },
 {
   "Sr No.": 81,
   "Area": "South Ex - 1",
   "Pincode": 110049,
   "District": "South Delhi"
 },
 {
   "Sr No.": 82,
   "Area": "South Ex - 2",
   "Pincode": 110049,
   "District": "South Delhi"
 },
 {
   "Sr No.": 83,
   "Area": "East Of Kailash",
   "Pincode": 110065,
   "District": "South Delhi"
 },
 {
   "Sr No.": 84,
   "Area": "East O Kailash Phase-I",
   "Pincode": 110065,
   "District": "South Delhi"
 },
 {
   "Sr No.": 85,
   "Area": "Garhi",
   "Pincode": 110065,
   "District": "South Delhi"
 },
 {
   "Sr No.": 86,
   "Area": "Nehru Nagar",
   "Pincode": 110065,
   "District": "South Delhi"
 },
 {
   "Sr No.": 87,
   "Area": "Sant Nagar",
   "Pincode": 110065,
   "District": "South Delhi"
 },
 {
   "Sr No.": 88,
   "Area": "Sriniwaspuri",
   "Pincode": 110065,
   "District": "South Delhi"
 },
 {
   "Sr No.": 89,
   "Area": "Taimoor Nagar",
   "Pincode": 110065,
   "District": "South Delhi"
 },
 {
   "Sr No.": 90,
   "Area": "Sarita Vihar",
   "Pincode": 110076,
   "District": "South Delhi"
 }
]
   

	
}