{
	
	"Noida" :[
 {
   "S.No.": 1,
   "Area": "Barola",
   "District": "Gautam Buddh Nagar",
   "Pincode": 201301
 },
 {
   "S.No.": 2,
   "Area": "Chhajarsi Colony",
   "District": "Gautam Buddh Nagar",
   "Pincode": 201301
 },
 {
   "S.No.": 3,
   "Area": "Chhalera",
   "District": "Gautam Buddh Nagar",
   "Pincode": 201301
 },
 {
   "S.No.": 4,
   "Area": "Gejha",
   "District": "Gautam Buddh Nagar",
   "Pincode": 201301
 },
 {
   "S.No.": 5,
   "Area": "Gijhor",
   "District": "Gautam Buddh Nagar",
   "Pincode": 201301
 },
 {
   "S.No.": 6,
   "Area": "Hazipur",
   "District": "Gautam Buddh Nagar",
   "Pincode": 201301
 },
 {
   "S.No.": 7,
   "Area": "Hoshiyarpur Village",
   "District": "Gautam Buddh Nagar",
   "Pincode": 201301
 },
 {
   "S.No.": 8,
   "Area": "Hosiery Complex",
   "District": "Gautam Buddh Nagar",
   "Pincode": 201301
 },
 {
   "S.No.": 9,
   "Area": "Khora Colony",
   "District": "Gautam Buddh Nagar",
   "Pincode": 201301
 },
 {
   "S.No.": 10,
   "Area": "Nagla",
   "District": "Gautam Buddh Nagar",
   "Pincode": 201301
 },
 {
   "S.No.": 11,
   "Area": "Raghunathpur",
   "District": "Gautam Buddh Nagar",
   "Pincode": 201301
 },
 {
   "S.No.": 12,
   "Area": "Rajat Vihar",
   "District": "Gautam Buddh Nagar",
   "Pincode": 201301
 },
 {
   "S.No.": 13,
   "Area": "Rasulpur Nawada",
   "District": "Gautam Buddh Nagar",
   "Pincode": 201301
 },
 {
   "S.No.": 14,
   "Area": "Sadarpur",
   "District": "Gautam Buddh Nagar",
   "Pincode": 201301
 },
 {
   "S.No.": 15,
   "Area": "Salarpur",
   "District": "Gautam Buddh Nagar",
   "Pincode": 201301
 },
 {
   "S.No.": 16,
   "Area": "Sarfabad",
   "District": "Gautam Buddh Nagar",
   "Pincode": 201301
 },
 {
   "S.No.": 17,
   "Area": "Sector 1",
   "District": "Gautam Buddh Nagar",
   "Pincode": 201301
 },
 {
   "S.No.": 18,
   "Area": "Sector 2",
   "District": "Gautam Buddh Nagar",
   "Pincode": 201301
 },
 {
   "S.No.": 19,
   "Area": "Sector 3",
   "District": "Gautam Buddh Nagar",
   "Pincode": 201301
 },
 {
   "S.No.": 20,
   "Area": "Sector 4",
   "District": "Gautam Buddh Nagar",
   "Pincode": 201301
 },
 {
   "S.No.": 21,
   "Area": "Sector 5",
   "District": "Gautam Buddh Nagar",
   "Pincode": 201301
 },
 {
   "S.No.": 22,
   "Area": "Sector 6",
   "District": "Gautam Buddh Nagar",
   "Pincode": 201301
 },
 {
   "S.No.": 23,
   "Area": "Sector 7",
   "District": "Gautam Buddh Nagar",
   "Pincode": 201301
 },
 {
   "S.No.": 24,
   "Area": "Sector 8",
   "District": "Gautam Buddh Nagar",
   "Pincode": 201301
 },
 {
   "S.No.": 25,
   "Area": "Sector 9",
   "District": "Gautam Buddh Nagar",
   "Pincode": 201301
 },
 {
   "S.No.": 26,
   "Area": "Sector 10",
   "District": "Gautam Buddh Nagar",
   "Pincode": 201301
 },
 {
   "S.No.": 27,
   "Area": "Sector 11",
   "District": "Gautam Buddh Nagar",
   "Pincode": 201301
 },
 {
   "S.No.": 28,
   "Area": "Sector 12",
   "District": "Gautam Buddh Nagar",
   "Pincode": 201301
 },
 {
   "S.No.": 29,
   "Area": "Sector 14",
   "District": "Gautam Buddh Nagar",
   "Pincode": 201301
 },
 {
   "S.No.": 30,
   "Area": "Sector 15",
   "District": "Gautam Buddh Nagar",
   "Pincode": 201301
 },
 {
   "S.No.": 31,
   "Area": "Sector 15A",
   "District": "Gautam Buddh Nagar",
   "Pincode": 201301
 },
 {
   "S.No.": 32,
   "Area": "Sector 16",
   "District": "Gautam Buddh Nagar",
   "Pincode": 201301
 },
 {
   "S.No.": 33,
   "Area": "Sector 17",
   "District": "Gautam Buddh Nagar",
   "Pincode": 201301
 },
 {
   "S.No.": 34,
   "Area": "Sector 18",
   "District": "Gautam Buddh Nagar",
   "Pincode": 201301
 },
 {
   "S.No.": 35,
   "Area": "Sector 19",
   "District": "Gautam Buddh Nagar",
   "Pincode": 201301
 },
 {
   "S.No.": 36,
   "Area": "Sector 20",
   "District": "Gautam Buddh Nagar",
   "Pincode": 201301
 },
 {
   "S.No.": 37,
   "Area": "Sector 21",
   "District": "Gautam Buddh Nagar",
   "Pincode": 201301
 },
 {
   "S.No.": 38,
   "Area": "Sector 22",
   "District": "Gautam Buddh Nagar",
   "Pincode": 201301
 },
 {
   "S.No.": 39,
   "Area": "Sector 23",
   "District": "Gautam Buddh Nagar",
   "Pincode": 201301
 },
 {
   "S.No.": 40,
   "Area": "Sector 24",
   "District": "Gautam Buddh Nagar",
   "Pincode": 201301
 },
 {
   "S.No.": 41,
   "Area": "Sector 25",
   "District": "Gautam Buddh Nagar",
   "Pincode": 201301
 },
 {
   "S.No.": 42,
   "Area": "Sector 26",
   "District": "Gautam Buddh Nagar",
   "Pincode": 201301
 },
 {
   "S.No.": 43,
   "Area": "Sector 27",
   "District": "Gautam Buddh Nagar",
   "Pincode": 201301
 },
 {
   "S.No.": 44,
   "Area": "Sector 28",
   "District": "Gautam Buddh Nagar",
   "Pincode": 201301
 },
 {
   "S.No.": 45,
   "Area": "Sector 29",
   "District": "Gautam Buddh Nagar",
   "Pincode": 201301
 },
 {
   "S.No.": 46,
   "Area": "Sector 30",
   "District": "Gautam Buddh Nagar",
   "Pincode": 201301
 },
 {
   "S.No.": 47,
   "Area": "Sector 31",
   "District": "Gautam Buddh Nagar",
   "Pincode": 201301
 },
 {
   "S.No.": 48,
   "Area": "Sector 32",
   "District": "Gautam Buddh Nagar",
   "Pincode": 201301
 },
 {
   "S.No.": 49,
   "Area": "Sector 33",
   "District": "Gautam Buddh Nagar",
   "Pincode": 201301
 },
 {
   "S.No.": 50,
   "Area": "Sector 34",
   "District": "Gautam Buddh Nagar",
   "Pincode": 201301
 },
 {
   "S.No.": 51,
   "Area": "Sector 35",
   "District": "Gautam Buddh Nagar",
   "Pincode": 201301
 },
 {
   "S.No.": 52,
   "Area": "Sector 36",
   "District": "Gautam Buddh Nagar",
   "Pincode": 201301
 },
 {
   "S.No.": 53,
   "Area": "Sector 37",
   "District": "Gautam Buddh Nagar",
   "Pincode": 201301
 },
 {
   "S.No.": 54,
   "Area": "Sector 38",
   "District": "Gautam Buddh Nagar",
   "Pincode": 201301
 },
 {
   "S.No.": 55,
   "Area": "Sector 39",
   "District": "Gautam Buddh Nagar",
   "Pincode": 201301
 },
 {
   "S.No.": 56,
   "Area": "Sector 40",
   "District": "Gautam Buddh Nagar",
   "Pincode": 201301
 },
 {
   "S.No.": 57,
   "Area": "Sector 41",
   "District": "Gautam Buddh Nagar",
   "Pincode": 201301
 },
 {
   "S.No.": 58,
   "Area": "Sector 42",
   "District": "Gautam Buddh Nagar",
   "Pincode": 201301
 },
 {
   "S.No.": 59,
   "Area": "Sector 43",
   "District": "Gautam Buddh Nagar",
   "Pincode": 201301
 },
 {
   "S.No.": 60,
   "Area": "Sector 44",
   "District": "Gautam Buddh Nagar",
   "Pincode": 201301
 },
 {
   "S.No.": 61,
   "Area": "Sector 45",
   "District": "Gautam Buddh Nagar",
   "Pincode": 201301
 },
 {
   "S.No.": 62,
   "Area": "Sector 46",
   "District": "Gautam Buddh Nagar",
   "Pincode": 201301
 },
 {
   "S.No.": 63,
   "Area": "Sector 47",
   "District": "Gautam Buddh Nagar",
   "Pincode": 201301
 },
 {
   "S.No.": 64,
   "Area": "Sector 48",
   "District": "Gautam Buddh Nagar",
   "Pincode": 201301
 },
 {
   "S.No.": 65,
   "Area": "Sector 49",
   "District": "Gautam Buddh Nagar",
   "Pincode": 201301
 },
 {
   "S.No.": 66,
   "Area": "Sector 50",
   "District": "Gautam Buddh Nagar",
   "Pincode": 201301
 },
 {
   "S.No.": 67,
   "Area": "Sector 51",
   "District": "Gautam Buddh Nagar",
   "Pincode": 201301
 },
 {
   "S.No.": 68,
   "Area": "Sector 52",
   "District": "Gautam Buddh Nagar",
   "Pincode": 201301
 },
 {
   "S.No.": 69,
   "Area": "Sector 53",
   "District": "Gautam Buddh Nagar",
   "Pincode": 201301
 },
 {
   "S.No.": 70,
   "Area": "Sector 54",
   "District": "Gautam Buddh Nagar",
   "Pincode": 201301
 },
 {
   "S.No.": 71,
   "Area": "Sector 55",
   "District": "Gautam Buddh Nagar",
   "Pincode": 201301
 },
 {
   "S.No.": 72,
   "Area": "Sector 56",
   "District": "Gautam Buddh Nagar",
   "Pincode": 201301
 },
 {
   "S.No.": 73,
   "Area": "Sector 57",
   "District": "Gautam Buddh Nagar",
   "Pincode": 201301
 },
 {
   "S.No.": 74,
   "Area": "Sector 58",
   "District": "Gautam Buddh Nagar",
   "Pincode": 201301
 },
 {
   "S.No.": 75,
   "Area": "Sector 59",
   "District": "Gautam Buddh Nagar",
   "Pincode": 201301
 },
 {
   "S.No.": 76,
   "Area": "Sector 60",
   "District": "Gautam Buddh Nagar",
   "Pincode": 201301
 },
 {
   "S.No.": 77,
   "Area": "Sector 61",
   "District": "Gautam Buddh Nagar",
   "Pincode": 201301
 },
 {
   "S.No.": 78,
   "Area": "Sector 62",
   "District": "Gautam Buddh Nagar",
   "Pincode": 201301
 },
 {
   "S.No.": 79,
   "Area": "Sector 63",
   "District": "Gautam Buddh Nagar",
   "Pincode": 201301
 },
 {
   "S.No.": 80,
   "Area": "Sector 64",
   "District": "Gautam Buddh Nagar",
   "Pincode": 201301
 },
 {
   "S.No.": 81,
   "Area": "Sector 65",
   "District": "Gautam Buddh Nagar",
   "Pincode": 201301
 },
 {
   "S.No.": 82,
   "Area": "Sector 66",
   "District": "Gautam Buddh Nagar",
   "Pincode": 201301
 },
 {
   "S.No.": 83,
   "Area": "Sector 67",
   "District": "Gautam Buddh Nagar",
   "Pincode": 201301
 },
 {
   "S.No.": 84,
   "Area": "Sector 68",
   "District": "Gautam Buddh Nagar",
   "Pincode": 201301
 },
 {
   "S.No.": 85,
   "Area": "Sector 69",
   "District": "Gautam Buddh Nagar",
   "Pincode": 201301
 },
 {
   "S.No.": 86,
   "Area": "Sector 70",
   "District": "Gautam Buddh Nagar",
   "Pincode": 201301
 },
 {
   "S.No.": 87,
   "Area": "Sector 71",
   "District": "Gautam Buddh Nagar",
   "Pincode": 201301
 },
 {
   "S.No.": 88,
   "Area": "Sector 72",
   "District": "Gautam Buddh Nagar",
   "Pincode": 201301
 },
 {
   "S.No.": 89,
   "Area": "Sector 73",
   "District": "Gautam Buddh Nagar",
   "Pincode": 201301
 },
 {
   "S.No.": 90,
   "Area": "Sector 74",
   "District": "Gautam Buddh Nagar",
   "Pincode": 201301
 },
 {
   "S.No.": 91,
   "Area": "Sector 75",
   "District": "Gautam Buddh Nagar",
   "Pincode": 201301
 },
 {
   "S.No.": 92,
   "Area": "Sector 76",
   "District": "Gautam Buddh Nagar",
   "Pincode": 201301
 },
 {
   "S.No.": 93,
   "Area": "Sector 77",
   "District": "Gautam Buddh Nagar",
   "Pincode": 201301
 },
 {
   "S.No.": 94,
   "Area": "Sector 78",
   "District": "Gautam Buddh Nagar",
   "Pincode": 201301
 },
 {
   "S.No.": 95,
   "Area": "Sector 79",
   "District": "Gautam Buddh Nagar",
   "Pincode": 201301
 },
 {
   "S.No.": 96,
   "Area": "Sector 83",
   "District": "Gautam Buddh Nagar",
   "Pincode": 201301
 },
 {
   "S.No.": 97,
   "Area": "Sector 84",
   "District": "Gautam Buddh Nagar",
   "Pincode": 201301
 },
 {
   "S.No.": 98,
   "Area": "Sector 85",
   "District": "Gautam Buddh Nagar",
   "Pincode": 201301
 },
 {
   "S.No.": 99,
   "Area": "Sector 86",
   "District": "Gautam Buddh Nagar",
   "Pincode": 201301
 },
 {
   "S.No.": 100,
   "Area": "Sector 87",
   "District": "Gautam Buddh Nagar",
   "Pincode": 201301
 },
 {
   "S.No.": 101,
   "Area": "Sector 88",
   "District": "Gautam Buddh Nagar",
   "Pincode": 201301
 },
 {
   "S.No.": 102,
   "Area": "Sector 93",
   "District": "Gautam Buddh Nagar",
   "Pincode": 201301
 },
 {
   "S.No.": 103,
   "Area": "Sector 94",
   "District": "Gautam Buddh Nagar",
   "Pincode": 201301
 },
 {
   "S.No.": 104,
   "Area": "Sector 95",
   "District": "Gautam Buddh Nagar",
   "Pincode": 201301
 },
 {
   "S.No.": 105,
   "Area": "Sector 96",
   "District": "Gautam Buddh Nagar",
   "Pincode": 201301
 },
 {
   "S.No.": 106,
   "Area": "Sector 97",
   "District": "Gautam Buddh Nagar",
   "Pincode": 201301
 },
 {
   "S.No.": 107,
   "Area": "Sector 98",
   "District": "Gautam Buddh Nagar",
   "Pincode": 201301
 },
 {
   "S.No.": 108,
   "Area": "Sector 99",
   "District": "Gautam Buddh Nagar",
   "Pincode": 201301
 },
 {
   "S.No.": 109,
   "Area": "Sector 100",
   "District": "Gautam Buddh Nagar",
   "Pincode": 201301
 },
 {
   "S.No.": 110,
   "Area": "Sector 101",
   "District": "Gautam Buddh Nagar",
   "Pincode": 201301
 },
 {
   "S.No.": 111,
   "Area": "Sector 102",
   "District": "Gautam Buddh Nagar",
   "Pincode": 201301
 },
 {
   "S.No.": 112,
   "Area": "Sector 103",
   "District": "Gautam Buddh Nagar",
   "Pincode": 201301
 },
 {
   "S.No.": 113,
   "Area": "Sector 104",
   "District": "Gautam Buddh Nagar",
   "Pincode": 201301
 },
 {
   "S.No.": 114,
   "Area": "Sector 105",
   "District": "Gautam Buddh Nagar",
   "Pincode": 201301
 },
 {
   "S.No.": 115,
   "Area": "Sector 106",
   "District": "Gautam Buddh Nagar",
   "Pincode": 201301
 },
 {
   "S.No.": 116,
   "Area": "Sector 107",
   "District": "Gautam Buddh Nagar",
   "Pincode": 201301
 },
 {
   "S.No.": 117,
   "Area": "Sector 108",
   "District": "Gautam Buddh Nagar",
   "Pincode": 201301
 },
 {
   "S.No.": 118,
   "Area": "Sector 109",
   "District": "Gautam Buddh Nagar",
   "Pincode": 201301
 },
 {
   "S.No.": 119,
   "Area": "Sector 110",
   "District": "Gautam Buddh Nagar",
   "Pincode": 201301
 },
 {
   "S.No.": 120,
   "Area": "Sector 111",
   "District": "Gautam Buddh Nagar",
   "Pincode": 201301
 },
 {
   "S.No.": 121,
   "Area": "Sector 112",
   "District": "Gautam Buddh Nagar",
   "Pincode": 201301
 },
 {
   "S.No.": 122,
   "Area": "Sector 113",
   "District": "Gautam Buddh Nagar",
   "Pincode": 201301
 },
 {
   "S.No.": 123,
   "Area": "Sector 114",
   "District": "Gautam Buddh Nagar",
   "Pincode": 201301
 },
 {
   "S.No.": 124,
   "Area": "Sector 115",
   "District": "Gautam Buddh Nagar",
   "Pincode": 201301
 },
 {
   "S.No.": 125,
   "Area": "Sector 116",
   "District": "Gautam Buddh Nagar",
   "Pincode": 201301
 },
 {
   "S.No.": 126,
   "Area": "Sector 117",
   "District": "Gautam Buddh Nagar",
   "Pincode": 201301
 },
 {
   "S.No.": 127,
   "Area": "Sector 118",
   "District": "Gautam Buddh Nagar",
   "Pincode": 201301
 },
 {
   "S.No.": 128,
   "Area": "Sector 119",
   "District": "Gautam Buddh Nagar",
   "Pincode": 201301
 },
 {
   "S.No.": 129,
   "Area": "Sector 120",
   "District": "Gautam Buddh Nagar",
   "Pincode": 201301
 },
 {
   "S.No.": 130,
   "Area": "Sector 121",
   "District": "Gautam Buddh Nagar",
   "Pincode": 201301
 },
 {
   "S.No.": 131,
   "Area": "Sector 122",
   "District": "Gautam Buddh Nagar",
   "Pincode": 201301
 },
 {
   "S.No.": 132,
   "Area": "Sector 125",
   "District": "Gautam Buddh Nagar",
   "Pincode": 201301
 },
 {
   "S.No.": 133,
   "Area": "Sector 126",
   "District": "Gautam Buddh Nagar",
   "Pincode": 201301
 },
 {
   "S.No.": 134,
   "Area": "Sector 127",
   "District": "Gautam Buddh Nagar",
   "Pincode": 201301
 },
 {
   "S.No.": 135,
   "Area": "Sector 128",
   "District": "Gautam Buddh Nagar",
   "Pincode": 201301
 },
 {
   "S.No.": 136,
   "Area": "Sector 129",
   "District": "Gautam Buddh Nagar",
   "Pincode": 201301
 },
 {
   "S.No.": 137,
   "Area": "Sector 130",
   "District": "Gautam Buddh Nagar",
   "Pincode": 201301
 },
 {
   "S.No.": 138,
   "Area": "Sector 133",
   "District": "Gautam Buddh Nagar",
   "Pincode": 201301
 },
 {
   "S.No.": 139,
   "Area": "Sector 134",
   "District": "Gautam Buddh Nagar",
   "Pincode": 201301
 },
 {
   "S.No.": 140,
   "Area": "Sector 135",
   "District": "Gautam Buddh Nagar",
   "Pincode": 201301
 },
 {
   "S.No.": 141,
   "Area": "Sector 136",
   "District": "Gautam Buddh Nagar",
   "Pincode": 201301
 },
 {
   "S.No.": 142,
   "Area": "Sector 137",
   "District": "Gautam Buddh Nagar",
   "Pincode": 201301
 },
 {
   "S.No.": 143,
   "Area": "Sector 138",
   "District": "Gautam Buddh Nagar",
   "Pincode": 201301
 },
 {
   "S.No.": 144,
   "Area": "Sector 140",
   "District": "Gautam Buddh Nagar",
   "Pincode": 201301
 },
 {
   "S.No.": 145,
   "Area": "Sector 141",
   "District": "Gautam Buddh Nagar",
   "Pincode": 201301
 },
 {
   "S.No.": 146,
   "Area": "Sector 142",
   "District": "Gautam Buddh Nagar",
   "Pincode": 201301
 },
 {
   "S.No.": 147,
   "Area": "Sector 161",
   "District": "Gautam Buddh Nagar",
   "Pincode": 201301
 },
 {
   "S.No.": 148,
   "Area": "Sector 168",
   "District": "Gautam Buddh Nagar",
   "Pincode": 201301
 },
 {
   "S.No.": 149,
   "Area": "Sector 31, Greater Noida",
   "District": "Gautam Buddh Nagar",
   "Pincode": 201302
 },
 {
   "S.No.": 150,
   "Area": "Barola",
   "District": "Gautam Buddh Nagar",
   "Pincode": 201303
 },
 {
   "S.No.": 151,
   "Area": "Chhalera",
   "District": "Gautam Buddh Nagar",
   "Pincode": 201303
 },
 {
   "S.No.": 152,
   "Area": "Gijhor",
   "District": "Gautam Buddh Nagar",
   "Pincode": 201303
 },
 {
   "S.No.": 153,
   "Area": "Sadarpur",
   "District": "Gautam Buddh Nagar",
   "Pincode": 201303
 },
 {
   "S.No.": 154,
   "Area": "Sector 100",
   "District": "Gautam Buddh Nagar",
   "Pincode": 201303
 },
 {
   "S.No.": 155,
   "Area": "Sector 117",
   "District": "Gautam Buddh Nagar",
   "Pincode": 201303
 },
 {
   "S.No.": 156,
   "Area": "Sector 121",
   "District": "Gautam Buddh Nagar",
   "Pincode": 201303
 },
 {
   "S.No.": 157,
   "Area": "Sector 123",
   "District": "Gautam Buddh Nagar",
   "Pincode": 201303
 },
 {
   "S.No.": 158,
   "Area": "Sector 124",
   "District": "Gautam Buddh Nagar",
   "Pincode": 201303
 },
 {
   "S.No.": 159,
   "Area": "Sector 125",
   "District": "Gautam Buddh Nagar",
   "Pincode": 201303
 },
 {
   "S.No.": 160,
   "Area": "Sector 126",
   "District": "Gautam Buddh Nagar",
   "Pincode": 201303
 },
 {
   "S.No.": 161,
   "Area": "Sector 128",
   "District": "Gautam Buddh Nagar",
   "Pincode": 201303
 },
 {
   "S.No.": 162,
   "Area": "Sector 132",
   "District": "Gautam Buddh Nagar",
   "Pincode": 201303
 },
 {
   "S.No.": 163,
   "Area": "Sector 18",
   "District": "Gautam Buddh Nagar",
   "Pincode": 201303
 },
 {
   "S.No.": 164,
   "Area": "Sector 25",
   "District": "Gautam Buddh Nagar",
   "Pincode": 201303
 },
 {
   "S.No.": 165,
   "Area": "Sector 30",
   "District": "Gautam Buddh Nagar",
   "Pincode": 201303
 },
 {
   "S.No.": 166,
   "Area": "Sector 36",
   "District": "Gautam Buddh Nagar",
   "Pincode": 201303
 },
 {
   "S.No.": 167,
   "Area": "Sector 37",
   "District": "Gautam Buddh Nagar",
   "Pincode": 201303
 },
 {
   "S.No.": 168,
   "Area": "Sector 39",
   "District": "Gautam Buddh Nagar",
   "Pincode": 201303
 },
 {
   "S.No.": 169,
   "Area": "Sector 40",
   "District": "Gautam Buddh Nagar",
   "Pincode": 201303
 },
 {
   "S.No.": 170,
   "Area": "Sector 41",
   "District": "Gautam Buddh Nagar",
   "Pincode": 201303
 },
 {
   "S.No.": 171,
   "Area": "Sector 42",
   "District": "Gautam Buddh Nagar",
   "Pincode": 201303
 },
 {
   "S.No.": 172,
   "Area": "Sector 43",
   "District": "Gautam Buddh Nagar",
   "Pincode": 201303
 },
 {
   "S.No.": 173,
   "Area": "Sector 44",
   "District": "Gautam Buddh Nagar",
   "Pincode": 201303
 },
 {
   "S.No.": 174,
   "Area": "Sector 45",
   "District": "Gautam Buddh Nagar",
   "Pincode": 201303
 },
 {
   "S.No.": 175,
   "Area": "Sector 46",
   "District": "Gautam Buddh Nagar",
   "Pincode": 201303
 },
 {
   "S.No.": 176,
   "Area": "Sector 47",
   "District": "Gautam Buddh Nagar",
   "Pincode": 201303
 },
 {
   "S.No.": 177,
   "Area": "Sector 48",
   "District": "Gautam Buddh Nagar",
   "Pincode": 201303
 },
 {
   "S.No.": 178,
   "Area": "Sector 49",
   "District": "Gautam Buddh Nagar",
   "Pincode": 201303
 },
 {
   "S.No.": 179,
   "Area": "Sector 50",
   "District": "Gautam Buddh Nagar",
   "Pincode": 201303
 },
 {
   "S.No.": 180,
   "Area": "Sector 94",
   "District": "Gautam Buddh Nagar",
   "Pincode": 201303
 },
 {
   "S.No.": 181,
   "Area": "Sector 96",
   "District": "Gautam Buddh Nagar",
   "Pincode": 201303
 },
 {
   "S.No.": 182,
   "Area": "Sector 97",
   "District": "Gautam Buddh Nagar",
   "Pincode": 201303
 },
 {
   "S.No.": 183,
   "Area": "Sector 98",
   "District": "Gautam Buddh Nagar",
   "Pincode": 201303
 },
 {
   "S.No.": 184,
   "Area": "Sector 99",
   "District": "Gautam Buddh Nagar",
   "Pincode": 201303
 },
 {
   "S.No.": 185,
   "Area": "Barola",
   "District": "Gautam Buddh Nagar",
   "Pincode": 201304
 },
 {
   "S.No.": 186,
   "Area": "Gejha",
   "District": "Gautam Buddh Nagar",
   "Pincode": 201304
 },
 {
   "S.No.": 187,
   "Area": "Hazipur",
   "District": "Gautam Buddh Nagar",
   "Pincode": 201304
 },
 {
   "S.No.": 188,
   "Area": "Hoshiyarpur Village",
   "District": "Gautam Buddh Nagar",
   "Pincode": 201304
 },
 {
   "S.No.": 189,
   "Area": "Salarpur",
   "District": "Gautam Buddh Nagar",
   "Pincode": 201304
 },
 {
   "S.No.": 190,
   "Area": "Safrabad",
   "District": "Gautam Buddh Nagar",
   "Pincode": 201304
 },
 {
   "S.No.": 191,
   "Area": "Maharishi Nagar",
   "District": "Gautam Buddh Nagar",
   "Pincode": 201304
 },
 {
   "S.No.": 192,
   "Area": "Parthala Khanjarpur",
   "District": "Gautam Buddh Nagar",
   "Pincode": 201304
 },
 {
   "S.No.": 193,
   "Area": "Sector 100 ",
   "District": "Gautam Buddh Nagar",
   "Pincode": 201304
 },
 {
   "S.No.": 194,
   "Area": "Sector 101",
   "District": "Gautam Buddh Nagar",
   "Pincode": 201304
 },
 {
   "S.No.": 195,
   "Area": "Sector 102",
   "District": "Gautam Buddh Nagar",
   "Pincode": 201304
 },
 {
   "S.No.": 196,
   "Area": "Sector 103",
   "District": "Gautam Buddh Nagar",
   "Pincode": 201304
 },
 {
   "S.No.": 197,
   "Area": "Sector 104",
   "District": "Gautam Buddh Nagar",
   "Pincode": 201304
 },
 {
   "S.No.": 198,
   "Area": "Sector 105",
   "District": "Gautam Buddh Nagar",
   "Pincode": 201304
 },
 {
   "S.No.": 199,
   "Area": "Sector 106",
   "District": "Gautam Buddh Nagar",
   "Pincode": 201304
 },
 {
   "S.No.": 200,
   "Area": "Sector 107",
   "District": "Gautam Buddh Nagar",
   "Pincode": 201304
 },
 {
   "S.No.": 201,
   "Area": "Sector 108",
   "District": "Gautam Buddh Nagar",
   "Pincode": 201304
 },
 {
   "S.No.": 202,
   "Area": "Sector 109",
   "District": "Gautam Buddh Nagar",
   "Pincode": 201304
 },
 {
   "S.No.": 203,
   "Area": "Sector 110",
   "District": "Gautam Buddh Nagar",
   "Pincode": 201304
 },
 {
   "S.No.": 204,
   "Area": "Sector 115",
   "District": "Gautam Buddh Nagar",
   "Pincode": 201304
 },
 {
   "S.No.": 205,
   "Area": "Sector 116",
   "District": "Gautam Buddh Nagar",
   "Pincode": 201304
 },
 {
   "S.No.": 206,
   "Area": "Sector 117",
   "District": "Gautam Buddh Nagar",
   "Pincode": 201304
 },
 {
   "S.No.": 207,
   "Area": "Sector 118",
   "District": "Gautam Buddh Nagar",
   "Pincode": 201304
 },
 {
   "S.No.": 208,
   "Area": "Sector 119",
   "District": "Gautam Buddh Nagar",
   "Pincode": 201304
 },
 {
   "S.No.": 209,
   "Area": "Sector 120",
   "District": "Gautam Buddh Nagar",
   "Pincode": 201304
 },
 {
   "S.No.": 210,
   "Area": "Sector 127",
   "District": "Gautam Buddh Nagar",
   "Pincode": 201304
 },
 {
   "S.No.": 211,
   "Area": "Sector 128",
   "District": "Gautam Buddh Nagar",
   "Pincode": 201304
 },
 {
   "S.No.": 212,
   "Area": "Sector 129",
   "District": "Gautam Buddh Nagar",
   "Pincode": 201304
 },
 {
   "S.No.": 213,
   "Area": "Sector 130",
   "District": "Gautam Buddh Nagar",
   "Pincode": 201304
 },
 {
   "S.No.": 214,
   "Area": "Sector 131",
   "District": "Gautam Buddh Nagar",
   "Pincode": 201304
 },
 {
   "S.No.": 215,
   "Area": "Sector 132",
   "District": "Gautam Buddh Nagar",
   "Pincode": 201304
 },
 {
   "S.No.": 216,
   "Area": "Sector 133",
   "District": "Gautam Buddh Nagar",
   "Pincode": 201304
 },
 {
   "S.No.": 217,
   "Area": "Sector 134",
   "District": "Gautam Buddh Nagar",
   "Pincode": 201304
 },
 {
   "S.No.": 218,
   "Area": "Sector 135",
   "District": "Gautam Buddh Nagar",
   "Pincode": 201304
 },
 {
   "S.No.": 219,
   "Area": "Sector 136",
   "District": "Gautam Buddh Nagar",
   "Pincode": 201304
 },
 {
   "S.No.": 220,
   "Area": "Sector 144",
   "District": "Gautam Buddh Nagar",
   "Pincode": 201304
 },
 {
   "S.No.": 221,
   "Area": "Sector 49",
   "District": "Gautam Buddh Nagar",
   "Pincode": 201304
 },
 {
   "S.No.": 222,
   "Area": "Sector 50",
   "District": "Gautam Buddh Nagar",
   "Pincode": 201304
 },
 {
   "S.No.": 223,
   "Area": "Sector 51",
   "District": "Gautam Buddh Nagar",
   "Pincode": 201304
 },
 {
   "S.No.": 224,
   "Area": "Sector 52",
   "District": "Gautam Buddh Nagar",
   "Pincode": 201304
 },
 {
   "S.No.": 225,
   "Area": "Sector 77",
   "District": "Gautam Buddh Nagar",
   "Pincode": 201304
 },
 {
   "S.No.": 226,
   "Area": "Sector 82",
   "District": "Gautam Buddh Nagar",
   "Pincode": 201304
 },
 {
   "S.No.": 227,
   "Area": "Sector 83",
   "District": "Gautam Buddh Nagar",
   "Pincode": 201304
 },
 {
   "S.No.": 228,
   "Area": "Sector 90",
   "District": "Gautam Buddh Nagar",
   "Pincode": 201304
 },
 {
   "S.No.": 229,
   "Area": "Sector 91",
   "District": "Gautam Buddh Nagar",
   "Pincode": 201304
 },
 {
   "S.No.": 230,
   "Area": "Sector 92",
   "District": "Gautam Buddh Nagar",
   "Pincode": 201304
 },
 {
   "S.No.": 231,
   "Area": "Sector 93",
   "District": "Gautam Buddh Nagar",
   "Pincode": 201304
 },
 {
   "S.No.": 232,
   "Area": "Sector 94",
   "District": "Gautam Buddh Nagar",
   "Pincode": 201304
 },
 {
   "S.No.": 233,
   "Area": "Sector 95",
   "District": "Gautam Buddh Nagar",
   "Pincode": 201304
 },
 {
   "S.No.": 234,
   "Area": "Sector 98",
   "District": "Gautam Buddh Nagar",
   "Pincode": 201304
 },
 {
   "S.No.": 235,
   "Area": "Sector 99",
   "District": "Gautam Buddh Nagar",
   "Pincode": 201304
 },
 {
   "S.No.": 236,
   "Area": "Udhog Vihar",
   "District": "Gautam Buddh Nagar",
   "Pincode": 201304
 },
 {
   "S.No.": 237,
   "Area": "Gejha",
   "District": "Gautam Buddh Nagar",
   "Pincode": 201305
 },
 {
   "S.No.": 238,
   "Area": "Gijhor",
   "District": "Gautam Buddh Nagar",
   "Pincode": 201305
 },
 {
   "S.No.": 239,
   "Area": "Hosiery Complex",
   "District": "Gautam Buddh Nagar",
   "Pincode": 201305
 },
 {
   "S.No.": 240,
   "Area": "Nagla Charandas",
   "District": "Gautam Buddh Nagar",
   "Pincode": 201305
 },
 {
   "S.No.": 241,
   "Area": "Nepz",
   "District": "Gautam Buddh Nagar",
   "Pincode": 201305
 },
 {
   "S.No.": 242,
   "Area": "Noida Extension",
   "District": "Gautam Buddh Nagar",
   "Pincode": 201305
 },
 {
   "S.No.": 243,
   "Area": "NSEZ",
   "District": "Gautam Buddh Nagar",
   "Pincode": 201305
 },
 {
   "S.No.": 244,
   "Area": "Salarpur",
   "District": "Gautam Buddh Nagar",
   "Pincode": 201305
 },
 {
   "S.No.": 245,
   "Area": "Sector 106",
   "District": "Gautam Buddh Nagar",
   "Pincode": 201305
 },
 {
   "S.No.": 246,
   "Area": "Sector 108",
   "District": "Gautam Buddh Nagar",
   "Pincode": 201305
 },
 {
   "S.No.": 247,
   "Area": "Sector 110",
   "District": "Gautam Buddh Nagar",
   "Pincode": 201305
 },
 {
   "S.No.": 248,
   "Area": "Sector 111",
   "District": "Gautam Buddh Nagar",
   "Pincode": 201305
 },
 {
   "S.No.": 249,
   "Area": "Sector 112",
   "District": "Gautam Buddh Nagar",
   "Pincode": 201305
 },
 {
   "S.No.": 250,
   "Area": "Sector 113",
   "District": "Gautam Buddh Nagar",
   "Pincode": 201305
 },
 {
   "S.No.": 251,
   "Area": "Sector 116",
   "District": "Gautam Buddh Nagar",
   "Pincode": 201305
 },
 {
   "S.No.": 252,
   "Area": "Sector 119",
   "District": "Gautam Buddh Nagar",
   "Pincode": 201305
 },
 {
   "S.No.": 253,
   "Area": "Sector 123",
   "District": "Gautam Buddh Nagar",
   "Pincode": 201305
 },
 {
   "S.No.": 254,
   "Area": "Sector 124",
   "District": "Gautam Buddh Nagar",
   "Pincode": 201305
 },
 {
   "S.No.": 255,
   "Area": "Sector 125",
   "District": "Gautam Buddh Nagar",
   "Pincode": 201305
 },
 {
   "S.No.": 256,
   "Area": "Sector 126",
   "District": "Gautam Buddh Nagar",
   "Pincode": 201305
 },
 {
   "S.No.": 257,
   "Area": "Sector 127",
   "District": "Gautam Buddh Nagar",
   "Pincode": 201305
 },
 {
   "S.No.": 258,
   "Area": "Sector 128",
   "District": "Gautam Buddh Nagar",
   "Pincode": 201305
 },
 {
   "S.No.": 259,
   "Area": "Sector 129",
   "District": "Gautam Buddh Nagar",
   "Pincode": 201305
 },
 {
   "S.No.": 260,
   "Area": "Sector 130",
   "District": "Gautam Buddh Nagar",
   "Pincode": 201305
 },
 {
   "S.No.": 261,
   "Area": "Sector 131",
   "District": "Gautam Buddh Nagar",
   "Pincode": 201305
 },
 {
   "S.No.": 262,
   "Area": "Sector 132",
   "District": "Gautam Buddh Nagar",
   "Pincode": 201305
 },
 {
   "S.No.": 263,
   "Area": "Sector 133",
   "District": "Gautam Buddh Nagar",
   "Pincode": 201305
 },
 {
   "S.No.": 264,
   "Area": "Sector 134",
   "District": "Gautam Buddh Nagar",
   "Pincode": 201305
 },
 {
   "S.No.": 265,
   "Area": "Sector 135",
   "District": "Gautam Buddh Nagar",
   "Pincode": 201305
 },
 {
   "S.No.": 266,
   "Area": "Sector 136",
   "District": "Gautam Buddh Nagar",
   "Pincode": 201305
 },
 {
   "S.No.": 267,
   "Area": "Sector 137",
   "District": "Gautam Buddh Nagar",
   "Pincode": 201305
 },
 {
   "S.No.": 268,
   "Area": "Sector 138",
   "District": "Gautam Buddh Nagar",
   "Pincode": 201305
 },
 {
   "S.No.": 269,
   "Area": "Sector 139",
   "District": "Gautam Buddh Nagar",
   "Pincode": 201305
 },
 {
   "S.No.": 270,
   "Area": "Sector 140",
   "District": "Gautam Buddh Nagar",
   "Pincode": 201305
 },
 {
   "S.No.": 271,
   "Area": "Sector 141",
   "District": "Gautam Buddh Nagar",
   "Pincode": 201305
 },
 {
   "S.No.": 272,
   "Area": "Sector 142",
   "District": "Gautam Buddh Nagar",
   "Pincode": 201305
 },
 {
   "S.No.": 273,
   "Area": "Sector 143",
   "District": "Gautam Buddh Nagar",
   "Pincode": 201305
 },
 {
   "S.No.": 274,
   "Area": "Sector 144",
   "District": "Gautam Buddh Nagar",
   "Pincode": 201305
 },
 {
   "S.No.": 275,
   "Area": "Sector 145",
   "District": "Gautam Buddh Nagar",
   "Pincode": 201305
 },
 {
   "S.No.": 276,
   "Area": "Sector 146",
   "District": "Gautam Buddh Nagar",
   "Pincode": 201305
 },
 {
   "S.No.": 277,
   "Area": "Sector 147",
   "District": "Gautam Buddh Nagar",
   "Pincode": 201305
 },
 {
   "S.No.": 278,
   "Area": "Sector 161",
   "District": "Gautam Buddh Nagar",
   "Pincode": 201305
 },
 {
   "S.No.": 279,
   "Area": "Sector 162",
   "District": "Gautam Buddh Nagar",
   "Pincode": 201305
 },
 {
   "S.No.": 280,
   "Area": "Sector 168",
   "District": "Gautam Buddh Nagar",
   "Pincode": 201305
 },
 {
   "S.No.": 281,
   "Area": "Sector 68",
   "District": "Gautam Buddh Nagar",
   "Pincode": 201305
 },
 {
   "S.No.": 282,
   "Area": "Sector 78",
   "District": "Gautam Buddh Nagar",
   "Pincode": 201305
 },
 {
   "S.No.": 283,
   "Area": "Sector 80",
   "District": "Gautam Buddh Nagar",
   "Pincode": 201305
 },
 {
   "S.No.": 284,
   "Area": "Sector 81",
   "District": "Gautam Buddh Nagar",
   "Pincode": 201305
 },
 {
   "S.No.": 285,
   "Area": "Sector 82",
   "District": "Gautam Buddh Nagar",
   "Pincode": 201305
 },
 {
   "S.No.": 286,
   "Area": "Sector 83",
   "District": "Gautam Buddh Nagar",
   "Pincode": 201305
 },
 {
   "S.No.": 287,
   "Area": "Sector 84",
   "District": "Gautam Buddh Nagar",
   "Pincode": 201305
 },
 {
   "S.No.": 288,
   "Area": "Sector 85",
   "District": "Gautam Buddh Nagar",
   "Pincode": 201305
 },
 {
   "S.No.": 289,
   "Area": "Sector 86",
   "District": "Gautam Buddh Nagar",
   "Pincode": 201305
 },
 {
   "S.No.": 290,
   "Area": "Sector 87",
   "District": "Gautam Buddh Nagar",
   "Pincode": 201305
 },
 {
   "S.No.": 291,
   "Area": "Sector 88",
   "District": "Gautam Buddh Nagar",
   "Pincode": 201305
 },
 {
   "S.No.": 292,
   "Area": "Sector 89",
   "District": "Gautam Buddh Nagar",
   "Pincode": 201305
 },
 {
   "S.No.": 293,
   "Area": "Sector 90",
   "District": "Gautam Buddh Nagar",
   "Pincode": 201305
 },
 {
   "S.No.": 294,
   "Area": "Sector 91",
   "District": "Gautam Buddh Nagar",
   "Pincode": 201305
 },
 {
   "S.No.": 295,
   "Area": "Sector 92",
   "District": "Gautam Buddh Nagar",
   "Pincode": 201305
 },
 {
   "S.No.": 296,
   "Area": "Sector 93",
   "District": "Gautam Buddh Nagar",
   "Pincode": 201305
 },
 {
   "S.No.": 297,
   "Area": "Sector 94",
   "District": "Gautam Buddh Nagar",
   "Pincode": 201305
 },
 {
   "S.No.": 298,
   "Area": "Alpha 1",
   "District": "Gautam Buddh Nagar",
   "Pincode": 201306
 },
 {
   "S.No.": 299,
   "Area": "AWHO Society",
   "District": "Gautam Buddh Nagar",
   "Pincode": 201306
 },
 {
   "S.No.": 300,
   "Area": "Bisrakh",
   "District": "Gautam Buddh Nagar",
   "Pincode": 201306
 },
 {
   "S.No.": 301,
   "Area": "Delta 1",
   "District": "Gautam Buddh Nagar",
   "Pincode": 201306
 },
 {
   "S.No.": 302,
   "Area": "Delta 2",
   "District": "Gautam Buddh Nagar",
   "Pincode": 201306
 },
 {
   "S.No.": 303,
   "Area": "Delta 3",
   "District": "Gautam Buddh Nagar",
   "Pincode": 201306
 },
 {
   "S.No.": 304,
   "Area": "Devla",
   "District": "Gautam Buddh Nagar",
   "Pincode": 201306
 },
 {
   "S.No.": 305,
   "Area": "Ecotech 1",
   "District": "Gautam Buddh Nagar",
   "Pincode": 201306
 },
 {
   "S.No.": 306,
   "Area": "Ecotech 2",
   "District": "Gautam Buddh Nagar",
   "Pincode": 201306
 },
 {
   "S.No.": 307,
   "Area": "Ecotech 3",
   "District": "Gautam Buddh Nagar",
   "Pincode": 201306
 },
 {
   "S.No.": 308,
   "Area": "Gaur City",
   "District": "Gautam Buddh Nagar",
   "Pincode": 201306
 },
 {
   "S.No.": 309,
   "Area": "Kulesra",
   "District": "Gautam Buddh Nagar",
   "Pincode": 201306
 },
 {
   "S.No.": 310,
   "Area": "Sakipur",
   "District": "Gautam Buddh Nagar",
   "Pincode": 201306
 },
 {
   "S.No.": 311,
   "Area": "Noida Extension",
   "District": "Gautam Buddh Nagar",
   "Pincode": 201306
 },
 {
   "S.No.": 312,
   "Area": "Sector 1",
   "District": "Gautam Buddh Nagar",
   "Pincode": 201306
 },
 {
   "S.No.": 313,
   "Area": "Sector 1, Greater Noida",
   "District": "Gautam Buddh Nagar",
   "Pincode": 201306
 },
 {
   "S.No.": 314,
   "Area": "Sector 12, Greater Noida",
   "District": "Gautam Buddh Nagar",
   "Pincode": 201306
 },
 {
   "S.No.": 315,
   "Area": "Sector 112",
   "District": "Gautam Buddh Nagar",
   "Pincode": 201306
 },
 {
   "S.No.": 316,
   "Area": "Sector 113",
   "District": "Gautam Buddh Nagar",
   "Pincode": 201306
 },
 {
   "S.No.": 317,
   "Area": "Sector 115",
   "District": "Gautam Buddh Nagar",
   "Pincode": 201306
 },
 {
   "S.No.": 318,
   "Area": "Sector 116",
   "District": "Gautam Buddh Nagar",
   "Pincode": 201306
 },
 {
   "S.No.": 319,
   "Area": "Sector 118",
   "District": "Gautam Buddh Nagar",
   "Pincode": 201306
 },
 {
   "S.No.": 320,
   "Area": "Sector 120",
   "District": "Gautam Buddh Nagar",
   "Pincode": 201306
 },
 {
   "S.No.": 321,
   "Area": "Sector 123",
   "District": "Gautam Buddh Nagar",
   "Pincode": 201306
 },
 {
   "S.No.": 322,
   "Area": "Sector 131",
   "District": "Gautam Buddh Nagar",
   "Pincode": 201306
 },
 {
   "S.No.": 323,
   "Area": "Sector 143",
   "District": "Gautam Buddh Nagar",
   "Pincode": 201306
 },
 {
   "S.No.": 324,
   "Area": "Sector 144",
   "District": "Gautam Buddh Nagar",
   "Pincode": 201306
 },
 {
   "S.No.": 325,
   "Area": "Sector 145",
   "District": "Gautam Buddh Nagar",
   "Pincode": 201306
 },
 {
   "S.No.": 326,
   "Area": "Sector 146",
   "District": "Gautam Buddh Nagar",
   "Pincode": 201306
 },
 {
   "S.No.": 327,
   "Area": "Sector 16",
   "District": "Gautam Buddh Nagar",
   "Pincode": 201306
 },
 {
   "S.No.": 328,
   "Area": "Sector 16B",
   "District": "Gautam Buddh Nagar",
   "Pincode": 201306
 },
 {
   "S.No.": 329,
   "Area": "Sector 16C",
   "District": "Gautam Buddh Nagar",
   "Pincode": 201306
 },
 {
   "S.No.": 330,
   "Area": "Sector 162",
   "District": "Gautam Buddh Nagar",
   "Pincode": 201306
 },
 {
   "S.No.": 331,
   "Area": "Sector 163",
   "District": "Gautam Buddh Nagar",
   "Pincode": 201306
 },
 {
   "S.No.": 332,
   "Area": "Sector 164",
   "District": "Gautam Buddh Nagar",
   "Pincode": 201306
 },
 {
   "S.No.": 333,
   "Area": "Sector 165",
   "District": "Gautam Buddh Nagar",
   "Pincode": 201306
 },
 {
   "S.No.": 334,
   "Area": "Sector 166",
   "District": "Gautam Buddh Nagar",
   "Pincode": 201306
 },
 {
   "S.No.": 335,
   "Area": "Sector 167",
   "District": "Gautam Buddh Nagar",
   "Pincode": 201306
 },
 {
   "S.No.": 336,
   "Area": "Sector 74",
   "District": "Gautam Buddh Nagar",
   "Pincode": 201306
 },
 {
   "S.No.": 337,
   "Area": "Sector 76",
   "District": "Gautam Buddh Nagar",
   "Pincode": 201306
 },
 {
   "S.No.": 338,
   "Area": "Sector 77",
   "District": "Gautam Buddh Nagar",
   "Pincode": 201306
 },
 {
   "S.No.": 339,
   "Area": "Sector 79",
   "District": "Gautam Buddh Nagar",
   "Pincode": 201306
 },
 {
   "S.No.": 340,
   "Area": "Sector 80",
   "District": "Gautam Buddh Nagar",
   "Pincode": 201306
 },
 {
   "S.No.": 341,
   "Area": "Sector 81",
   "District": "Gautam Buddh Nagar",
   "Pincode": 201306
 },
 {
   "S.No.": 342,
   "Area": "Sector 88",
   "District": "Gautam Buddh Nagar",
   "Pincode": 201306
 },
 {
   "S.No.": 343,
   "Area": "Sigma 2",
   "District": "Gautam Buddh Nagar",
   "Pincode": 201306
 },
 {
   "S.No.": 344,
   "Area": "Sigma 3",
   "District": "Gautam Buddh Nagar",
   "Pincode": 201306
 },
 {
   "S.No.": 345,
   "Area": "Surajpur",
   "District": "Gautam Buddh Nagar",
   "Pincode": 201306
 },
 {
   "S.No.": 346,
   "Area": "Techzone 4",
   "District": "Gautam Buddh Nagar",
   "Pincode": 201306
 },
 {
   "S.No.": 347,
   "Area": "Tilapta",
   "District": "Gautam Buddh Nagar",
   "Pincode": 201306
 },
 {
   "S.No.": 348,
   "Area": "Udyog Vihar",
   "District": "Gautam Buddh Nagar",
   "Pincode": 201306
 },
 {
   "S.No.": 349,
   "Area": "Zeta 1",
   "District": "Gautam Buddh Nagar",
   "Pincode": 201306
 },
 {
   "S.No.": 350,
   "Area": "Zeta 2",
   "District": "Gautam Buddh Nagar",
   "Pincode": 201306
 },
 {
   "S.No.": 351,
   "Area": "Zeta 3",
   "District": "Gautam Buddh Nagar",
   "Pincode": 201306
 },
 {
   "S.No.": 352,
   "Area": "Chhajarsi Colony",
   "District": "Gautam Buddh Nagar",
   "Pincode": 201307
 },
 {
   "S.No.": 353,
   "Area": "Hoshiyarpur Village",
   "District": "Gautam Buddh Nagar",
   "Pincode": 201307
 },
 {
   "S.No.": 354,
   "Area": "Gijhor",
   "District": "Gautam Buddh Nagar",
   "Pincode": 201307
 },
 {
   "S.No.": 355,
   "Area": "Khora Colony",
   "District": "Gautam Buddh Nagar",
   "Pincode": 201307
 },
 {
   "S.No.": 356,
   "Area": "Rajat Vihar",
   "District": "Gautam Buddh Nagar",
   "Pincode": 201307
 },
 {
   "S.No.": 357,
   "Area": "Sarfabad",
   "District": "Gautam Buddh Nagar",
   "Pincode": 201307
 },
 {
   "S.No.": 358,
   "Area": "Sector 112",
   "District": "Gautam Buddh Nagar",
   "Pincode": 201307
 },
 {
   "S.No.": 359,
   "Area": "Sector 119",
   "District": "Gautam Buddh Nagar",
   "Pincode": 201307
 },
 {
   "S.No.": 360,
   "Area": "Sector 131",
   "District": "Gautam Buddh Nagar",
   "Pincode": 201307
 },
 {
   "S.No.": 361,
   "Area": "Sector 132",
   "District": "Gautam Buddh Nagar",
   "Pincode": 201307
 },
 {
   "S.No.": 362,
   "Area": "Sector 134",
   "District": "Gautam Buddh Nagar",
   "Pincode": 201307
 },
 {
   "S.No.": 363,
   "Area": "Sector 23",
   "District": "Gautam Buddh Nagar",
   "Pincode": 201307
 },
 {
   "S.No.": 364,
   "Area": "Sector 24",
   "District": "Gautam Buddh Nagar",
   "Pincode": 201307
 },
 {
   "S.No.": 365,
   "Area": "Sector 33",
   "District": "Gautam Buddh Nagar",
   "Pincode": 201307
 },
 {
   "S.No.": 366,
   "Area": "Sector 34",
   "District": "Gautam Buddh Nagar",
   "Pincode": 201307
 },
 {
   "S.No.": 367,
   "Area": "Sector 35",
   "District": "Gautam Buddh Nagar",
   "Pincode": 201307
 },
 {
   "S.No.": 368,
   "Area": "Sector 49",
   "District": "Gautam Buddh Nagar",
   "Pincode": 201307
 },
 {
   "S.No.": 369,
   "Area": "Sector 50",
   "District": "Gautam Buddh Nagar",
   "Pincode": 201307
 },
 {
   "S.No.": 370,
   "Area": "Sector 53",
   "District": "Gautam Buddh Nagar",
   "Pincode": 201307
 },
 {
   "S.No.": 371,
   "Area": "Sector 54",
   "District": "Gautam Buddh Nagar",
   "Pincode": 201307
 },
 {
   "S.No.": 372,
   "Area": "Sector 55",
   "District": "Gautam Buddh Nagar",
   "Pincode": 201307
 },
 {
   "S.No.": 373,
   "Area": "Sector 56",
   "District": "Gautam Buddh Nagar",
   "Pincode": 201307
 },
 {
   "S.No.": 374,
   "Area": "Sector 57",
   "District": "Gautam Buddh Nagar",
   "Pincode": 201307
 },
 {
   "S.No.": 375,
   "Area": "Sector 58",
   "District": "Gautam Buddh Nagar",
   "Pincode": 201307
 },
 {
   "S.No.": 376,
   "Area": "Sector 59",
   "District": "Gautam Buddh Nagar",
   "Pincode": 201307
 },
 {
   "S.No.": 377,
   "Area": "Sector 60",
   "District": "Gautam Buddh Nagar",
   "Pincode": 201307
 },
 {
   "S.No.": 378,
   "Area": "Sector 61",
   "District": "Gautam Buddh Nagar",
   "Pincode": 201307
 },
 {
   "S.No.": 379,
   "Area": "Sector 63",
   "District": "Gautam Buddh Nagar",
   "Pincode": 201307
 },
 {
   "S.No.": 380,
   "Area": "Sector 64",
   "District": "Gautam Buddh Nagar",
   "Pincode": 201307
 },
 {
   "S.No.": 381,
   "Area": "Sector 65",
   "District": "Gautam Buddh Nagar",
   "Pincode": 201307
 },
 {
   "S.No.": 382,
   "Area": "Sector 66",
   "District": "Gautam Buddh Nagar",
   "Pincode": 201307
 },
 {
   "S.No.": 383,
   "Area": "Sector 67",
   "District": "Gautam Buddh Nagar",
   "Pincode": 201307
 },
 {
   "S.No.": 384,
   "Area": "Sector 68",
   "District": "Gautam Buddh Nagar",
   "Pincode": 201307
 },
 {
   "S.No.": 385,
   "Area": "Sector 69",
   "District": "Gautam Buddh Nagar",
   "Pincode": 201307
 },
 {
   "S.No.": 386,
   "Area": "Sector 70",
   "District": "Gautam Buddh Nagar",
   "Pincode": 201307
 },
 {
   "S.No.": 387,
   "Area": "Sector 72",
   "District": "Gautam Buddh Nagar",
   "Pincode": 201307
 },
 {
   "S.No.": 388,
   "Area": "Sector 73",
   "District": "Gautam Buddh Nagar",
   "Pincode": 201307
 },
 {
   "S.No.": 389,
   "Area": "Sector 75",
   "District": "Gautam Buddh Nagar",
   "Pincode": 201307
 },
 {
   "S.No.": 390,
   "Area": "Aicher",
   "District": "Gautam Buddh Nagar",
   "Pincode": 201308
 },
 {
   "S.No.": 391,
   "Area": "Alpha 1",
   "District": "Gautam Buddh Nagar",
   "Pincode": 201308
 },
 {
   "S.No.": 392,
   "Area": "Alpha 2",
   "District": "Gautam Buddh Nagar",
   "Pincode": 201308
 },
 {
   "S.No.": 393,
   "Area": "Beta 1",
   "District": "Gautam Buddh Nagar",
   "Pincode": 201308
 },
 {
   "S.No.": 394,
   "Area": "Beta 2",
   "District": "Gautam Buddh Nagar",
   "Pincode": 201308
 },
 {
   "S.No.": 395,
   "Area": "Chi 1",
   "District": "Gautam Buddh Nagar",
   "Pincode": 201308
 },
 {
   "S.No.": 396,
   "Area": "Chi 2",
   "District": "Gautam Buddh Nagar",
   "Pincode": 201308
 },
 {
   "S.No.": 397,
   "Area": "Chi 3",
   "District": "Gautam Buddh Nagar",
   "Pincode": 201308
 },
 {
   "S.No.": 398,
   "Area": "Chi 4",
   "District": "Gautam Buddh Nagar",
   "Pincode": 201308
 },
 {
   "S.No.": 399,
   "Area": "Delta 1",
   "District": "Gautam Buddh Nagar",
   "Pincode": 201308
 },
 {
   "S.No.": 400,
   "Area": "Delta 2",
   "District": "Gautam Buddh Nagar",
   "Pincode": 201308
 },
 {
   "S.No.": 401,
   "Area": "Delta 3",
   "District": "Gautam Buddh Nagar",
   "Pincode": 201308
 },
 {
   "S.No.": 402,
   "Area": "Ecotech 1",
   "District": "Gautam Buddh Nagar",
   "Pincode": 201308
 },
 {
   "S.No.": 403,
   "Area": "Ecotech 2",
   "District": "Gautam Buddh Nagar",
   "Pincode": 201308
 },
 {
   "S.No.": 404,
   "Area": "Ecotech 3",
   "District": "Gautam Buddh Nagar",
   "Pincode": 201308
 },
 {
   "S.No.": 405,
   "Area": "Eta 1",
   "District": "Gautam Buddh Nagar",
   "Pincode": 201308
 },
 {
   "S.No.": 406,
   "Area": "Eta 2",
   "District": "Gautam Buddh Nagar",
   "Pincode": 201308
 },
 {
   "S.No.": 407,
   "Area": "Gamma 1",
   "District": "Gautam Buddh Nagar",
   "Pincode": 201308
 },
 {
   "S.No.": 408,
   "Area": "Gamma 2",
   "District": "Gautam Buddh Nagar",
   "Pincode": 201308
 },
 {
   "S.No.": 409,
   "Area": "Gaur City",
   "District": "Gautam Buddh Nagar",
   "Pincode": 201308
 },
 {
   "S.No.": 410,
   "Area": "Knowledge Park 3",
   "District": "Gautam Buddh Nagar",
   "Pincode": 201308
 },
 {
   "S.No.": 411,
   "Area": "MU 1",
   "District": "Gautam Buddh Nagar",
   "Pincode": 201308
 },
 {
   "S.No.": 412,
   "Area": "MU 2",
   "District": "Gautam Buddh Nagar",
   "Pincode": 201308
 },
 {
   "S.No.": 413,
   "Area": "Nepz",
   "District": "Gautam Buddh Nagar",
   "Pincode": 201308
 },
 {
   "S.No.": 414,
   "Area": "Noida Extension",
   "District": "Gautam Buddh Nagar",
   "Pincode": 201308
 },
 {
   "S.No.": 415,
   "Area": "NTPC Anandam",
   "District": "Gautam Buddh Nagar",
   "Pincode": 201308
 },
 {
   "S.No.": 416,
   "Area": "Omega 1",
   "District": "Gautam Buddh Nagar",
   "Pincode": 201308
 },
 {
   "S.No.": 417,
   "Area": "Omega 2",
   "District": "Gautam Buddh Nagar",
   "Pincode": 201308
 },
 {
   "S.No.": 418,
   "Area": "Omega 3",
   "District": "Gautam Buddh Nagar",
   "Pincode": 201308
 },
 {
   "S.No.": 419,
   "Area": "Omega 4",
   "District": "Gautam Buddh Nagar",
   "Pincode": 201308
 },
 {
   "S.No.": 420,
   "Area": "Omicron 1",
   "District": "Gautam Buddh Nagar",
   "Pincode": 201308
 },
 {
   "S.No.": 421,
   "Area": "Omicron 2",
   "District": "Gautam Buddh Nagar",
   "Pincode": 201308
 },
 {
   "S.No.": 422,
   "Area": "Omicron 3",
   "District": "Gautam Buddh Nagar",
   "Pincode": 201308
 },
 {
   "S.No.": 423,
   "Area": "Pi 1",
   "District": "Gautam Buddh Nagar",
   "Pincode": 201308
 },
 {
   "S.No.": 424,
   "Area": "Pi 2",
   "District": "Gautam Buddh Nagar",
   "Pincode": 201308
 },
 {
   "S.No.": 425,
   "Area": "Sector 1, Greater Noida",
   "District": "Gautam Buddh Nagar",
   "Pincode": 201308
 },
 {
   "S.No.": 426,
   "Area": "Sector 10, Greater Noida",
   "District": "Gautam Buddh Nagar",
   "Pincode": 201308
 },
 {
   "S.No.": 427,
   "Area": "Sector 12, Greater Noida",
   "District": "Gautam Buddh Nagar",
   "Pincode": 201308
 },
 {
   "S.No.": 428,
   "Area": "Sector 16",
   "District": "Gautam Buddh Nagar",
   "Pincode": 201308
 },
 {
   "S.No.": 429,
   "Area": "Sector 16B",
   "District": "Gautam Buddh Nagar",
   "Pincode": 201308
 },
 {
   "S.No.": 430,
   "Area": "Sector 16C",
   "District": "Gautam Buddh Nagar",
   "Pincode": 201308
 },
 {
   "S.No.": 431,
   "Area": "Sector 37, Greater Noida",
   "District": "Gautam Buddh Nagar",
   "Pincode": 201308
 },
 {
   "S.No.": 432,
   "Area": "Sigma 2",
   "District": "Gautam Buddh Nagar",
   "Pincode": 201308
 },
 {
   "S.No.": 433,
   "Area": "Sigma 3",
   "District": "Gautam Buddh Nagar",
   "Pincode": 201308
 },
 {
   "S.No.": 434,
   "Area": "Sigma 4",
   "District": "Gautam Buddh Nagar",
   "Pincode": 201308
 },
 {
   "S.No.": 435,
   "Area": "Surajpur",
   "District": "Gautam Buddh Nagar",
   "Pincode": 201308
 },
 {
   "S.No.": 436,
   "Area": "Techzon 4",
   "District": "Gautam Buddh Nagar",
   "Pincode": 201308
 },
 {
   "S.No.": 437,
   "Area": "Theta 1",
   "District": "Gautam Buddh Nagar",
   "Pincode": 201308
 },
 {
   "S.No.": 438,
   "Area": "Theta 2",
   "District": "Gautam Buddh Nagar",
   "Pincode": 201308
 },
 {
   "S.No.": 439,
   "Area": "Tilapta",
   "District": "Gautam Buddh Nagar",
   "Pincode": 201308
 },
 {
   "S.No.": 440,
   "Area": "Udyog Vihar",
   "District": "Gautam Buddh Nagar",
   "Pincode": 201308
 },
 {
   "S.No.": 441,
   "Area": "XU 1",
   "District": "Gautam Buddh Nagar",
   "Pincode": 201308
 },
 {
   "S.No.": 442,
   "Area": "XU 2",
   "District": "Gautam Buddh Nagar",
   "Pincode": 201308
 },
 {
   "S.No.": 443,
   "Area": "Zeta 1",
   "District": "Gautam Buddh Nagar",
   "Pincode": 201308
 },
 {
   "S.No.": 444,
   "Area": "Zeta 2",
   "District": "Gautam Buddh Nagar",
   "Pincode": 201308
 },
 {
   "S.No.": 445,
   "Area": "Zeta 3",
   "District": "Gautam Buddh Nagar",
   "Pincode": 201308
 },
 {
   "S.No.": 446,
   "Area": "Khora Colony",
   "District": "Gautam Buddh Nagar",
   "Pincode": 201309
 },
 {
   "S.No.": 447,
   "Area": "Rasulpur Nawada",
   "District": "Gautam Buddh Nagar",
   "Pincode": 201309
 },
 {
   "S.No.": 448,
   "Area": "Sector 103",
   "District": "Gautam Buddh Nagar",
   "Pincode": 201309
 },
 {
   "S.No.": 449,
   "Area": "Sector 109",
   "District": "Gautam Buddh Nagar",
   "Pincode": 201309
 },
 {
   "S.No.": 450,
   "Area": "Sector 111",
   "District": "Gautam Buddh Nagar",
   "Pincode": 201309
 },
 {
   "S.No.": 451,
   "Area": "Sector 122",
   "District": "Gautam Buddh Nagar",
   "Pincode": 201309
 },
 {
   "S.No.": 452,
   "Area": "Sector 124",
   "District": "Gautam Buddh Nagar",
   "Pincode": 201309
 },
 {
   "S.No.": 453,
   "Area": "Sector 149",
   "District": "Gautam Buddh Nagar",
   "Pincode": 201309
 },
 {
   "S.No.": 454,
   "Area": "Sector 150",
   "District": "Gautam Buddh Nagar",
   "Pincode": 201309
 },
 {
   "S.No.": 455,
   "Area": "Sector 16",
   "District": "Gautam Buddh Nagar",
   "Pincode": 201309
 },
 {
   "S.No.": 456,
   "Area": "Sector 62",
   "District": "Gautam Buddh Nagar",
   "Pincode": 201309
 },
 {
   "S.No.": 457,
   "Area": "Sector 71",
   "District": "Gautam Buddh Nagar",
   "Pincode": 201309
 },
 {
   "S.No.": 458,
   "Area": "Aicher",
   "District": "Gautam Buddh Nagar",
   "Pincode": 201310
 },
 {
   "S.No.": 459,
   "Area": "Alpha 1",
   "District": "Gautam Buddh Nagar",
   "Pincode": 201310
 },
 {
   "S.No.": 460,
   "Area": "Alpha 2",
   "District": "Gautam Buddh Nagar",
   "Pincode": 201310
 },
 {
   "S.No.": 461,
   "Area": "Beta 1",
   "District": "Gautam Buddh Nagar",
   "Pincode": 201310
 },
 {
   "S.No.": 462,
   "Area": "Beta 2",
   "District": "Gautam Buddh Nagar",
   "Pincode": 201310
 },
 {
   "S.No.": 463,
   "Area": "Chi 1",
   "District": "Gautam Buddh Nagar",
   "Pincode": 201310
 },
 {
   "S.No.": 464,
   "Area": "Chi 2",
   "District": "Gautam Buddh Nagar",
   "Pincode": 201310
 },
 {
   "S.No.": 465,
   "Area": "Chi 3",
   "District": "Gautam Buddh Nagar",
   "Pincode": 201310
 },
 {
   "S.No.": 466,
   "Area": "Chi 4",
   "District": "Gautam Buddh Nagar",
   "Pincode": 201310
 },
 {
   "S.No.": 467,
   "Area": "Chi 5",
   "District": "Gautam Buddh Nagar",
   "Pincode": 201310
 },
 {
   "S.No.": 468,
   "Area": "Delta 1",
   "District": "Gautam Buddh Nagar",
   "Pincode": 201310
 },
 {
   "S.No.": 469,
   "Area": "Delta 2",
   "District": "Gautam Buddh Nagar",
   "Pincode": 201310
 },
 {
   "S.No.": 470,
   "Area": "Delta 3",
   "District": "Gautam Buddh Nagar",
   "Pincode": 201310
 },
 {
   "S.No.": 471,
   "Area": "Devla",
   "District": "Gautam Buddh Nagar",
   "Pincode": 201310
 },
 {
   "S.No.": 472,
   "Area": "Ecotech 1",
   "District": "Gautam Buddh Nagar",
   "Pincode": 201310
 },
 {
   "S.No.": 473,
   "Area": "Ecotech 2",
   "District": "Gautam Buddh Nagar",
   "Pincode": 201310
 },
 {
   "S.No.": 474,
   "Area": "Ecotech 3",
   "District": "Gautam Buddh Nagar",
   "Pincode": 201310
 },
 {
   "S.No.": 475,
   "Area": "Eta 1",
   "District": "Gautam Buddh Nagar",
   "Pincode": 201310
 },
 {
   "S.No.": 476,
   "Area": "Eta 2",
   "District": "Gautam Buddh Nagar",
   "Pincode": 201310
 },
 {
   "S.No.": 477,
   "Area": "Gamma 1",
   "District": "Gautam Buddh Nagar",
   "Pincode": 201310
 },
 {
   "S.No.": 478,
   "Area": "Gamma 2",
   "District": "Gautam Buddh Nagar",
   "Pincode": 201310
 },
 {
   "S.No.": 479,
   "Area": "Khora Colony",
   "District": "Gautam Buddh Nagar",
   "Pincode": 201310
 },
 {
   "S.No.": 480,
   "Area": "Knowledge Park 1",
   "District": "Gautam Buddh Nagar",
   "Pincode": 201310
 },
 {
   "S.No.": 481,
   "Area": "Knowledge Park 2",
   "District": "Gautam Buddh Nagar",
   "Pincode": 201310
 },
 {
   "S.No.": 482,
   "Area": "Knowledge Park 3",
   "District": "Gautam Buddh Nagar",
   "Pincode": 201310
 },
 {
   "S.No.": 483,
   "Area": "Knowledge Park 4",
   "District": "Gautam Buddh Nagar",
   "Pincode": 201310
 },
 {
   "S.No.": 484,
   "Area": "Knowledge Park 5",
   "District": "Gautam Buddh Nagar",
   "Pincode": 201310
 },
 {
   "S.No.": 485,
   "Area": "MU 1",
   "District": "Gautam Buddh Nagar",
   "Pincode": 201310
 },
 {
   "S.No.": 486,
   "Area": "MU 2",
   "District": "Gautam Buddh Nagar",
   "Pincode": 201310
 },
 {
   "S.No.": 487,
   "Area": "Nepz",
   "District": "Gautam Buddh Nagar",
   "Pincode": 201310
 },
 {
   "S.No.": 488,
   "Area": "Noida Extension",
   "District": "Gautam Buddh Nagar",
   "Pincode": 201310
 },
 {
   "S.No.": 489,
   "Area": "NTPC Anandam",
   "District": "Gautam Buddh Nagar",
   "Pincode": 201310
 },
 {
   "S.No.": 490,
   "Area": "Omega 1",
   "District": "Gautam Buddh Nagar",
   "Pincode": 201310
 },
 {
   "S.No.": 491,
   "Area": "Omega 2",
   "District": "Gautam Buddh Nagar",
   "Pincode": 201310
 },
 {
   "S.No.": 492,
   "Area": "Omega 3",
   "District": "Gautam Buddh Nagar",
   "Pincode": 201310
 },
 {
   "S.No.": 493,
   "Area": "Omega 4",
   "District": "Gautam Buddh Nagar",
   "Pincode": 201310
 },
 {
   "S.No.": 494,
   "Area": "Omicron 1",
   "District": "Gautam Buddh Nagar",
   "Pincode": 201310
 },
 {
   "S.No.": 495,
   "Area": "Omicron 2",
   "District": "Gautam Buddh Nagar",
   "Pincode": 201310
 },
 {
   "S.No.": 496,
   "Area": "Omicron 3",
   "District": "Gautam Buddh Nagar",
   "Pincode": 201310
 },
 {
   "S.No.": 497,
   "Area": "Pi 1",
   "District": "Gautam Buddh Nagar",
   "Pincode": 201310
 },
 {
   "S.No.": 498,
   "Area": "Pi 2",
   "District": "Gautam Buddh Nagar",
   "Pincode": 201310
 },
 {
   "S.No.": 499,
   "Area": "Safrabad",
   "District": "Gautam Buddh Nagar",
   "Pincode": 201310
 },
 {
   "S.No.": 500,
   "Area": "Sector 111",
   "District": "Gautam Buddh Nagar",
   "Pincode": 201310
 },
 {
   "S.No.": 501,
   "Area": "Sector 113",
   "District": "Gautam Buddh Nagar",
   "Pincode": 201310
 },
 {
   "S.No.": 502,
   "Area": "Sector 146",
   "District": "Gautam Buddh Nagar",
   "Pincode": 201310
 },
 {
   "S.No.": 503,
   "Area": "Sector 147",
   "District": "Gautam Buddh Nagar",
   "Pincode": 201310
 },
 {
   "S.No.": 504,
   "Area": "Sector 148",
   "District": "Gautam Buddh Nagar",
   "Pincode": 201310
 },
 {
   "S.No.": 505,
   "Area": "Sector 149",
   "District": "Gautam Buddh Nagar",
   "Pincode": 201310
 },
 {
   "S.No.": 506,
   "Area": "Sector 150",
   "District": "Gautam Buddh Nagar",
   "Pincode": 201310
 },
 {
   "S.No.": 507,
   "Area": "Sector 151",
   "District": "Gautam Buddh Nagar",
   "Pincode": 201310
 },
 {
   "S.No.": 508,
   "Area": "Sector 152",
   "District": "Gautam Buddh Nagar",
   "Pincode": 201310
 },
 {
   "S.No.": 509,
   "Area": "Sector 153",
   "District": "Gautam Buddh Nagar",
   "Pincode": 201310
 },
 {
   "S.No.": 510,
   "Area": "Sector 154",
   "District": "Gautam Buddh Nagar",
   "Pincode": 201310
 },
 {
   "S.No.": 511,
   "Area": "Sector 155",
   "District": "Gautam Buddh Nagar",
   "Pincode": 201310
 },
 {
   "S.No.": 512,
   "Area": "Sector 156",
   "District": "Gautam Buddh Nagar",
   "Pincode": 201310
 },
 {
   "S.No.": 513,
   "Area": "Sector 157",
   "District": "Gautam Buddh Nagar",
   "Pincode": 201310
 },
 {
   "S.No.": 514,
   "Area": "Sector 158",
   "District": "Gautam Buddh Nagar",
   "Pincode": 201310
 },
 {
   "S.No.": 515,
   "Area": "Sector 159",
   "District": "Gautam Buddh Nagar",
   "Pincode": 201310
 },
 {
   "S.No.": 516,
   "Area": "Sector 160",
   "District": "Gautam Buddh Nagar",
   "Pincode": 201310
 },
 {
   "S.No.": 517,
   "Area": "Sector 161",
   "District": "Gautam Buddh Nagar",
   "Pincode": 201310
 },
 {
   "S.No.": 518,
   "Area": "Sector 162",
   "District": "Gautam Buddh Nagar",
   "Pincode": 201310
 },
 {
   "S.No.": 519,
   "Area": "Sector 163",
   "District": "Gautam Buddh Nagar",
   "Pincode": 201310
 },
 {
   "S.No.": 520,
   "Area": "Sector 164",
   "District": "Gautam Buddh Nagar",
   "Pincode": 201310
 },
 {
   "S.No.": 521,
   "Area": "Sector 165",
   "District": "Gautam Buddh Nagar",
   "Pincode": 201310
 },
 {
   "S.No.": 522,
   "Area": "Sector 166",
   "District": "Gautam Buddh Nagar",
   "Pincode": 201310
 },
 {
   "S.No.": 523,
   "Area": "Sector 167",
   "District": "Gautam Buddh Nagar",
   "Pincode": 201310
 },
 {
   "S.No.": 524,
   "Area": "Sector 168",
   "District": "Gautam Buddh Nagar",
   "Pincode": 201310
 },
 {
   "S.No.": 525,
   "Area": "Sector 31, Greater Noida",
   "District": "Gautam Buddh Nagar",
   "Pincode": 201310
 },
 {
   "S.No.": 526,
   "Area": "Sector 36, Greater Noida",
   "District": "Gautam Buddh Nagar",
   "Pincode": 201310
 },
 {
   "S.No.": 527,
   "Area": "Sector 37, Greater Noida",
   "District": "Gautam Buddh Nagar",
   "Pincode": 201310
 },
 {
   "S.No.": 528,
   "Area": "Sector 73",
   "District": "Gautam Buddh Nagar",
   "Pincode": 201310
 },
 {
   "S.No.": 529,
   "Area": "Sigma 1",
   "District": "Gautam Buddh Nagar",
   "Pincode": 201310
 },
 {
   "S.No.": 530,
   "Area": "Sigma 2",
   "District": "Gautam Buddh Nagar",
   "Pincode": 201310
 },
 {
   "S.No.": 531,
   "Area": "Sigma 3",
   "District": "Gautam Buddh Nagar",
   "Pincode": 201310
 },
 {
   "S.No.": 532,
   "Area": "Sigma 4",
   "District": "Gautam Buddh Nagar",
   "Pincode": 201310
 },
 {
   "S.No.": 533,
   "Area": "Surajpur",
   "District": "Gautam Buddh Nagar",
   "Pincode": 201310
 },
 {
   "S.No.": 534,
   "Area": "Swarn Nagari",
   "District": "Gautam Buddh Nagar",
   "Pincode": 201310
 },
 {
   "S.No.": 535,
   "Area": "Theta 1",
   "District": "Gautam Buddh Nagar",
   "Pincode": 201310
 },
 {
   "S.No.": 536,
   "Area": "Theta 2",
   "District": "Gautam Buddh Nagar",
   "Pincode": 201310
 },
 {
   "S.No.": 537,
   "Area": "Tilapta",
   "District": "Gautam Buddh Nagar",
   "Pincode": 201310
 },
 {
   "S.No.": 538,
   "Area": "Udyog Vihar",
   "District": "Gautam Buddh Nagar",
   "Pincode": 201310
 },
 {
   "S.No.": 539,
   "Area": "XU 1",
   "District": "Gautam Buddh Nagar",
   "Pincode": 201310
 },
 {
   "S.No.": 540,
   "Area": "XU 2",
   "District": "Gautam Buddh Nagar",
   "Pincode": 201310
 },
 {
   "S.No.": 541,
   "Area": "Zeta 1",
   "District": "Gautam Buddh Nagar",
   "Pincode": 201310
 },
 {
   "S.No.": 542,
   "Area": "Zeta 2",
   "District": "Gautam Buddh Nagar",
   "Pincode": 201310
 },
 {
   "S.No.": 543,
   "Area": "Zeta 3",
   "District": "Gautam Buddh Nagar",
   "Pincode": 201310
 },
 {
   "S.No.": 544,
   "Area": "Container Depot",
   "District": "Gautam Buddh Nagar",
   "Pincode": 201311
 },
 {
   "S.No.": 545,
   "Area": "Gautam Budh University",
   "District": "Gautam Buddh Nagar",
   "Pincode": 201312
 },
 {
   "S.No.": 546,
   "Area": "Sector 125",
   "District": "Gautam Buddh Nagar",
   "Pincode": 201313
 },
 {
   "S.No.": 547,
   "Area": "Sector 126",
   "District": "Gautam Buddh Nagar",
   "Pincode": 201313
 },
 {
   "S.No.": 548,
   "Area": "Sector 127",
   "District": "Gautam Buddh Nagar",
   "Pincode": 201313
 },
 {
   "S.No.": 549,
   "Area": "Chhaisa",
   "District": "Gautam Buddh Nagar",
   "Pincode": 201314
 },
 {
   "S.No.": 550,
   "Area": "Chholas",
   "District": "Gautam Buddh Nagar",
   "Pincode": 201314
 },
 {
   "S.No.": 551,
   "Area": "Chithera",
   "District": "Gautam Buddh Nagar",
   "Pincode": 201314
 },
 {
   "S.No.": 552,
   "Area": "Khandera",
   "District": "Gautam Buddh Nagar",
   "Pincode": 201314
 },
 {
   "S.No.": 553,
   "Area": "Kot",
   "District": "Gautam Buddh Nagar",
   "Pincode": 201314
 },
 {
   "S.No.": 554,
   "Area": "Luharli",
   "District": "Gautam Buddh Nagar",
   "Pincode": 201314
 },
 {
   "S.No.": 555,
   "Area": "Sainthli",
   "District": "Gautam Buddh Nagar",
   "Pincode": 201314
 },
 {
   "S.No.": 556,
   "Area": "Shiv Nadar University",
   "District": "Gautam Buddh Nagar",
   "Pincode": 201314
 },
 {
   "S.No.": 557,
   "Area": "Dayanatpur",
   "District": "Gautam Buddh Nagar",
   "Pincode": 203135
 },
 {
   "S.No.": 558,
   "Area": "Faleda",
   "District": "Gautam Buddh Nagar",
   "Pincode": 203135
 },
 {
   "S.No.": 559,
   "Area": "Jewar",
   "District": "Gautam Buddh Nagar",
   "Pincode": 203135
 },
 {
   "S.No.": 560,
   "Area": "Kanigarhi",
   "District": "Gautam Buddh Nagar",
   "Pincode": 203135
 },
 {
   "S.No.": 561,
   "Area": "Kureb",
   "District": "Gautam Buddh Nagar",
   "Pincode": 203135
 },
 {
   "S.No.": 562,
   "Area": "Mangrouly",
   "District": "Gautam Buddh Nagar",
   "Pincode": 203135
 },
 {
   "S.No.": 563,
   "Area": "Sabouta Jafrabad",
   "District": "Gautam Buddh Nagar",
   "Pincode": 203135
 },
 {
   "S.No.": 564,
   "Area": "Bhunna Jattan",
   "District": "Gautam Buddh Nagar",
   "Pincode": 203141
 },
 {
   "S.No.": 565,
   "Area": "Chhapana",
   "District": "Gautam Buddh Nagar",
   "Pincode": 203141
 },
 {
   "S.No.": 566,
   "Area": "Chingrawly",
   "District": "Gautam Buddh Nagar",
   "Pincode": 203141
 },
 {
   "S.No.": 567,
   "Area": "Gotheny",
   "District": "Gautam Buddh Nagar",
   "Pincode": 203141
 },
 {
   "S.No.": 568,
   "Area": "Hasanpur",
   "District": "Gautam Buddh Nagar",
   "Pincode": 203141
 },
 {
   "S.No.": 569,
   "Area": "Jahangirpur",
   "District": "Gautam Buddh Nagar",
   "Pincode": 203141
 },
 {
   "S.No.": 570,
   "Area": "Jawan",
   "District": "Gautam Buddh Nagar",
   "Pincode": 203141
 },
 {
   "S.No.": 571,
   "Area": "Lodana",
   "District": "Gautam Buddh Nagar",
   "Pincode": 203141
 },
 {
   "S.No.": 572,
   "Area": "Mansoor Pur Hasanpur",
   "District": "Gautam Buddh Nagar",
   "Pincode": 203141
 },
 {
   "S.No.": 573,
   "Area": "Narmohamadpur",
   "District": "Gautam Buddh Nagar",
   "Pincode": 203141
 },
 {
   "S.No.": 574,
   "Area": "Bankapur",
   "District": "Gautam Buddh Nagar",
   "Pincode": 203155
 },
 {
   "S.No.": 575,
   "Area": "Chanchaly",
   "District": "Gautam Buddh Nagar",
   "Pincode": 203155
 },
 {
   "S.No.": 576,
   "Area": "Kishore Pur",
   "District": "Gautam Buddh Nagar",
   "Pincode": 203155
 },
 {
   "S.No.": 577,
   "Area": "Manchad",
   "District": "Gautam Buddh Nagar",
   "Pincode": 203155
 },
 {
   "S.No.": 578,
   "Area": "Neemka",
   "District": "Gautam Buddh Nagar",
   "Pincode": 203155
 },
 {
   "S.No.": 579,
   "Area": "Ranhera",
   "District": "Gautam Buddh Nagar",
   "Pincode": 203155
 },
 {
   "S.No.": 580,
   "Area": "Thora",
   "District": "Gautam Buddh Nagar",
   "Pincode": 203155
 },
 {
   "S.No.": 581,
   "Area": "Dhanouri Kalan",
   "District": "Gautam Buddh Nagar",
   "Pincode": 203201
 },
 {
   "S.No.": 582,
   "Area": "Nawada",
   "District": "Gautam Buddh Nagar",
   "Pincode": 203201
 },
 {
   "S.No.": 583,
   "Area": "Parsol",
   "District": "Gautam Buddh Nagar",
   "Pincode": 203201
 },
 {
   "S.No.": 584,
   "Area": "Astauly",
   "District": "Gautam Buddh Nagar",
   "Pincode": 203202
 },
 {
   "S.No.": 585,
   "Area": "Baroda",
   "District": "Gautam Buddh Nagar",
   "Pincode": 203202
 },
 {
   "S.No.": 586,
   "Area": "Chiti",
   "District": "Gautam Buddh Nagar",
   "Pincode": 203202
 },
 {
   "S.No.": 587,
   "Area": "Deota",
   "District": "Gautam Buddh Nagar",
   "Pincode": 203202
 },
 {
   "S.No.": 588,
   "Area": "Rashol Rithaury",
   "District": "Gautam Buddh Nagar",
   "Pincode": 203202
 },
 {
   "S.No.": 589,
   "Area": "Salempur Gujar",
   "District": "Gautam Buddh Nagar",
   "Pincode": 203202
 },
 {
   "S.No.": 590,
   "Area": "Wair",
   "District": "Gautam Buddh Nagar",
   "Pincode": 203202
 },
 {
   "S.No.": 591,
   "Area": "Banchawaly",
   "District": "Gautam Buddh Nagar",
   "Pincode": 203203
 },
 {
   "S.No.": 592,
   "Area": "Bichat Sujanpur",
   "District": "Gautam Buddh Nagar",
   "Pincode": 203203
 },
 {
   "S.No.": 593,
   "Area": "Biroundi Tajpur",
   "District": "Gautam Buddh Nagar",
   "Pincode": 203203
 },
 {
   "S.No.": 594,
   "Area": "Chol R.S.",
   "District": "Gautam Buddh Nagar",
   "Pincode": 203203
 },
 {
   "S.No.": 595,
   "Area": "Jhajhar",
   "District": "Gautam Buddh Nagar",
   "Pincode": 203203
 },
 {
   "S.No.": 596,
   "Area": "Kakore",
   "District": "Gautam Buddh Nagar",
   "Pincode": 203203
 },
 {
   "S.No.": 597,
   "Area": "Khabra Khanpur",
   "District": "Gautam Buddh Nagar",
   "Pincode": 203203
 },
 {
   "S.No.": 598,
   "Area": "Mahamdpur Jadon",
   "District": "Gautam Buddh Nagar",
   "Pincode": 203203
 },
 {
   "S.No.": 599,
   "Area": "Salempur Jat",
   "District": "Gautam Buddh Nagar",
   "Pincode": 203203
 },
 {
   "S.No.": 600,
   "Area": "Sunpera",
   "District": "Gautam Buddh Nagar",
   "Pincode": 203203
 },
 {
   "S.No.": 601,
   "Area": "Wailana",
   "District": "Gautam Buddh Nagar",
   "Pincode": 203203
 },
 {
   "S.No.": 602,
   "Area": "Achheja",
   "District": "Gautam Buddh Nagar",
   "Pincode": 203207
 },
 {
   "S.No.": 603,
   "Area": "Bambawar",
   "District": "Gautam Buddh Nagar",
   "Pincode": 203207
 },
 {
   "S.No.": 604,
   "Area": "Behhrampur",
   "District": "Gautam Buddh Nagar",
   "Pincode": 203207
 },
 {
   "S.No.": 605,
   "Area": "Dadri",
   "District": "Gautam Buddh Nagar",
   "Pincode": 203207
 },
 {
   "S.No.": 606,
   "Area": "Dhoomedso",
   "District": "Gautam Buddh Nagar",
   "Pincode": 203207
 },
 {
   "S.No.": 607,
   "Area": "Dujana",
   "District": "Gautam Buddh Nagar",
   "Pincode": 203207
 },
 {
   "S.No.": 608,
   "Area": "Jarcha",
   "District": "Gautam Buddh Nagar",
   "Pincode": 203207
 },
 {
   "S.No.": 609,
   "Area": "Kachera Versabad",
   "District": "Gautam Buddh Nagar",
   "Pincode": 203207
 },
 {
   "S.No.": 610,
   "Area": "Kalaunda",
   "District": "Gautam Buddh Nagar",
   "Pincode": 203207
 },
 {
   "S.No.": 611,
   "Area": "Khatana",
   "District": "Gautam Buddh Nagar",
   "Pincode": 203207
 },
 {
   "S.No.": 612,
   "Area": "Kheri Bhanauta",
   "District": "Gautam Buddh Nagar",
   "Pincode": 203207
 },
 {
   "S.No.": 613,
   "Area": "Pali",
   "District": "Gautam Buddh Nagar",
   "Pincode": 203207
 },
 {
   "S.No.": 614,
   "Area": "Vedpura",
   "District": "Gautam Buddh Nagar",
   "Pincode": 203207
 },
 {
   "S.No.": 615,
   "Area": "Bhaipur Brahmanan",
   "District": "Gautam Buddh Nagar",
   "Pincode": 203209
 },
 {
   "S.No.": 616,
   "Area": "Karauli Banger",
   "District": "Gautam Buddh Nagar",
   "Pincode": 203209
 },
 {
   "S.No.": 617,
   "Area": "Rabupura",
   "District": "Gautam Buddh Nagar",
   "Pincode": 203209
 },
 {
   "S.No.": 618,
   "Area": "Ronija",
   "District": "Gautam Buddh Nagar",
   "Pincode": 203209
 },
 {
   "S.No.": 619,
   "Area": "Tirthaly",
   "District": "Gautam Buddh Nagar",
   "Pincode": 203209
 },
 {
   "S.No.": 620,
   "Area": "Salarpur Kalan",
   "District": "Gautam Buddh Nagar",
   "Pincode": 201008
 },
 {
   "S.No.": 621,
   "Area": "Vidyut Nagar",
   "District": "Gautam Buddh Nagar",
   "Pincode": 201008
 }
]

	
}