{
	"South Delhi":[
 {
   "Sr No.": 1,
   "Area": "Aliganj",
   "Pincode": 110003,
   "District": "South Delhi"
 },
 {
   "Sr No.": 2,
   "Area": "CGO Complex",
   "Pincode": 110003,
   "District": "South Delhi"
 },
 {
   "Sr No.": 3,
   "Area": "Delhi High Court",
   "Pincode": 110003,
   "District": "South Delhi"
 },
 {
   "Sr No.": 4,
   "Area": "Golf Links",
   "Pincode": 110003,
   "District": "South Delhi"
 },
 {
   "Sr No.": 5,
   "Area": "Jorbagh",
   "Pincode": 110003,
   "District": "South Delhi"
 },
 {
   "Sr No.": 6,
   "Area": "Kasturba Nagar",
   "Pincode": 110003,
   "District": "South Delhi"
 },
 {
   "Sr No.": 7,
   "Area": "Kotla Mubarakpur",
   "Pincode": 110003,
   "District": "South Delhi"
 },
 {
   "Sr No.": 8,
   "Area": "Lodi Colony market",
   "Pincode": 110003,
   "District": "South Delhi"
 },
 {
   "Sr No.": 9,
   "Area": "Lodhi Road",
   "Pincode": 110003,
   "District": "South Delhi"
 },
 {
   "Sr No.": 10,
   "Area": "Lodi Road",
   "Pincode": 110003,
   "District": "South Delhi"
 },
 {
   "Sr No.": 11,
   "Area": "Pandara Road",
   "Pincode": 110003,
   "District": "South Delhi"
 },
 {
   "Sr No.": 12,
   "Area": "Pragati Vihar",
   "Pincode": 110003,
   "District": "South Delhi"
 },
 {
   "Sr No.": 13,
   "Area": "Safdarjung Air port",
   "Pincode": 110003,
   "District": "South Delhi"
 },
 {
   "Sr No.": 14,
   "Area": "South Ext-I",
   "Pincode": 110003,
   "District": "South Delhi"
 },
 {
   "Sr No.": 15,
   "Area": "Ashram",
   "Pincode": 110014,
   "District": "South Delhi"
 },
 {
   "Sr No.": 16,
   "Area": "Bhogal",
   "Pincode": 110014,
   "District": "South Delhi"
 },
 {
   "Sr No.": 17,
   "Area": "Hari Nagar Ashram",
   "Pincode": 110014,
   "District": "South Delhi"
 },
 {
   "Sr No.": 18,
   "Area": "Jeevan Nagar",
   "Pincode": 110014,
   "District": "South Delhi"
 },
 {
   "Sr No.": 19,
   "Area": "Jangpura",
   "Pincode": 110014,
   "District": "South Delhi"
 },
 {
   "Sr No.": 20,
   "Area": "Jungpura",
   "Pincode": 110014,
   "District": "South Delhi"
 },
 {
   "Sr No.": 21,
   "Area": "Jangpura Ext",
   "Pincode": 110014,
   "District": "South Delhi"
 },
 {
   "Sr No.": 22,
   "Area": "Maharani Bagh",
   "Pincode": 110014,
   "District": "South Delhi"
 },
 {
   "Sr No.": 23,
   "Area": "Pratap Market",
   "Pincode": 110014,
   "District": "South Delhi"
 },
 {
   "Sr No.": 24,
   "Area": "Siddhartha Enclave",
   "Pincode": 110014,
   "District": "South Delhi"
 },
 {
   "Sr No.": 25,
   "Area": "Chirag Delhi",
   "Pincode": 110017,
   "District": "South Delhi"
 },
 {
   "Sr No.": 26,
   "Area": "Distt. Court Complex, Saket",
   "Pincode": 110017,
   "District": "South Delhi"
 },
 {
   "Sr No.": 27,
   "Area": "Geetanjali Enclave",
   "Pincode": 110017,
   "District": "South Delhi"
 },
 {
   "Sr No.": 28,
   "Area": "Hauz Rani",
   "Pincode": 110017,
   "District": "South Delhi"
 },
 {
   "Sr No.": 29,
   "Area": "Khirki",
   "Pincode": 110017,
   "District": "South Delhi"
 },
 {
   "Sr No.": 30,
   "Area": "Malviya Nagar",
   "Pincode": 110017,
   "District": "South Delhi"
 },
 {
   "Sr No.": 31,
   "Area": "MMTC/STC Colony",
   "Pincode": 110017,
   "District": "South Delhi"
 },
 {
   "Sr No.": 32,
   "Area": "Malviya Nagar",
   "Pincode": 110017,
   "District": "South Delhi"
 },
 {
   "Sr No.": 33,
   "Area": "Panchsheel Park",
   "Pincode": 110017,
   "District": "South Delhi"
 },
 {
   "Sr No.": 34,
   "Area": "Panchsheel Enclave",
   "Pincode": 110017,
   "District": "South Delhi"
 },
 {
   "Sr No.": 35,
   "Area": "Pushp Vihar",
   "Pincode": 110017,
   "District": "South Delhi"
 },
 {
   "Sr No.": 36,
   "Area": "Saidulajab",
   "Pincode": 110017,
   "District": "South Delhi"
 },
 {
   "Sr No.": 37,
   "Area": "Saket",
   "Pincode": 110017,
   "District": "South Delhi"
 },
 {
   "Sr No.": 38,
   "Area": "Sarvodya Enclave",
   "Pincode": 110017,
   "District": "South Delhi"
 },
 {
   "Sr No.": 39,
   "Area": "South Malviya Nagar",
   "Pincode": 110017,
   "District": "South Delhi"
 },
 {
   "Sr No.": 40,
   "Area": "Savitri Nagar",
   "Pincode": 110017,
   "District": "South Delhi"
 },
 {
   "Sr No.": 41,
   "Area": "Sheikh Sarai",
   "Pincode": 110017,
   "District": "South Delhi"
 },
 {
   "Sr No.": 42,
   "Area": "Swami Nagar",
   "Pincode": 110017,
   "District": "South Delhi"
 },
 {
   "Sr No.": 43,
   "Area": "Alaknanda",
   "Pincode": 110019,
   "District": "South Delhi"
 },
 {
   "Sr No.": 44,
   "Area": "Chittranjan Park",
   "Pincode": 110019,
   "District": "South Delhi"
 },
 {
   "Sr No.": 45,
   "Area": "Govindpuri",
   "Pincode": 110019,
   "District": "South Delhi"
 },
 {
   "Sr No.": 46,
   "Area": "Kalkaji",
   "Pincode": 110019,
   "District": "South Delhi"
 },
 {
   "Sr No.": 47,
   "Area": "Kalkaji Extension",
   "Pincode": 110019,
   "District": "South Delhi"
 },
 {
   "Sr No.": 48,
   "Area": "Mandakini Enclave",
   "Pincode": 110019,
   "District": "South Delhi"
 },
 {
   "Sr No.": 49,
   "Area": "Nehru Place",
   "Pincode": 110019,
   "District": "South Delhi"
 },
 {
   "Sr No.": 50,
   "Area": "Tehkhand",
   "Pincode": 110019,
   "District": "South Delhi"
 },
 {
   "Sr No.": 51,
   "Area": "Tughlakabad",
   "Pincode": 110019,
   "District": "South Delhi"
 },
 {
   "Sr No.": 52,
   "Area": "Tughlakabad Extension",
   "Pincode": 110019,
   "District": "South Delhi"
 },
 {
   "Sr No.": 53,
   "Area": "Okhla Industrial Area",
   "Pincode": 110020,
   "District": "South Delhi"
 },
 {
   "Sr No.": 54,
   "Area": "Okhla Industrial Area Phase-I",
   "Pincode": 110020,
   "District": "South Delhi"
 },
 {
   "Sr No.": 55,
   "Area": "Okhla Industrial Estate",
   "Pincode": 110020,
   "District": "South Delhi"
 },
 {
   "Sr No.": 56,
   "Area": "Okhla Phase-I",
   "Pincode": 110020,
   "District": "South Delhi"
 },
 {
   "Sr No.": 57,
   "Area": "Okhla Phase-II",
   "Pincode": 110020,
   "District": "South Delhi"
 },
 {
   "Sr No.": 58,
   "Area": "Okhla Phase-III",
   "Pincode": 110020,
   "District": "South Delhi"
 },
 {
   "Sr No.": 59,
   "Area": "Amar Colony",
   "Pincode": 110024,
   "District": "South Delhi"
 },
 {
   "Sr No.": 60,
   "Area": "Defence Colony",
   "Pincode": 110024,
   "District": "South Delhi"
 },
 {
   "Sr No.": 61,
   "Area": "Krishna Market",
   "Pincode": 110024,
   "District": "South Delhi"
 },
 {
   "Sr No.": 62,
   "Area": "Lajpat Nagar",
   "Pincode": 110024,
   "District": "South Delhi"
 },
 {
   "Sr No.": 63,
   "Area": "Abul Fazal Enclave-I",
   "Pincode": 110025,
   "District": "South Delhi"
 },
 {
   "Sr No.": 64,
   "Area": "New Friends colony",
   "Pincode": 110025,
   "District": "South Delhi"
 },
 {
   "Sr No.": 65,
   "Area": "Sukhdev Vihar",
   "Pincode": 110025,
   "District": "South Delhi"
 },
 {
   "Sr No.": 66,
   "Area": "Greater Kailash",
   "Pincode": 110048,
   "District": "South Delhi"
 },
 {
   "Sr No.": 67,
   "Area": "Greater Kailash Part-I",
   "Pincode": 110048,
   "District": "South Delhi"
 },
 {
   "Sr No.": 68,
   "Area": "Greater Kailash Part-II",
   "Pincode": 110048,
   "District": "South Delhi"
 },
 {
   "Sr No.": 69,
   "Area": "Greater Kailash Part-III",
   "Pincode": 110048,
   "District": "South Delhi"
 },
 {
   "Sr No.": 70,
   "Area": "Kailash Colony",
   "Pincode": 110048,
   "District": "South Delhi"
 },
 {
   "Sr No.": 71,
   "Area": "Masjid Moth",
   "Pincode": 110048,
   "District": "South Delhi"
 },
 {
   "Sr No.": 72,
   "Area": "Andrews Ganj",
   "Pincode": 110049,
   "District": "South Delhi"
 },
 {
   "Sr No.": 73,
   "Area": "Gautam Nagar",
   "Pincode": 110049,
   "District": "South Delhi"
 },
 {
   "Sr No.": 74,
   "Area": "Gulmohar Park",
   "Pincode": 110049,
   "District": "South Delhi"
 },
 {
   "Sr No.": 75,
   "Area": "Khel Gaon",
   "Pincode": 110049,
   "District": "South Delhi"
 },
 {
   "Sr No.": 76,
   "Area": "Moolchand",
   "Pincode": 110049,
   "District": "South Delhi"
 },
 {
   "Sr No.": 77,
   "Area": "Neeti Bagh",
   "Pincode": 110049,
   "District": "South Delhi"
 },
 {
   "Sr No.": 78,
   "Area": "New Delhi South Ext-II",
   "Pincode": 110049,
   "District": "South Delhi"
 },
 {
   "Sr No.": 79,
   "Area": "Sadiq Nagar",
   "Pincode": 110049,
   "District": "South Delhi"
 },
 {
   "Sr No.": 80,
   "Area": "Sahpurjat",
   "Pincode": 110049,
   "District": "South Delhi"
 },
 {
   "Sr No.": 81,
   "Area": "South Ex - 1",
   "Pincode": 110049,
   "District": "South Delhi"
 },
 {
   "Sr No.": 82,
   "Area": "South Ex - 2",
   "Pincode": 110049,
   "District": "South Delhi"
 },
 {
   "Sr No.": 83,
   "Area": "East Of Kailash",
   "Pincode": 110065,
   "District": "South Delhi"
 },
 {
   "Sr No.": 84,
   "Area": "East O Kailash Phase-I",
   "Pincode": 110065,
   "District": "South Delhi"
 },
 {
   "Sr No.": 85,
   "Area": "Garhi",
   "Pincode": 110065,
   "District": "South Delhi"
 },
 {
   "Sr No.": 86,
   "Area": "Nehru Nagar",
   "Pincode": 110065,
   "District": "South Delhi"
 },
 {
   "Sr No.": 87,
   "Area": "Sant Nagar",
   "Pincode": 110065,
   "District": "South Delhi"
 },
 {
   "Sr No.": 88,
   "Area": "Sriniwaspuri",
   "Pincode": 110065,
   "District": "South Delhi"
 },
 {
   "Sr No.": 89,
   "Area": "Taimoor Nagar",
   "Pincode": 110065,
   "District": "South Delhi"
 },
 {
   "Sr No.": 90,
   "Area": "Sarita Vihar",
   "Pincode": 110076,
   "District": "South Delhi"
 }
]
	
}